,system_code,location_code,location_name,primary_address_line_1,LONGITUDE,LATITUDE
0,15K001,K001,P.S. 001 The Bergen,309 47 STREET,-74.01142,40.648959
1,17K002,K002,Parkside Preparatory Academy,655 PARKSIDE AVENUE,-73.951575,40.656423
2,13K003,K003,P.S. 003 The Bedford Village,50 JEFFERSON AVENUE,-73.955219,40.682311
3,75K004,K004,P.S. K004,923 JEROME STREET,-73.879276,40.6585
4,16K005,K005,P.S. 005 Dr. Ronald McNair,820 HANCOCK STREET,-73.92197,40.685241
5,17K006,K006,Norma Adams Clemons Academy,43 SNYDER AVENUE,-73.956279,40.648973
6,19K007,K007,P.S. 007 Abraham Lincoln,858 JAMAICA AVENUE,-73.872983,40.689213
7,13K008,K008,P.S. 008 Robert Fulton,37 HICKS STREET,-73.992841,40.700709
8,13K009,K009,P.S. 009 Teunis G. Bergen,80 UNDERHILL AVENUE,-73.966333,40.678554
9,15K010,K010,"Magnet School of Math, Science and Design Technolo",511 7 AVENUE,-73.985946,40.660912
10,13K011,K011,P.S. 011 Purvis J. Behan,419 WAVERLY AVENUE,-73.96589,40.685896
11,17K012,K012,Dr. Jacqueline Peek-Davis School,430 HOWARD AVENUE,-73.920095,40.673124
12,19K013,K013,P.S. 013 Roberto Clemente,557 PENNSYLVANIA AVENUE,-73.893328,40.664067
13,22K014,K014,J.H.S. 014 Shell Bank,2424 BATCHELDER STREET,-73.938107,40.593232
14,15K015,K015,P.S. 015 Patrick F. Daly,71 SULLIVAN STREET,-74.011864,40.677085
15,14K016,K016,P.S. 016 Leonard Dunkly,157 WILSON STREET,-73.962049,40.706069
16,14K017,K017,P.S. 017 Henry D. Woodworth,208 NORTH  5 STREET,-73.9573,40.715268
17,14K018,K018,P.S. 018 Edward Bush,101 MAUJER STREET,-73.946695,40.71088
18,14K019,K019,P.S. 019 Roberto Clemente,325 SOUTH  3 STREET,-73.954678,40.710107
19,13K020,K020,P.S. 020 Clinton Hill,225 ADELPHI STREET,-73.970896,40.690742
20,16K021,K021,P.S. 021 Crispus Attucks,180 CHAUNCEY STREET,-73.926673,40.68035
21,17K022,K022,P.S. 022,443 ST MARKS AVENUE,-73.960093,40.6771
22,14K023,K023,P.S. 023 Carter G. Woodson,545 WILLOUGHBY AVENUE,-73.947256,40.69447
23,15K024,K024,P.S. 024,427 38 STREET,-74.004533,40.652832
24,16K025,K025,P.S. 025 Eubie Blake School,787 LAFAYETTE AVENUE,-73.940749,40.691472
25,16K026,K026,P.S. 026 Jesse Owens,1014 LAFAYETTE AVENUE,-73.9317,40.6921
26,16K026,K026,P.S. 026 Jesse Owens,1014 LAFAYETTE AVENUE,-73.9317,40.6921
27,15K027,K027,Agnes Y. Humphrey School for Leadership,27 HUNTINGTON STREET,-74.005151,40.677914
28,16K028,K028,P.S. 028 The Warren Prep Academy,265 RALPH AVENUE,-73.921099,40.680239
29,15K029,K029,P.S. 029 John M. Harrigan,425 HENRY STREET,-73.997447,40.686843
30,20K030,K030,P.S./I.S. 30 Mary White Ovington,7002 4TH AVENUE,-74.02395,40.633598
31,14K031,K031,P.S. 031 Samuel F. Dupont,75 MESEROLE AVENUE,-73.954139,40.72697
32,15K032,K032,P.S. 032 Samuel Mills Sprole,317 HOYT STREET,-73.991141,40.680159
33,14K033,K033,JHS 033 Mark Hopkins,70 TOMPKINS AVENUE,-73.9466,40.6971
34,14K034,K034,P.S. 034 Oliver H. Perry,131 NORMAN AVENUE,-73.949756,40.726378
35,16K035,K035,M.S. 035 Stephen Decatur,272 MACDONOUGH STREET,-73.935891,40.681528
36,75K036,K036,P.S. 36,2045 LINDEN BOULEVARD,-73.887195,40.660465
37,84K037,K037,Beginning with Children Charter School II,215 HEYWARD STREET,-73.953304,40.703996
38,15K038,K038,P.S. 038 The Pacific,450 PACIFIC STREET,-73.982826,40.684945
39,15K039,K039,P.S. 039 Henry Bristow,417 6 AVENUE,-73.982909,40.668644
40,16K040,K040,P.S. 040 George W. Carver,265 RALPH AVENUE,-73.921099,40.680239
41,23K041,K041,P.S. 041 Francis White,411 THATFORD AVENUE,-73.906925,40.660455
42,23K041,K041,P.S. 041 Francis White,411 THATFORD AVENUE,-73.906925,40.660455
43,13K044,K044,P.S. 044 Marcus Garvey,432 MONROE STREET,-73.940859,40.686213
44,32K045,K045,P.S./I.S. 045 Horace E. Greene,84 SCHAEFER STREET,-73.91043,40.686424
45,13K046,K046,P.S. 046 Edward C. Blum,100 CLERMONT AVENUE,-73.971644,40.69453
46,20K048,K048,P.S. 048 Mapleton,6015 18 AVENUE,-73.987165,40.621481
47,14K049,K049,J.H.S. 049 William J. Gaynor,223 GRAHAM AVENUE,-73.9436,40.71
48,14K050,K050,J.H.S. 050 John D. Wells,183 SOUTH  3 STREET,-73.960137,40.711915
49,15K051,K051,M.S. 51 William Alexander,350 5 AVENUE,-73.98505,40.672358
50,22K052,K052,P.S. 052 Sheepshead Bay,2675 EAST  29 STREET,-73.940135,40.588372
51,75K053,K053,P.S. K053,544 7TH AVENUE,-73.988743,40.660805
52,13K054,K054,P.S. 054 Samuel C. Barnes,195 SANDFORD STREET,-73.952504,40.692616
53,23K055,K055,I.S. 055 Ocean Hill Brownsville,2021 BERGEN STREET,-73.9133,40.6741
54,13K056,K056,P.S. 056 Lewis H. Latimer,170 GATES AVENUE,-73.960536,40.684286
55,16K057,K057,Whitelaw Reid Academy of Arts and Business,125 STUYVESANT AVENUE,-73.932254,40.691467
56,15K058,K058,P.S. 058 The Carroll,330 SMITH STREET,-73.995486,40.680379
57,14K059,K059,P.S. 059 William Floyd,211 THROOP AVENUE,-73.943279,40.697619
58,17K061,K061,M.S. 061 Dr. Gladstone H. Atwell,400 EMPIRE BOULEVARD,-73.949198,40.663605
59,20K062,K062,J.H.S. 062 Ditmas,700 CORTELYOU ROAD,-73.971153,40.638087
60,19K065,K065,P.S. 065,696 JAMAICA AVENUE,-73.878353,40.686534
61,18K066,K066,P.S. 66,845 EAST  96 STREET,-73.907064,40.648749
62,13K067,K067,P.S. 067 Charles A. Dorsey,51 SAINT EDWARDS STREET,-73.977674,40.695339
63,18K068,K068,I.S. 068 Isaac Bildersee,956 EAST  82 STREET,-73.911215,40.635388
64,20K069,K069,P.S. 69 Vincent D. Grippo School,6302 9TH AVENUE,-74.009752,40.632392
65,20K069,K069,P.S. 69 Vincent D. Grippo School,6302 9TH AVENUE,-74.009752,40.632392
66,14K071,K071,Juan Morel Campos Secondary School,215 HEYWARD STREET,-73.953304,40.703996
67,19K072,K072,P.S./I.S. 072 Annette P Goldman,605 SHEPHERD AVENUE,-73.879131,40.669358
68,23K073,K073,P.S. 073 Thomas S. Boyland,251 MCDOUGAL STREET,-73.910719,40.680679
69,32K075,K075,P.S. 075 Mayda Cortiella,95 GROVE STREET,-73.921336,40.693261
70,75K077,K077,P.S. K077,62 PARK PLACE,-73.976648,40.678809
71,22K078,K078,J.H.S. 078 Roy H. Mann,1420 EAST  68 STREET,-73.912914,40.620537
72,16K081,K081,P.S. 081 Thaddeus Stevens,990 DEKALB AVENUE,-73.935123,40.692866
73,14K084,K084,P.S. 084 Jose De Diego,250 BERRY STREET,-73.963808,40.715089
74,32K086,K086,P.S. 086 The Irvington,220 IRVING AVENUE,-73.917804,40.700595
75,15K088,K088,J.H.S. 088 Peter Rouget,544 7TH AVENUE,-73.988743,40.660805
76,19K089,K089,P.S. 089 Cypress Hills,265 WARWICK STREET,-73.886712,40.677707
77,21K090,K090,P.S. 90 Edna Cohen School,2840 WEST  12 STREET,-73.980387,40.578192
78,17K091,K091,P.S. 091 The Albany Avenue School,532 ALBANY AVENUE,-73.940707,40.661806
79,17K092,K092,P.S. 092 Adrian Hegeman,601 PARKSIDE AVENUE,-73.95381,40.656276
80,13K093,K093,P.S. 093 William H. Prescott,31 NEW YORK AVENUE,-73.946381,40.679079
81,15K094,K094,P.S. 094 The Henry Longfellow,5010 6 AVENUE,-74.008795,40.64373
82,21K095,K095,P.S. 095 The Gravesend,345 VAN SICKLEN STREET,-73.974664,40.595996
83,21K096,K096,I.S. 096 Seth Low,99 AVENUE P,-73.984985,40.608135
84,21K097,K097,P.S. 97 The Highlawn,1855 STILLWELL AVENUE,-73.98557,40.601191
85,21K098,K098,I.S. 98 Bay Academy,1401 EMMONS AVENUE,-73.954047,40.583893
86,21K099,K099,P.S. 099 Isaac Asimov,1120 EAST  10 STREET,-73.966031,40.621474
87,21K100,K100,P.S. 100 The Coney Island School,2951 WEST  3 STREET,-73.97083,40.577591
88,21K101,K101,P.S. 101 The Verrazano,2360 BENSON AVENUE,-73.991962,40.597379
89,20K102,K102,P.S. 102 The Bayview,211 72 STREET,-74.028758,40.634318
90,13K103,K103,Satellite Three,170 GATES AVENUE,-73.960536,40.684286
91,20K104,K104,P.S./I.S. 104 The Fort Hamilton School,9115 5 AVENUE,-74.028492,40.618077
92,20K105,K105,P.S. 105 The Blythebourne,1031 59 STREET,-74.003635,40.63332
93,32K106,K106,P.S. 106 Edward Everett Hale,1328 PUTNAM AVENUE,-73.913378,40.693318
94,15K107,K107,P.S. 107 John W. Kimball,1301 8 AVENUE,-73.981181,40.662945
95,19K108,K108,P.S. 108 Sal Abbracciamento,200 LINWOOD STREET,-73.884348,40.681295
96,22K109,K109,P.S. 109,1001 EAST  45 STREET,-73.933099,40.635842
97,22K109,K109,P.S. 109,1001 EAST  45 STREET,-73.933099,40.635842
98,14K110,K110,P.S. 110 The Monitor,124 MONITOR STREET,-73.941926,40.723743
99,20K112,K112,P.S. 112 Lefferts Park,7115 15 AVENUE,-74.000565,40.619417
100,13K113,K113,M.S. 113 Ronald Edmonds Learning Center,300 ADELPHI STREET,-73.971474,40.688769
101,18K114,K114,P.S. 114 Ryder Elementary,1077 REMSEN AVENUE,-73.90788,40.642684
102,18K115,K115,P.S. 115 Daniel Mucatel School,1500 EAST  92 STREET,-73.897896,40.634861
103,32K116,K116,P.S. 116 Elizabeth L Farrell,515 KNICKERBOCKER AVENUE,-73.916563,40.698077
104,13K117,K117,J.H.S. 117 Francis Scott Key,300 WILLOUGHBY AVENUE,-73.9588,40.6926
105,15K118,K118,The Maurice Sendak Community School,211 8TH STREET,-73.987602,40.671145
106,22K119,K119,P.S. 119 Amersfort,3829 AVENUE K,-73.938733,40.626038
107,14K120,K120,P.S. 120 Carlos Tapia,18 BEAVER STREET,-73.937888,40.700819
108,21K121,K121,P.S. 121 Nelson A. Rockefeller,5301 20 AVENUE,-73.978472,40.622671
109,17K122,K122,Pathways in Technology Early College High School (,150 ALBANY AVENUE,-73.939282,40.675905
110,32K123,K123,P.S. 123 Suydam,100 IRVING AVENUE,-73.922388,40.704076
111,15K124,K124,P.S. 124 Silas B. Dutcher,515 4 AVENUE,-73.99062,40.667464
112,84K125,K125,Success Academy Charter School - Bed-Stuy 2,211 THROOP AVENUE,-73.943279,40.697619
113,14K126,K126,John Ericsson Middle School 126,424 LEONARD STREET,-73.947932,40.719818
114,20K127,K127,P.S. 127 Mckinley Park,7805 7 AVENUE,-74.018429,40.623687
115,21K128,K128,P.S. 128 Bensonhurst,2075 84 STREET,-73.995084,40.60498
116,84K129,K129,Success Academy Charter School - Cobble Hill,284 BALTIC STREET,-73.993293,40.685006
117,15K130,K130,P.S. 130 The Parkside,70 OCEAN PARKWAY,-73.976053,40.648924
118,15K131,K131,P.S. 131 Brooklyn,4305 FT HAMILTON PARKWAY,-73.993247,40.640728
119,14K132,K132,P.S. 132 The Conselyea School,320 MANHATTAN AVENUE,-73.945663,40.714772
120,13K133,K133,P.S. 133 William A. Butler,610 BALTIC STREET,-73.980455,40.679916
121,22K134,K134,P.S. K134,4001 18 AVENUE,-73.97318,40.632145
122,18K135,K135,P.S. 135 Sheldon A. Brookner,684 LINDEN BOULEVARD,-73.932949,40.653093
123,15K136,K136,I.S. 136 Charles O. Dewey,4004 4 AVENUE,-74.007596,40.652127
124,23K137,K137,P.S./I.S. 137 Rachel Jean Mitchell,121 SARATOGA AVENUE,-73.916641,40.682248
125,17K138,K138,P.S. 138 Brooklyn,760 PROSPECT PLACE,-73.951559,40.673943
126,17K138,K138,P.S. 138 Brooklyn,760 PROSPECT PLACE,-73.951559,40.673943
127,22K139,K139,P.S. 139 Alexine A. Fenty,330 RUGBY ROAD,-73.965862,40.64134
128,75K140,K140,P.S. K140,141 MACON STREET,-73.9456,40.68192
129,75K141,K141,P.S. K141,655 PARKSIDE AVENUE,-73.951575,40.656423
130,15K142,K142,JHS 142,610 HENRY STREET,-74.0014,40.6801
131,16K143,K143,M.S. 143 Performing & Fine Arts,800 GATES AVENUE,-73.932,40.6883
132,32K145,K145,P.S. 145 Andrew Jackson,100 NOLL STREET,-73.932388,40.701107
133,15K146,K146,"The Brooklyn New School, P.S. 146",610 HENRY STREET,-74.002022,40.679462
134,14K147,K147,P.S. 147 Isaac Remsen,325 BUSHWICK AVENUE,-73.93879,40.705005
135,19K149,K149,P.S. 149 Danny Kaye,700 SUTTER AVENUE,-73.89276,40.669361
136,23K150,K150,P.S. 150 Christopher,364 SACKMAN STREET,-73.90514,40.668768
137,32K151,K151,P.S. 151 Lyndon B. Johnson,763 KNICKERBOCKER AVENUE,-73.908242,40.693432
138,22K152,K152,School of Science & Technology,725 EAST  23 STREET,-73.954269,40.632619
139,22K152,K152,School of Science & Technology,725 EAST  23 STREET,-73.954269,40.632619
140,21K153,K153,P.S. 153 Homecrest,1970 HOMECREST AVENUE,-73.960027,40.601179
141,15K154,K154,The Windsor Terrace School,1625 11 AVENUE,-73.975967,40.657002
142,23K155,K155,P.S./ I.S. 155 Nicholas Herkimer,1355 HERKIMER STREET,-73.908682,40.677634
143,23K156,K156,P.S. 156 Waverly,104 SUTTER AVENUE,-73.91788,40.665553
144,14K157,K157,P.S./I.S. 157 The Benjamin Franklin Health & Scien,850 KENT AVENUE,-73.959999,40.695397
145,19K158,K158,P.S. 158 Warwick,400 ASHFORD STREET,-73.885214,40.67259
146,19K159,K159,P.S. 159 Isaac Pitkin,2781 PITKIN AVENUE,-73.869705,40.676111
147,20K160,K160,P.S. 160 William T. Sampson,5105 Fort Hamilton Parkway,-73.999045,40.636932
148,17K161,K161,P.S. 161 The Crown,330 CROWN STREET,-73.949243,40.665757
149,32K162,K162,J.H.S. 162 The Willoughby,1390 WILLOUGHBY AVENUE,-73.919643,40.706816
150,20K163,K163,P.S. 163 Bath Beach,109 BAY 14TH STREET,-74.007469,40.606739
151,20K164,K164,P.S. 164 Caesar Rodney,4211 14 AVENUE,-73.985739,40.637101
152,23K165,K165,P.S. 165 Ida Posner,76 LOTT AVENUE,-73.910938,40.657061
153,19K166,K166,J.H.S. 166 George Gershwin,800 VAN SICLEN AVE,-73.885704,40.659934
154,17K167,K167,P.S. 167 The Parkway,1025 EASTERN PARKWAY,-73.934316,40.669557
155,32K168,K168,The Brooklyn School for Math and Research,400 IRVING AVENUE,-73.911751,40.696457
156,15K169,K169,P.S. 169 Sunset Park,4305 7 AVENUE,-74.0017,40.645825
157,20K170,K170,Ralph A. Fabrizio School,619 72ND STREET,-74.018719,40.630373
158,20K170,K170,Ralph A. Fabrizio School,619 72ND STREET,-74.018719,40.630373
159,19K171,K171,I.S. 171 Abraham Lincoln,528 RIDGEWOOD AVENUE,-73.869434,40.685852
160,15K172,K172,P.S. 172 Beacon School of Excellence,825 4 AVENUE,-74.000191,40.657682
161,19K174,K174,P.S. 174 Dumont,574 DUMONT AVENUE,-73.897604,40.665446
162,20K176,K176,P.S. 176 Ovington,1225 69 STREET,-74.005205,40.624835
163,21K177,K177,P.S. 177 The Marlboro,346 AVENUE P,-73.974425,40.608169
164,23K178,K178,P.S. 178 Saint Clair Mckelway,2163 DEAN STREET,-73.915337,40.67538
165,20K179,K179,P.S. 179 Kensington,202 AVENUE C,-73.97726,40.640127
166,20K180,K180,The SEEALL Academy,5601 16 AVENUE,-73.98925,40.626454
167,17K181,K181,P.S. 181 Brooklyn,1023 NEW YORK AVENUE,-73.945883,40.648217
168,84K182,K182,Success Academy Charter School - Williamsburg,183 SOUTH  3 STREET,-73.960137,40.711915
169,23K183,K183,P.S. 183 Daniel Chappie James,76 RIVERDALE AVENUE,-73.9139,40.6602
170,23K184,K184,P.S. 184 Newport,273 NEWPORT STREET,-73.905004,40.660385
171,20K185,K185,P.S. 185 Walter Kassenbrock,8601 RIDGE BOULEVARD,-74.033429,40.623598
172,20K186,K186,P.S. 186 Dr. Irving A Gladstone,7601 19 AVENUE,-73.994258,40.610917
173,20K187,K187,The Christa McAuliffe School\I.S. 187,1171 65 STREET,-74.003883,40.627929
174,21K188,K188,P.S. 188 Michael E. Berdy,3314 NEPTUNE AVENUE,-74.000489,40.576733
175,17K189,K189,P.S. 189 The Bilingual Center,1100 EAST NEW YORK AVENUE,-73.925435,40.665228
176,19K190,K190,P.S. 190 Sheffield,590 SHEFFIELD AVENUE,-73.894877,40.662243
177,17K191,K191,P.S. 191 Paul Robeson,1600 PARK PLACE,-73.924127,40.67173
178,20K192,K192,P.S. 192 - The Magnet School for Math and Science,4715 18 AVENUE,-73.97954,40.6288
179,22K193,K193,P.S. 193 Gil Hodges,2515 AVENUE L,-73.950321,40.62208
180,22K194,K194,P.S. 194 Raoul Wallenberg,3117 AVENUE W,-73.934163,40.598069
181,22K195,K195,P.S. 195 Manhattan Beach,131 IRWIN STREET,-73.943498,40.580161
182,14K196,K196,P.S. 196 Ten Eyck,207 BUSHWICK AVENUE,-73.939385,40.708804
183,22K197,K197,P.S. 197 - The Kings Highway Academy,1599 EAST  22 STREET,-73.951398,40.612339
184,22K198,K198,P.S. 198 Brooklyn,4105 FARRAGUT ROAD,-73.937083,40.637601
185,21K199,K199,P.S. 199 Frederick Wachtel,1100 ELM AVENUE,-73.963026,40.61631
186,20K200,K200,P.S. 200 Benson School,1940 BENSON AVENUE,-74.001915,40.602809
187,20K201,K201,J.H.S. 201 The Dyker Heights,8010 12 AVENUE,-74.013749,40.619043
188,19K202,K202,P.S. 202 Ernest S. Jenkyns,982 HEGEMAN AVENUE,-73.876084,40.665817
189,22K203,K203,P.S. 203 Floyd Bennett School,5101 AVENUE M,-73.925732,40.622108
190,20K204,K204,P.S. 204 Vince Lombardi,8101 15 AVENUE,-74.006137,40.613535
191,20K205,K205,P.S. 205 Clarion,6701 20 AVENUE,-73.986792,40.614737
192,22K206,K206,P.S. 206 Joseph F Lamb,2200 GRAVESEND NECK ROAD,-73.948453,40.596876
193,22K207,K207,P.S. 207 Elizabeth G. Leary,4011 FILLMORE AVENUE,-73.930485,40.613981
194,18K208,K208,P.S. 208 Elsa Ebeling,4801 AVENUE D,-73.930898,40.6427
195,21K209,K209,P.S. 209 Margaret Mead,2609 EAST  7 STREET,-73.961191,40.5868
196,18K211,K211,I.S. 211 John Wilson,1001 EAST 100 STREET,-73.895224,40.642931
197,21K212,K212,P.S. 212 Lady Deborah Moody,87 BAY  49 STREET,-73.985368,40.587612
198,19K213,K213,P.S. 213 New Lots,580 HEGEMAN AVENUE,-73.889968,40.659845
199,19K214,K214,P.S. 214 Michael Friedsam,2944 PITKIN AVENUE,-73.862961,40.675881
200,21K215,K215,P.S. 215 Morris H. Weiss,415 AVENUE S,-73.970171,40.602722
201,21K216,K216,P.S. 216 Arturo Toscanini,350 AVENUE X,-73.969647,40.59
202,22K217,K217,P.S. 217 Colonel David Marcus School,1100 NEWKIRK AVENUE,-73.966442,40.633482
203,19K218,K218,J.H.S. 218 James P. Sinnott,370 FOUNTAIN AVENUE,-73.874537,40.67002
204,18K219,K219,P.S. 219 Kennedy-King,1060 CLARKSON AVENUE,-73.922296,40.658834
205,20K220,K220,J.H.S. 220 John J. Pershing,4812 9TH AVENUE,-74.00125,40.640997
206,17K221,K221,P.S. 221 Toussaint L'Ouverture,791 EMPIRE BOULEVARD,-73.935753,40.663964
207,22K222,K222,P.S. 222 Katherine R. Snyder,3301 QUENTIN ROAD,-73.939205,40.614005
208,20K223,K223,J.H.S. 223 The Montauk,4200 16 AVENUE,-73.982424,40.6351
209,19K224,K224,P.S. 224 Hale A. Woodruff,757 WORTMAN AVENUE,-73.866542,40.664143
210,21K225,K225,P.S. K225 - The Eileen E. Zaglin,1075 OCEAN VIEW AVENUE,-73.955856,40.58026
211,21K226,K226,P.S. 226 Alfred De B. Mason,6006 23 AVENUE,-73.977099,40.615405
212,20K227,K227,J.H.S. 227 Edward B. Shallow,6500 16 AVENUE,-73.995961,40.622102
213,21K228,K228,I.S. 228 David A. Boody,228 AVENUE S,-73.976801,40.60066
214,20K229,K229,P.S. 229 Dyker,1400 BENSON AVENUE,-74.013585,40.610331
215,15K230,K230,P.S. 230 Doris L. Cohen,1 ALBEMARLE ROAD,-73.980515,40.645609
216,75K231,K231,P.S. K231,5601 16 AVENUE,-73.98925,40.626454
217,18K232,K232,I.S. 232 The Winthrop,905 WINTHROP STREET,-73.929,40.6584
218,18K233,K233,P.S. 233 Langston Hughes,9301 AVENUE B,-73.914282,40.651642
219,22K234,K234,J.H.S. 234 Arthur W. Cunningham,1875 EAST  17 STREET,-73.955217,40.604447
220,18K235,K235,P.S. 235 Janice Marie Knight School,525 LENOX ROAD,-73.940922,40.655337
221,22K236,K236,P.S. 236 Mill Basin,6302 AVENUE U,-73.912005,40.615494
222,21K238,K238,P.S. 238 Anne Sullivan,1633 EAST  8 STREET,-73.964586,40.608801
223,21K239,K239,Mark Twain I.S. 239 for the Gifted & Talented,2401 NEPTUNE AVENUE,-73.992447,40.57864
224,22K240,K240,Andries Hudde,2500 NOSTRAND AVENUE,-73.946836,40.623788
225,17K241,K241,P.S. 241 Emma L. Johnston,976 PRESIDENT STREET,-73.960924,40.668913
226,16K243,K243,P.S. 243K- The Weeksville School,1580 DEAN STREET,-73.935093,40.675675
227,18K244,K244,P.S. 244 Richard R. Green,5404 TILDEN AVENUE,-73.925592,40.647851
228,22K245,K245,P.S. 245,249 EAST 17TH STREET,-73.962743,40.644927
229,17K246,K246,M.S. 246 Walt Whitman,72 VERONICA PLACE,-73.95348,40.648352
230,20K247,K247,P.S. 247 Brooklyn,7000 21 AVENUE,-73.987195,40.612247
231,17K249,K249,P.S. 249 The Caton,18 MARLBOROUGH ROAD,-73.966456,40.649509
232,14K250,K250,P.S. 250 George H. Lindsay,108 MONTROSE AVENUE,-73.945659,40.706708
233,22K251,K251,P.S. 251 Paerdegat,1037 EAST  54 STREET,-73.923894,40.63195
234,18K252,K252,I.S. 252 Arthur S. Somers,1084 LENOX ROAD,-73.9201,40.6583
235,21K253,K253,P.S. 253,601 OCEANVIEW AVENUE,-73.961962,40.580237
236,22K254,K254,P.S. 254 Dag Hammarskjold,1801 AVENUE Y,-73.95155,40.591103
237,22K255,K255,P.S. 255 Barbara Reing School,1866 EAST  17 STREET,-73.955891,40.604461
238,13K256,K256,P.S. 256 Benjamin Banneker,114 KOSCIUSZKO STREET,-73.94961,40.690595
239,14K257,K257,P.S. 257 John F. Hylan,60 COOK STREET,-73.941345,40.702759
240,13K258,K258,J.H.S. 258 David Ruggles,141 MACON STREET,-73.9454,40.6816
241,20K259,K259,J.H.S. 259 William McKinley,7305 FT HAMILTON PARKWAY,-74.014633,40.626089
242,19K260,K260,P.S. 260 Breuckelen,875 WILLIAMS AVENUE,-73.893294,40.653368
243,15K261,K261,P.S. 261 Philip Livingston,314 PACIFIC STREET,-73.988667,40.687218
244,16K262,K262,P.S. 262 El Hajj Malik El Shabazz Elementary Schoo,500 MACON STREET,-73.930132,40.682949
245,20K264,K264,P.S. 264 Bay Ridge Elementary School For The Arts,371 89th Street,-74.029444,40.621025
246,13K265,K265,Dr. Susan S. McKinney Secondary School of the Arts,101 PARK AVENUE,-73.976104,40.697177
247,13K266,K266,M.S. K266 - Park Place Community Middle School,62 PARK PLACE,-73.976648,40.678809
248,16K267,K267,"M.S. 267 Math, Science & Technology",800 GATES AVENUE,-73.932066,40.68797
249,18K268,K268,P.S. 268 Emma Lazarus,133 EAST  53 STREET,-73.92756,40.657421
250,22K269,K269,P.S. 269 Nostrand,1957 NOSTRAND AVENUE,-73.947672,40.637625
251,13K270,K270,P.S. 270 Johann DeKalb,241 EMERSON PLACE,-73.961134,40.691275
252,23K271,K271,I.S. 271 John M. Coleman,121 SARATOGA AVENUE,-73.9171,40.6827
253,18K272,K272,P.S. 272 Curtis Estabrook,101-24 SEAVIEW AVENUE,-73.886373,40.635542
254,19K273,K273,P.S. 273 Wortman,923 JEROME STREET,-73.879276,40.6585
255,32K274,K274,P.S. 274 Kosciusko,800 BUSHWICK AVENUE,-73.92818,40.694179
256,23K275,K275,IS 275 Thelma J. Hamilton,985 ROCKAWAY AVENUE,-73.9074,40.6566
257,18K276,K276,P.S. 276 Louis Marshall,1070 EAST  83 STREET,-73.908436,40.634005
258,22K277,K277,P.S. 277 Gerritsen Beach,2529 GERRITSEN AVENUE,-73.92785,40.595798
259,22K278,K278,J.H.S. 278 Marine Park,1925 STUART STREET,-73.938721,40.606745
260,18K279,K279,P.S. 279 Herman Schreiber,1070 EAST 104 STREET,-73.892797,40.644134
261,21K280,K280,IS 280 Brooklyn Studio School,8310 21ST AVENUE,-73.9944,40.6049
262,21K281,K281,I.S. 281 Joseph B Cavallaro,8787 24 AVENUE,-73.993565,40.594648
263,13K282,K282,P.S. 282 Park Slope,180 6 AVENUE,-73.977983,40.676649
264,23K284,K284,"The Gregory Jocko Jackson School of Sports, Art, a",213 OSBORN STREET,-73.907634,40.666942
265,18K285,K285,I.S. 285 Meyer Levin,5909 BEVERLY ROAD,-73.920784,40.647818
266,18K285,K285,I.S. 285 Meyer Levin,5909 BEVERLY ROAD,-73.920784,40.647818
267,13K287,K287,P.S. 287 Bailey K. Ashford,50 NAVY STREET,-73.98112,40.697856
268,21K288,K288,P.S. 288 The Shirley Tanyhill,2950 WEST  25 STREET,-73.992393,40.574029
269,17K289,K289,P.S. 289 George V. Brower,900 ST MARKS AVENUE,-73.942401,40.674244
270,19K290,K290,P.S. 290 Juan Morel Campos,135 SCHENCK AVENUE,-73.889375,40.678182
271,32K291,K291,J.H.S. 291 Roland Hayes,231 PALMETTO STREET,-73.915217,40.695875
272,19K292,K292,J.H.S. 292 Margaret S. Douglas,301 VERMONT STREET,-73.893319,40.671601
273,19K292,K292,J.H.S. 292 Margaret S. Douglas,301 VERMONT STREET,-73.893319,40.671601
274,15K295,K295,P.S. 295,330 18 STREET,-73.988743,40.660805
275,32K296,K296,I.S. 296 - The Anna Gonzalez Community School,125 COVERT STREET,-73.910589,40.688647
276,14K297,K297,P.S. 297 Abraham Stockton,700 PARK AVENUE,-73.948166,40.697377
277,23K298,K298,P.S. 298 Dr. Betty Shabazz,85 WATKINS STREET,-73.907718,40.671015
278,32K299,K299,P.S. 299 Thomas Warren Field,88 WOODBINE STREET,-73.917899,40.690755
279,13K301,K301,Satellite East Middle School,31 NEW YORK AVENUE,-73.946381,40.679079
280,19K302,K302,J.H.S. 302 Rafael Cordero,350 LINWOOD STREET,-73.884211,40.677112
281,21K303,K303,I.S. 303 Herbert S. Eisenberg,501 WEST AVENUE,-73.972009,40.582518
282,21K303,K303,I.S. 303 Herbert S. Eisenberg,501 WEST AVENUE,-73.972009,40.582518
283,16K304,K304,P.S. 304 Casimir Pulaski,280 HART STREET,-73.9408,40.6941
284,13K305,K305,P.S. 305 Dr. Peter Ray,344 MONROE STREET,-73.94573,40.685653
285,19K306,K306,P.S. 306 Ethan Allen,970 VERMONT STREET,-73.88662,40.65534
286,13K307,K307,P.S. 307 Daniel Hale Williams,209 YORK STREET,-73.981599,40.701789
287,16K308,K308,P.S. 308 Clara Cardwell,616 QUINCY STREET,-73.935509,40.688323
288,16K309,K309,P.S. 309 The George E. Wibecan Preparatory Academy,794 MONROE STREET,-73.924422,40.6881
289,20K310,K310,The School For Future Leaders,942 62ND STREET,-74.007533,40.632143
290,19K311,K311,Essence School,590 SHEFFIELD AVENUE,-73.894877,40.662243
291,22K312,K312,P.S. 312 Bergen Beach,7103 AVENUE T,-73.909554,40.622442
292,13K313,K313,Dock Street School for STEAM Studies,19 DOCK STREET,-73.992076,40.702952
293,20K314,K314,PS 314 Luis Munoz Marin,330 59 STREET,-74.019,40.6422
294,22K315,K315,P.S. K315,2310 GLENWOOD ROAD,-73.954269,40.632619
295,22K315,K315,P.S. K315,2310 GLENWOOD ROAD,-73.954269,40.632619
296,17K316,K316,P.S. 316 Elijah Stroud,750 CLASSON AVENUE,-73.961418,40.674685
297,14K317,K317,The Greenpoint Community Middle School At The John,424 LEONARD STREET,-73.947932,40.719818
298,14K318,K318,I.S. 318 Eugenio Maria De Hostos,101 WALTON STREET,-73.948771,40.703034
299,14K319,K319,P.S. 319,360 KEAP STREET,-73.953881,40.709632
300,15K321,K321,P.S. 321 William Penn,180 7 AVENUE,-73.978633,40.671816
301,14K322,K322,Foundations Academy,70 TOMPKINS AVENUE,-73.947557,40.696698
302,23K323,K323,P.S./I.S. 323,210 CHESTER STREET,-73.911279,40.666187
303,19K325,K325,The Fresh Creek School,875 WILLIAMS AVENUE,-73.893294,40.653368
304,22K326,K326,P.S. 326,1800 UTICA AVENUE,-73.92825,40.628417
305,23K327,K327,P.S. 327 Dr. Rose B. English,111 BRISTOL STREET,-73.911788,40.668232
306,19K328,K328,P.S. 328 Phyllis Wheatley,330 ALABAMA AVENUE,-73.898249,40.667985
307,21K329,K329,P.S. 329 Surfside,2929 WEST  30 STREET,-73.99577,40.574666
308,14K330,K330,The School for the Urban Environment,70 TOMPKINS AVENUE,-73.947557,40.696698
309,23K332,K332,P.S. 332 Charles H. Houston,51 CHRISTOPHER AVENUE,-73.906018,40.672216
310,84K333,K333,Explore Exceed Charter School,443 ST MARKS AVENUE,-73.960093,40.6771
311,17K334,K334,Middle School for Academic and Social Excellence,1224 PARK PLACE,-73.937601,40.67229
312,16K335,K335,P.S. 335 Granville T. Woods,130 ROCHESTER AVENUE,-73.928673,40.674491
313,13K336,K336,Academy of Business and Community Development,141 MACON STREET,-73.9456,40.68192
314,21K337,K337,International High School at Lafayette,2630 BENSON AVENUE,-73.986313,40.593028
315,19K338,K338,School Of Integrated Academics And Performing Arts,800 VAN SICLEN AVE,-73.885704,40.659934
316,17K340,K340,I.S. 340,227 STERLING PLACE,-73.970315,40.676357
317,21K344,K344,Rachel Carson High School for Coastal Studies,521 WEST AVENUE,-73.972009,40.582518
318,21K344,K344,Rachel Carson High School for Coastal Studies,521 WEST AVENUE,-73.972009,40.582518
319,19K345,K345,P.S. 345 Patrolman Robert Bolden,111 BERRIMAN STREET,-73.879886,40.676207
320,19K346,K346,P.S. 346 Abe Stark,1400 PENNSYLVANIA AVENUE,-73.881997,40.64664
321,32K347,K347,I.S. 347 School of Humanities,35 STARR STREET,-73.927938,40.70081
322,21K348,K348,High School of Sports Management,2630 BENSON AVENUE,-73.986313,40.593028
323,32K349,K349,"I.S. 349 Math, Science & Tech.",35 STARR STREET,-73.927938,40.70081
324,13K350,K350,Urban Assembly School of Music and Art,49 FLATBUSH AVENUE EXTENSION,-73.984528,40.69733
325,13K351,K351,The Urban Assembly Unison School,170 GATES AVENUE,-73.960536,40.684286
326,17K352,K352,Ebbets Field Middle School,46 MCKEEVER PLACE,-73.959484,40.665199
327,17K353,K353,Elijah Stroud Middle School,750 CLASSON AVENUE,-73.961418,40.674685
328,17K354,K354,The School of Integrated Learning,1224 PARK PLACE,-73.937601,40.67229
329,84K355,K355,Williamsburg Collegiate Charter School,157 WILSON STREET,-73.962049,40.706069
330,84K356,K356,Achievement First Crown Heights Charter School,790 EAST NEW YORK AVENUE,-73.936313,40.662092
331,84K357,K357,KIPP AMP Charter School,1224 PARK PLACE,-73.937601,40.67229
332,84K358,K358,Achievement First East New York Charter School,557 PENNSYLVANIA AVENUE,-73.893328,40.664067
333,84K359,K359,The Uft Charter School,800 VAN SICLEN AVE,-73.885704,40.659934
334,84K360,K360,Launch Expeditionary Learning Charter School,1580 DEAN STREET,-73.935093,40.675675
335,22K361,K361,P.S. 361 East Flatbush Early Childhood School,1957 NOSTRAND AVENUE,-73.947672,40.637625
336,84K362,K362,Hellenic Classical Charter School,646 FIFTH AVENUE,-73.992254,40.662985
337,23K363,K363,Brownsville Collaborative Middle School,85 WATKINS STREET,-73.907718,40.671015
338,19K364,K364,I.S. 364 Gateway,1426 FREEPORT LOOP,-73.881115,40.646211
339,23K365,K365,District 23 HS#1,1495 HERKIMER STREET,-73.904143,40.677528
340,18K366,K366,The Science And Medicine Middle School,965 EAST 107TH STREET,-73.891743,40.647396
341,84K367,K367,Success Academy Charter School - Bed-Stuy 1,70 TOMPKINS AVENUE,-73.947557,40.696698
342,75K368,K368,P.S. 368,70 TOMPKINS AVENUE,-73.947557,40.696698
343,75K369,K369,P.S. K369 - Coy L. Cox School,383 STATE STREET,-73.983312,40.687432
344,75K370,K370,P.S. 370,3000 WEST 1 STREET,-73.969872,40.577709
345,75K371,K371,P.S. 371 - Lillian L. Rashkis,355 37 STREET,-74.005168,40.654306
346,75K372,K372,P.S. 372 -The Children's School,512 CARROLL STREET,-73.9855,40.676198
347,75K373,K373,P.S. 373 - Brooklyn Transition Center,185 ELLERY STREET,-73.945211,40.699214
348,17K375,K375,P.S. 375 Jackie Robinson School,46 MCKEEVER PLACE,-73.959484,40.665199
349,32K376,K376,P.S. 376,194 HARMAN STREET,-73.920187,40.69805
350,32K377,K377,P.S. 377 Alejandrina B. De Gautier,200 WOODBINE STREET,-73.915159,40.693542
351,15K378,K378,MS 378 Carroll Gardens C.S,610 HENRY STREET,-74.0014,40.6801
352,84K379,K379,Explore Excel Charter School,1077 REMSEN AVENUE,-73.90788,40.642684
353,14K380,K380,P.S. 380 John Wayne Elementary,370 MARCY AVENUE,-73.953702,40.70179
354,22K381,K381,I. S. 381,2500 NOSTRAND AVENUE,-73.946836,40.623788
355,17K382,K382,Academy for College Preparation and Career Explora,911 FLATBUSH AVENUE,-73.957173,40.649602
356,32K383,K383,J.H.S. 383 Philippa Schuyler,1300 GREENE AVENUE,-73.919088,40.697898
357,32K384,K384,P.S. /I.S. 384 Frances E. Carter,242 COOPER STREET,-73.904695,40.689883
358,16K385,K385,"School of Business, Finance and Entrepreneurship",125 STUYVESANT AVENUE,-73.932254,40.691467
359,84K386,K386,Invictus Preparatory Charter School,370 FOUNTAIN AVENUE,-73.874537,40.67002
360,17K390,K390,M S 390 Maggie L. Walker,1224 PARK PLACE,-73.9372,40.6727
361,17K391,K391,I S 391 Mahalia Jackson,790 EAST NEW YORK AVENUE,-73.9364,40.6624
362,23K392,K392,I.S. 392,104 SUTTER AVENUE,-73.91788,40.665553
363,16K393,K393,Frederick Douglass Academy IV Secondary School,125 STUYVESANT AVENUE,-73.932254,40.691467
364,17K394,K394,M.S. K394,188 ROCHESTER AVENUE,-73.928917,40.67271
365,84K395,K395,New Visions A.I.M. Charter High School I,1150 EAST NEW YORK AVENUE,-73.923881,40.666251
366,75K396,K396,P.S. K396,110 CHESTER STREET,-73.911788,40.668232
367,17K397,K397,P.S. 397 Foster-Laurie,490 FENIMORE STREET,-73.946358,40.658663
368,17K398,K398,P.S. 398 Walter Weaver,60 EAST  94 STREET,-73.927979,40.663388
369,17K399,K399,P.S. 399 Stanley Eugene Clark,2707 ALBEMARLE ROAD,-73.951664,40.648277
370,21K400,K400,Lafayette High School,2630 BENSON AVENUE,-73.986313,40.593028
371,23K401,K401,Christopher Avenue Community School,51 CHRISTOPHER AVENUE,-73.906018,40.672216
372,32K403,K403,Academy for Excellence in Leadership,400 IRVING AVENUE,-73.911751,40.696457
373,19K404,K404,Academy for Young Writers,1065 ELTON STREET,-73.874064,40.657266
374,22K405,K405,Midwood High School,2839 BEDFORD AVENUE,-73.952356,40.632829
375,84K406,K406,"EMBER Charter School for Mindful Education, Innova",616 QUINCY STREET,-73.935509,40.688323
376,17K408,K408,Academy of Hospitality and Tourism,911 FLATBUSH AVENUE,-73.957173,40.649602
377,19K409,K409,East New York Family Academy,145 PENNSYLVANIA AVENUE,-73.895976,40.673766
378,21K410,K410,Abraham Lincoln High School,2800 OCEAN PARKWAY,-73.968733,40.582627
379,13K412,K412,Brooklyn Community Arts & Media High School (BCAM),300 WILLOUGHBY AVENUE,-73.95818,40.692015
380,14K414,K414,Brooklyn Arbor Elementary School,325 SOUTH  3 STREET,-73.954678,40.710107
381,18K415,K415,Samuel J. Tilden High School,5800 TILDEN AVENUE,-73.922212,40.647728
382,84K417,K417,Urban Dove Charter School,600 LAFAYETTE AVENUE,-73.950714,40.689574
383,13K419,K419,"Science Skills Center High School for Science, Tec",49 FLATBUSH AVENUE EXTENSION,-73.984528,40.69733
384,19K420,K420,Franklin K. Lane High School,999 JAMAICA AVENUE,-73.869305,40.693002
385,19K422,K422,Spring Creek Community School,1065 ELTON STREET,-73.874064,40.657266
386,15K423,K423,Brooklyn Frontiers High School,112 SCHERMERHORN STREET,-73.989369,40.690007
387,22K425,K425,James Madison High School,3787 BEDFORD AVENUE,-73.947661,40.610499
388,15K429,K429,Digital Arts and Cinema Technology High School,284 BALTIC STREET,-73.993293,40.685006
389,13K430,K430,Brooklyn Technical High School,29 FT GREENE PLACE,-73.976435,40.688896
390,14K434,K434,Greenpoint High School For Engineering And Automot,50 BEDFORD AVENUE,-73.953328,40.721448
391,19K435,K435,Thomas Jefferson High School,400 PENNSYLVANIA AVENUE,-73.8947,40.6675
392,13K439,K439,Brooklyn International High School,49 FLATBUSH AVENUE EXTENSION,-73.984528,40.69733
393,17K440,K440,Prospect Heights Hs,883 CLASSON AVENUE,-73.9617,40.6703
394,15K442,K442,M.S. 442 Carroll Gardens School for Innovation,500 19 STREET,-73.983116,40.656952
395,15K443,K443,New Voices School of Academic & Creative Arts,330 18 STREET,-73.988743,40.660805
396,20K445,K445,New Utrecht High School,1601 80 STREET,-74.002308,40.613041
397,23K446,K446,Riverdale Avenue Community School,76 RIVERDALE AVENUE,-73.913508,40.659618
398,15K447,K447,The Math & Science Exploratory School,345 DEAN STREET,-73.980266,40.683951
399,15K448,K448,Brooklyn Collaborative Studies,610 HENRY STREET,-74.002022,40.679462
400,14K449,K449,"Brooklyn Latin School, The",223 GRAHAM AVENUE,-73.944463,40.709765
401,21K451,K451,Shorefront High School Of Arts And Sciences At Joh,50 AVENUE X,-73.981925,40.58807
402,19K452,K452,Frederick Douglass Academy VIII Middle School,1400 PENNSYLVANIA AVENUE,-73.881997,40.64664
403,22K453,K453,Academy Of Career Exploration Of Sheepshead Bay,3000 AVENUE X,-73.936635,40.593157
404,14K454,K454,The Williamsburg High School of Art and Technology,223 GRAHAM AVENUE,-73.944463,40.709765
405,16K455,K455,Boys and Girls High School,1700 FULTON STREET,-73.931604,40.678478
406,17K459,K459,Erasmus Campus - Science/Math,911 FLATBUSH AVENUE,-73.9585,40.6495
407,76K460,K460,John Jay Hs,237 7 AVENUE,-73.9793,40.6696
408,15K462,K462,John Jay School for Law,237 7 AVENUE,-73.97858,40.669255
409,15K463,K463,Cyberarts Studio Academy,237 7 AVENUE,-73.97858,40.669255
410,15K464,K464,Park Slope Collegiate,237 7 AVENUE,-73.97858,40.669255
411,21K468,K468,Kingsborough Early College School,2630 BENSON AVENUE,-73.986313,40.593028
412,17K469,K469,Erasmus Campus - Humanities,911 FLATBUSH AVENUE,-73.9585,40.6495
413,17K470,K470,George W Wingate Hs,600 KINGSTON AVENUE,-73.9425,40.6589
414,84K473,K473,Williamsburg Charter High School,198 VARET STREET,-73.935969,40.703703
415,14K474,K474,PROGRESS High School for Professional Careers,850 GRAND STREET,-73.938921,40.711134
416,14K477,K477,East Williamsburg Scholars Academy,850 GRAND STREET,-73.938921,40.711134
417,14K478,K478,"The High School for Enterprise, Business and Techn",850 GRAND STREET,-73.938921,40.711134
418,17K479,K479,Erasmus Campus - Business/Tec,911 FLATBUSH AVENUE,-73.9585,40.6495
419,32K480,K480,Bushwick Hs,400 IRVING AVENUE,-73.9108,40.697
420,13K483,K483,The Urban Assembly School for Law and Justice,283 ADAMS STREET,-73.988323,40.694629
421,17K484,K484,Ronald Edmonds Learning Center II,430 HOWARD AVENUE,-73.920095,40.673124
422,20K485,K485,High School of Telecommunication Arts and Technolo,350 67 STREET,-74.023419,40.636721
423,84K486,K486,New Dawn Charter High School,760 DEKALB AVENUE,-73.946093,40.691606
424,14K488,K488,Brooklyn Preparatory High School,257 NORTH  6 STREET,-73.954815,40.715561
425,17K489,K489,W.E.B. Dubois Academic High School,402 EASTERN PARKWAY,-73.955188,40.669561
426,20K490,K490,Fort Hamilton High School,8301 SHORE ROAD,-74.038103,40.626827
427,13K492,K492,Academy of Arts and Letters,225 ADELPHI STREET,-73.970896,40.690742
428,23K493,K493,Brooklyn Collegiate: A College Board School,2021 BERGEN STREET,-73.912685,40.674456
429,14K494,K494,"Urban Assembly Young Women's Academy For Math, Sci",70 TOMPKINS AVENUE,-73.947557,40.696698
430,22K495,K495,Sheepshead Bay High School,3000 AVENUE X,-73.936635,40.593157
431,15K497,K497,The Boerum Hill School for International Studies,284 BALTIC STREET,-73.993293,40.685006
432,16K498,K498,Brooklyn High School for Law and Technology,1396 BROADWAY,-73.920603,40.688399
433,13K499,K499,ACORN Community High School,561 GRAND AVENUE,-73.961636,40.678591
434,18K500,K500,Canarsie High School,1600 ROCKAWAY PARKWAY,-73.898601,40.640543
435,19K502,K502,FDNY - Captain Vernon A. Richard High School for F,400 PENNSYLVANIA AVENUE,-73.895122,40.666868
436,20K503,K503,P.S. 503: The School of Discovery,330 59 STREET,-74.019299,40.64195
437,19K504,K504,High School for Civil Rights,400 PENNSYLVANIA AVENUE,-73.895122,40.666868
438,20K505,K505,Franklin Delano Roosevelt High School,5800 20 AVENUE,-73.982583,40.621299
439,20K506,K506,P.S. 506: The School of Journalism & Technology,330 59 STREET,-74.019299,40.64195
440,19K507,K507,Performing Arts and Technology High School,400 PENNSYLVANIA AVENUE,-73.895122,40.666868
441,84K508,K508,Achievement First Endeavor Charter School,510 WAVERLY AVENUE,-73.965928,40.682422
442,13K509,K509,Freedom Academy High School,116 NASSAU STREET,-73.986523,40.698274
443,19K510,K510,World Academy for Total Community Health High Scho,400 PENNSYLVANIA AVENUE,-73.895122,40.666868
444,79K512,K512,Bushwick Outreach,231 PALMETTO STREET,-73.9151,40.6954
445,84K513,K513,East New York Preparatory Charter School,210 CHESTER STREET,-73.911279,40.666187
446,23K514,K514,Frederick Douglass Academy VII High School,226 BRISTOL STREET,-73.912102,40.665568
447,18K515,K515,South Shore High School,6565 FLATLANDS AVENUE,-73.916927,40.634451
448,15K516,K516,Sunset Park Avenues Elementary School,4222 4TH AVENUE,-74.008106,40.650793
449,84K517,K517,Leadership Prep Bedford Stuyvesant Uncommon Prep C,141 MACON STREET,-73.9456,40.68192
450,23K518,K518,Kappa V (Knowledge and Power Preparatory Academy),985 ROCKAWAY AVENUE,-73.906662,40.655644
451,15K519,K519,Cobble Hill School of American Studies,347 BALTIC STREET,-73.990884,40.684869
452,15K520,K520,Pacific High School,112 SCHERMERHORN STREET,-73.989369,40.690007
453,18K521,K521,District 18 ES#1,1077 REMSEN AVENUE,-73.90788,40.642684
454,23K522,K522,Mott Hall IV,1137 HERKIMER STREET,-73.915106,40.678124
455,17K523,K523,New Horizons Preparatory School,1925 STUART STREET,-73.938721,40.606745
456,17K524,K524,International High School at Prospect Heights,883 CLASSON AVENUE,-73.960689,40.669805
457,21K525,K525,Edward R. Murrow High School,1600 AVENUE L,-73.959141,40.619671
458,13K527,K527,Urban Assembly Institute of Math and Science for Y,283 ADAMS STREET,-73.988323,40.694629
459,17K528,K528,The High School for Global Citizenship,883 CLASSON AVENUE,-73.960689,40.669805
460,15K529,K529,West Brooklyn Community High School,1053 41ST STREET,-73.992151,40.642619
461,15K530,K530,Metropolitan Corporate Academy High School,362 SCHERMERHORN STREET,-73.979829,40.686147
462,17K531,K531,"School for Human Rights, The",600 KINGSTON AVENUE,-73.943839,40.658671
463,17K532,K532,New Bridges Elementary,1025 EASTERN PARKWAY,-73.934316,40.669557
464,17K533,K533,School for Democracy and Leadership,600 KINGSTON AVENUE,-73.943839,40.658671
465,16K534,K534,Upper School @ P.S. 25,787 LAFAYETTE AVENUE,-73.940749,40.691472
466,22K535,K535,Leon M. Goldstein High School for the Sciences,1830 SHORE BOULEVARD,-73.934449,40.578356
467,84K536,K536,Community Roots Charter School,51 SAINT EDWARDS STREET,-73.977674,40.695339
468,17K537,K537,High School for Youth and Community Development at,911 FLATBUSH AVENUE,-73.957173,40.649602
469,84K538,K538,Achievement First Bushwick Charter School,1300 GREENE AVENUE,-73.919088,40.697898
470,17K539,K539,High School for Service & Learning at Erasmus,911 FLATBUSH AVENUE,-73.957173,40.649602
471,21K540,K540,John Dewey High School,50 AVENUE X,-73.981925,40.58807
472,17K543,K543,"Science, Technology and Research Early College Hig",911 FLATBUSH AVENUE,-73.957173,40.649602
473,17K544,K544,International Arts Business School,600 KINGSTON AVENUE,-73.943839,40.658671
474,32K545,K545,EBC High School for Public Service - Bushwick,1155 DEKALB AVENUE,-73.929315,40.694723
475,17K546,K546,High School for Public Service: Heroes of Tomorrow,600 KINGSTON AVENUE,-73.943839,40.658671
476,17K547,K547,Brooklyn Academy of Science and the Environment,883 CLASSON AVENUE,-73.960689,40.669805
477,17K548,K548,Brooklyn School for Music & Theatre,883 CLASSON AVENUE,-73.960689,40.669805
478,32K549,K549,The Brooklyn School for Social Justice,400 IRVING AVENUE,-73.911751,40.696457
479,32K551,K551,New York Harbor School,400 IRVING AVENUE,-73.911751,40.696457
480,32K552,K552,The Academy of Urban Planning and Engineering,400 IRVING AVENUE,-73.911751,40.696457
481,13K553,K553,Brooklyn Academy High School,832 MARCY AVENUE,-73.947873,40.684654
482,32K554,K554,All City Leadership Secondary School,321 PALMETTO STREET,-73.913172,40.697378
483,22K555,K555,Brooklyn College Academy,350 CONEY ISLAND AVENUE,-73.972312,40.649055
484,32K556,K556,Bushwick Leaders High School for Academic Excellen,797 BUSHWICK AVENUE,-73.927349,40.695436
485,19K557,K557,Brooklyn Gardens Elementary School,574 DUMONT AVENUE,-73.897604,40.665446
486,14K558,K558,Williamsburg High School for Architecture and Desi,257 NORTH  6 STREET,-73.954815,40.715561
487,21K559,K559,Life Academy High School for Film and Music,2630 BENSON AVENUE,-73.986313,40.593028
488,14K561,K561,Williamsburg Preparatory School,257 NORTH  6 STREET,-73.954815,40.715561
489,32K562,K562,Evergreen Middle School for Urban Exploration,125 COVERT STREET,-73.910589,40.688647
490,18K563,K563,It Takes a Village Academy,5800 TILDEN AVENUE,-73.922212,40.647728
491,32K564,K564,Bushwick Community High School,231 PALMETTO STREET,-73.915217,40.695875
492,79K565,K565,HS Of Redirection,226 BRISTOL STREET,-73.9117,40.6659
493,18K566,K566,Brooklyn Community High School for Excellence and,6565 FLATLANDS AVENUE,-73.916927,40.634451
494,18K567,K567,Brooklyn Theatre Arts High School,6565 FLATLANDS AVENUE,-73.916927,40.634451
495,17K568,K568,Brownsville Academy High School,1150 EAST NEW YORK AVENUE,-73.923881,40.666251
496,18K569,K569,Kurt Hahn Expeditionary Learning School,5800 TILDEN AVENUE,-73.922212,40.647728
497,13K571,K571,M.S. 571,80 UNDERHILL AVENUE,-73.966333,40.678554
498,21K572,K572,Leaders High School,2630 BENSON AVENUE,-73.986313,40.593028
499,14K574,K574,Upper Academy At Ps 23,545 WILLOUGHBY AVENUE,-73.9476,40.6941
500,13K575,K575,Bedford Stuyvesant Preparatory High School,832 MARCY AVENUE,-73.947873,40.684654
501,18K576,K576,Victory Collegiate High School,6565 FLATLANDS AVENUE,-73.916927,40.634451
502,14K577,K577,Conselyea Preparatory School,208 NORTH  5 STREET,-73.9573,40.715268
503,18K578,K578,Brooklyn Bridge Academy,6565 FLATLANDS AVENUE,-73.916927,40.634451
504,14K579,K579,Upper Academy At Ps 147,325 BUSHWICK AVENUE,-73.9394,40.7052
505,79K580,K580,Literacy Center - Brooklyn,832 MARCY AVENUE,-73.9472,40.685
506,18K581,K581,"The Middle School of Media, Law and Fine Arts",905 WINTHROP STREET,-73.928744,40.659088
507,14K582,K582,M.S. 582,207 BUSHWICK AVENUE,-73.939385,40.708804
508,19K583,K583,Multicultural High School,999 JAMAICA AVENUE,-73.869305,40.693002
509,16K584,K584,M.S. 584,130 ROCHESTER AVENUE,-73.928673,40.674491
510,22K585,K585,Brooklyn Comprehensive Night High School,6565 FLATLANDS AVENUE,-73.9167,40.6333
511,14K586,K586,Lyons Community School,223 GRAHAM AVENUE,-73.944463,40.709765
512,17K587,K587,Middle School for the Arts,790 EAST NEW YORK AVENUE,-73.936313,40.662092
513,18K588,K588,Middle School for Art and Philosophy,1084 LENOX ROAD,-73.919818,40.657712
514,18K589,K589,Arts & Media Preparatory Academy,905 WINTHROP STREET,-73.928744,40.659088
515,17K590,K590,Medgar Evers College Preparatory School,1186 CARROLL STREET,-73.951823,40.66679
516,15K592,K592,Khalil Gibran International Academy,362 SCHERMERHORN STREET,-73.979829,40.686147
517,84K593,K593,Excellence Boys Charter School,239 PATCHEN AVENUE,-73.925851,40.683446
518,13K594,K594,Gotham Professional Arts Academy,561 GRAND AVENUE,-73.961636,40.678591
519,13K595,K595,Bedford Academy High School,1119 BEDFORD AVENUE,-73.953692,40.685486
520,13K596,K596,M.S. 596 Peace Academy,300 WILLOUGHBY AVENUE,-73.95818,40.692015
521,18K598,K598,Middle School of Marketing and Legal Studies,905 WINTHROP STREET,-73.928744,40.659088
522,23K599,K599,Brooklyn Landmark Elementary School,251 MAC DOUGAL STREET,-73.910719,40.680679
523,17K600,K600,Clara Barton High School,901 CLASSON AVENUE,-73.960689,40.669805
524,13K605,K605,George Westinghouse Career and Technical Education,105 TECH PLACE,-73.986105,40.695444
525,13K605,K605,George Westinghouse Career and Technical Education,105 TECH PLACE,-73.986105,40.695444
526,84K608,K608,Kings Collegiate Charter School,1084 LENOX ROAD,-73.919818,40.657712
527,20K609,K609,Urban Assembly School for Criminal Justice,4200 16 AVENUE,-73.982424,40.6351
528,14K610,K610,A-Tech High School,50 BEDFORD AVENUE,-73.953328,40.721448
529,22K611,K611,Origins High School,3000 AVENUE X,-73.936635,40.593157
530,79K612,K612,Community Preparatory High School,40 EAST  29 STREET,-73.9848,40.7444
531,14K614,K614,Young Women's Leadership School of Brooklyn,325 BUSHWICK AVENUE,-73.93879,40.705005
532,19K615,K615,Transit Tech Career and Technical Education High S,1 WELLS STREET,-73.875328,40.67878
533,13K616,K616,Brooklyn High School for Leadership and Community,300 WILLOUGHBY AVENUE,-73.95818,40.692015
534,18K617,K617,High School for Innovation in Advertising and Medi,1600 ROCKAWAY PARKWAY,-73.898601,40.640543
535,19K618,K618,Academy of Innovative Technology,999 JAMAICA AVENUE,-73.869305,40.693002
536,21K620,K620,William E. Grady Career and Technical Education Hi,25 BRIGHTON  4TH ROAD,-73.963764,40.583263
537,17K625,K625,Paul Robeson High School,150 ALBANY AVENUE,-73.939282,40.675905
538,84K626,K626,Achievement First Brownsville Charter School,2021 BERGEN STREET,-73.912685,40.674456
539,16K627,K627,Brighter Choice Community School,280 HART STREET,-73.941278,40.693654
540,16K628,K628,Brooklyn Brownstone School,272 MACDONOUGH STREET,-73.935891,40.681528
541,18K629,K629,Cultural Academy for the Arts and Sciences,5800 TILDEN AVENUE,-73.922212,40.647728
542,22K630,K630,Professional Pathways High School,3000 AVENUE X,-73.936635,40.593157
543,23K631,K631,General D. Chappie James Elementary School of Scie,76 RIVERDALE AVENUE,-73.913508,40.659618
544,14K632,K632,Frances Perkins Academy,50 BEDFORD AVENUE,-73.953328,40.721448
545,18K633,K633,High School for Medical Professions,1600 ROCKAWAY PARKWAY,-73.898601,40.640543
546,23K634,K634,General D. Chappie James Middle School of Science,76 RIVERDALE AVENUE,-73.913508,40.659618
547,18K635,K635,Olympus Academy,755 EAST  100 STREET,-73.898607,40.645965
548,18K635,K635,Olympus Academy,755 EAST  100 STREET,-73.898607,40.645965
549,16K636,K636,Young Scholars' Academy for Discovery and Explorat,280 HART STREET,-73.941278,40.693654
550,18K637,K637,Academy for Conservation and the Environment,6565 FLATLANDS AVENUE,-73.916927,40.634451
551,19K639,K639,Brooklyn Lab School,999 JAMAICA AVENUE,-73.869305,40.693002
552,14K640,K640,Harry Van Arsdale High School,257 NORTH  6 STREET,-73.9548,40.7151
553,18K642,K642,Urban Action Academy,1600 ROCKAWAY PARKWAY,-73.898601,40.640543
554,23K643,K643,Brooklyn Democracy Academy,985 ROCKAWAY AVENUE,-73.906662,40.655644
555,23K644,K644,Eagle Academy for Young Men II,1137 HERKIMER STREET,-73.915106,40.678124
556,23K645,K645,EBC/ENY High School for Public Safety & Law,1495 HERKIMER STREET,-73.904143,40.677528
557,17K646,K646,Aspirations Diploma Plus High School,402 EASTERN PARKWAY,-73.955188,40.669561
558,23K647,K647,Metropolitan Diploma Plus High School,985 ROCKAWAY AVENUE,-73.906662,40.655644
559,84K648,K648,Bedford Stuyvesant Collegiate Charter School,800 GATES AVENUE,-73.932066,40.68797
560,84K649,K649,La Cima Charter School,800 GATES AVENUE,-73.932066,40.68797
561,84K651,K651,PAVE Academy Charter School,732 HENRY STREET,-74.003372,40.675936
562,84K652,K652,Brooklyn Ascend Charter School,205 Rockaway Parkway,-73.92044,40.661945
563,19K654,K654,Van Siclen Community Middle School,800 VAN SICLEN AVE,-73.885704,40.659934
564,15K656,K656,Brooklyn High School of the Arts,345 DEAN STREET,-73.980266,40.683951
565,19K659,K659,Cypress Hills Collegiate Preparatory School,999 JAMAICA AVENUE,-73.869305,40.693002
566,19K660,K660,W. H. Maxwell Career and Technical Education High,145 PENNSYLVANIA AVENUE,-73.895976,40.673766
567,19K661,K661,Vista Academy,350 LINWOOD STREET,-73.884211,40.677112
568,19K662,K662,Liberty Avenue Middle School,350 LINWOOD STREET,-73.884211,40.677112
569,19K663,K663,School of the Future Brooklyn,574 DUMONT AVENUE,-73.897604,40.665446
570,23K664,K664,Brooklyn Environmental Exploration School (BEES),251 MAC DOUGAL STREET,-73.910719,40.680679
571,15K667,K667,Sunset Park High School,153 35TH STREET,-74.004342,40.655583
572,23K668,K668,Riverdale Avenue Middle School,76 RIVERDALE AVENUE,-73.913508,40.659618
573,16K669,K669,Research and Service High School,1700 FULTON STREET,-73.931604,40.678478
574,13K670,K670,Benjamin Banneker Academy,71-77 CLINTON AVENUE,-73.968759,40.695389
575,23K671,K671,Mott Hall Bridges Academy,210 CHESTER STREET,-73.911279,40.666187
576,16K672,K672,New Eagle Academy at K455,1700 FULTON STREET,-73.931604,40.678478
577,18K673,K673,East Brooklyn Community High School,9517 KINGS HIGHWAY,-73.920658,40.659914
578,13K674,K674,"City Polytechnic High School of Engineering, Archi",105 TECH PLACE,-73.986105,40.695444
579,13K674,K674,"City Polytechnic High School of Engineering, Archi",105 TECH PLACE,-73.986105,40.695444
580,15K676,K676,Red Hook Neighborhood School,27 HUNTINGTON STREET,-74.005151,40.677914
581,19K677,K677,East New York Elementary School of Excellence,605 SHEPHERD AVENUE,-73.879131,40.669358
582,19K678,K678,East New York Middle School of Excellence,605 SHEPHERD AVENUE,-73.879131,40.669358
583,84K680,K680,Achievement First Aspire Charter School,982 HEGEMAN AVENUE,-73.876084,40.665817
584,16K681,K681,Madiba Prep Middle School,1014 LAFAYETTE AVENUE,-73.9317,40.6921
585,16K681,K681,Madiba Prep Middle School,1014 LAFAYETTE AVENUE,-73.9317,40.6921
586,20K682,K682,The Academy of Talented Scholars,50 AVENUE P,-73.986678,40.606994
587,19K683,K683,School for Classics High School,370 FOUNTAIN AVENUE,-73.874537,40.67002
588,15K684,K684,Millennium Brooklyn HS,237 7 AVENUE,-73.97858,40.669255
589,14K685,K685,El Puente Academy for Peace and Justice,250 HOOPER STREET,-73.955741,40.70554
590,20K686,K686,Brooklyn School of Inquiry,50 AVENUE P,-73.986678,40.606994
591,16K688,K688,The Brooklyn Academy of Global Finance,125 STUYVESANT AVENUE,-73.932254,40.691467
592,84K689,K689,Citizens of the World Charter School 1 Williamsbur,424 LEONARD STREET,-73.947932,40.719818
593,21K690,K690,Brooklyn Studio Secondary School,8310 21ST AVENUE,-73.995084,40.60498
594,13K691,K691,Fort Greene Preparatory Academy,100 CLERMONT AVENUE,-73.971644,40.69453
595,84K692,K692,Citizens of the World Charter School New York 2 Cr,791 EMPIRE BOULEVARD,-73.935753,40.663964
596,84K693,K693,Northside Charter High School,424 LEONARD STREET,-73.947932,40.719818
597,84K694,K694,Believe Southside Charter High School,424 LEONARD STREET,-73.947932,40.719818
598,23K697,K697,Teachers Preparatory High School,226 BRISTOL STREET,-73.912102,40.665568
599,15K698,K698,South Brooklyn Community High School,173 CONOVER STREET,-74.014363,40.677968
600,84K701,K701,Brooklyn Charter School,545 WILLOUGHBY AVENUE,-73.947256,40.69447
601,84K702,K702,Community Partnership Charter School,241 EMERSON PLACE,-73.961134,40.691275
602,84K703,K703,Beginning With Children Charter School,850 KENT AVENUE,-73.959999,40.695397
603,84K704,K704,Explore Charter School,655 PARKSIDE AVENUE,-73.951575,40.656423
604,17K705,K705,Brooklyn Arts and Science Elementary School,443 ST MARKS AVENUE,-73.960093,40.6771
605,84K707,K707,Brooklyn Prospect Charter School,3002 FORT HAMILTON PARKWAY,-73.97872,40.647893
606,84K710,K710,Brownsville Collegiate Charter School,364 SACKMAN STREET,-73.90514,40.668768
607,84K711,K711,Leadership Preparatory Brownsville Charter School,985 ROCKAWAY AVENUE,-73.906662,40.655644
608,84K712,K712,Excellence Girls Charter School,794 MONROE STREET,-73.924422,40.6881
609,75K721,K721,P.S. K721 - Brooklyn Occupational Training Center,64 AVENUE X,-73.981925,40.58807
610,17K722,K722,New Heights Middle School,790 EAST NEW YORK AVENUE,-73.936313,40.662092
611,84K724,K724,Leadership Prep Canarsie Charter School (Leadershi,1070 EAST 104 STREET,-73.892797,40.644134
612,84K726,K726,Fahari Academy Charter School,72 VERONICA PLACE,-73.95348,40.648352
613,21K728,K728,Liberation Diploma Plus,2865 WEST 19TH STREET,-73.985413,40.576976
614,84K730,K730,Summit Academy Charter School,27 HUNTINGTON STREET,-74.005151,40.677914
615,84K731,K731,Brooklyn Excelsior Charter School,856 QUINCY STREET,-73.925087,40.689569
616,84K733,K733,"Math, Engineering, and Science Academy Charter Hig",231 PALMETTO STREET,-73.915217,40.695875
617,84K734,K734,The Ethical Community Charter School (TECCS),700 PARK AVENUE,-73.948166,40.697377
618,84K736,K736,New American Academy Charter School,9301 AVENUE B,-73.914282,40.651642
619,84K737,K737,Brownsville Ascend Charter School,1501 PITKIN AVENUE,-73.918123,40.668608
620,84K738,K738,New Visions Charter High School for Advanced Math,3000 AVENUE X,-73.936635,40.593157
621,84K739,K739,New Visions Charter High School for the Humanities,3000 AVENUE X,-73.936635,40.593157
622,84K740,K740,Brooklyn Scholars Charter School,2635 LINDEN BOULEVARD,-73.867138,40.669356
623,84K741,K741,Success Academy Crown Heights (Brooklyn 7),330 CROWN STREET,-73.949243,40.665757
624,84K742,K742,Explore Empower Charter School,188 ROCHESTER AVENUE,-73.928917,40.67271
625,84K744,K744,Coney Island Preparatory Public Charter School,501 WEST AVENUE,-73.972009,40.582518
626,84K744,K744,Coney Island Preparatory Public Charter School,501 WEST AVENUE,-73.972009,40.582518
627,17K745,K745,Brooklyn Institute for Liberal Arts,600 KINGSTON AVENUE,-73.943839,40.658671
628,84K746,K746,Hebrew Language Academy Charter School,2186 MILL AVENUE,-73.914312,40.612258
629,23K747,K747,P.S. 747 A Great Start Academy,51 CHRISTOPHER AVENUE,-73.906018,40.672216
630,20K748,K748,P.S. 748 Brooklyn School for Global Scholars,1664 BENSON AVENUE,-74.007469,40.606739
631,15K749,K749,Brooklyn High School For Young Men,362 SCHERMERHORN STREET,-73.979829,40.686147
632,17K751,K751,Academy for Health Careers,150 ALBANY AVENUE,-73.939282,40.675905
633,84K752,K752,Success Academy Fort Greene (Brooklyn 5),101 PARK AVENUE,-73.976104,40.697177
634,75K753,K753,P.S. K753 - School for Career Development,510 CLERMONT AVENUE,-73.969248,40.682576
635,84K756,K756,Success Academy Prospect Heights (Brooklyn 6),760 PROSPECT PLACE,-73.951559,40.673943
636,84K756,K756,Success Academy Prospect Heights (Brooklyn 6),760 PROSPECT PLACE,-73.951559,40.673943
637,84K757,K757,Unity Prep Charter School,432 MONROE STREET,-73.940859,40.686213
638,84K758,K758,Brooklyn Urban Garden Charter School,500 19TH STREET,-73.982624,40.656202
639,84K759,K759,Canarsie Ascend Charter School,9719 FLATLANDS AVENUE,-73.900432,40.643834
640,19K760,K760,Highland Park Community School,528 RIDGEWOOD AVENUE,-73.869434,40.685852
641,18K763,K763,Brooklyn Science and Engineering Academy,5404 TILDEN AVENUE,-73.925592,40.647851
642,19K764,K764,The Urban Assembly School for Collaborative Health,999 JAMAICA AVENUE,-73.869305,40.693002
643,16K765,K765,Nelson Mandela High School,1700 FULTON STREET,-73.931604,40.678478
644,84K766,K766,The International Charter School of New York,55 Willoughby Street,-73.986867,40.692434
645,84K769,K769,Hyde Leadership Charter School- Brooklyn,330 ALABAMA AVENUE,-73.898249,40.667985
646,17K770,K770,P.S. 770 New American Academy,60 EAST  94 STREET,-73.927979,40.663388
647,75K771,K771,P.S. K771,1075 OCEAN VIEW AVENUE,-73.955856,40.58026
648,84K772,K772,Success Academy Charter School - Bensonhurst - New,99 AVENUE P,-73.984985,40.608135
649,84K774,K774,Achievement First Apollo Charter School,350 LINWOOD STREET,-73.884211,40.677112
650,84K775,K775,Leadership Preparatory Ocean Hill Charter School,51 CHRISTOPHER AVENUE,-73.906018,40.672216
651,84K777,K777,Ocean Hill Collegiate Charter School,1137 HERKIMER STREET,-73.915106,40.678124
652,84K780,K780,Brooklyn East Collegiate Charter School,832 MARCY AVENUE,-73.947873,40.684654
653,84K781,K781,Success Academy Charter School - Bergen Beach - Ne,1420 EAST  68 STREET,-73.912914,40.620537
654,84K782,K782,Bedford Stuyvesant New Beginnings Charter School,82 LEWIS AVENUE,-73.937717,40.694676
655,84K784,K784,Achievement First North Brooklyn Prep Charter Scho,200 WOODBINE STREET,-73.915159,40.693542
656,84K785,K785,Imagine Me Leadership Charter School,818 SCHENCK AVENUE,-73.883469,40.660077
657,84K788,K788,Achievement First Linden Elementary School,800 VAN SICLEN AVE,-73.885704,40.659934
658,84K789,K789,Compass Charter School,300 ADELPHI STREET,-73.971474,40.688769
659,84K790,K790,Central Brooklyn Ascend Charter School,465 EAST  29 STREET,-73.948982,40.638957
660,84K791,K791,Brooklyn Dreams Charter School,259 PARKVILLE AVENUE,-73.969887,40.632149
661,84K792,K792,The Cultural Arts Academy at Spring Creek Charter,1400 LINDEN BOULEVARD,-73.908341,40.65452
662,84K793,K793,Bushwick Ascend Charter School,751 KNICKERBOCKER AVENUE,-73.90892,40.693748
663,84K796,K796,Lefferts Gardens Charter School,601 PARKSIDE AVENUE,-73.95381,40.656276
664,84K797,K797,New Hope Academy Charter School,475 EAST   57 STREET,-73.922733,40.643897
665,84K803,K803,Brooklyn LAB Charter School,77 Sands Street,-73.987399,40.70043
666,84K807,K807,Collegiate Academy for Math and Personal Awareness,1962-84 LINDEN BLVD.,-73.888775,40.65787
667,75K811,K811,P.S. K811 Connie Lekas School,2525 HARING STREET,-73.93861,40.591132
668,15K821,K821,Sunset Park Prep,4004 4 AVENUE,-74.007596,40.652127
669,15K839,K839,M.S. 839,713 CATON AVENUE,-73.973363,40.647598
670,84K876,K876,Achievement First Voyager Charter School,601 PARKSIDE AVENUE,-73.95381,40.656276
671,84K879,K879,Brooklyn Prospect Charter School Downtown,1104 FULTON STREET,-73.956832,40.681102
672,84K882,K882,Success Academy Charter School - Bushwick,139 MENAHAN STREET,-73.919653,40.695975
673,84K883,K883,Success Academy Charter School - Bed Stuy 3,787 LAFAYETTE AVENUE,-73.940749,40.691472
674,84K886,K886,Success Academy Charter School - Flatbush,15 SNYDER AVENUE,-73.957501,40.64879
675,22K889,K889,P.S. 889,21 HINCKLEY PLACE,-73.97101,40.644861
676,22K890,K890,M.S. 890,21 HINCKLEY PLACE,-73.97101,40.644861
677,84K892,K892,Brooklyn Emerging Leaders Academy,125 STUYVESANT AVENUE,-73.932254,40.691467
678,84K895,K895,Hebrew Language Academy Charter School 2,1870 Stillwell Avenue,-73.986345,40.600808
679,15K896,K896,The School of Creativity and Innovation,736 48TH STREET,-74.004306,40.643018
680,16K898,K898,The Brooklyn Green School,130 ROCHESTER AVENUE,-73.928673,40.674491
681,19K907,K907,Legacy School of the Arts,590 SHEFFIELD AVENUE,-73.894877,40.662243
682,84K910,K910,Cypress Hills Ascend Charter School,396 GRANT AVENUE,-73.867071,40.681183
683,84K911,K911,Edmund W. Gordon Brooklyn Laboratory Charter Schoo,77 Sands Street,-73.987399,40.70043
684,84K912,K912,Key Collegiate Charter School,250 BLAKE AVENUE,-73.910292,40.665264
685,84K912,K912,Key Collegiate Charter School,250 BLAKE AVENUE,-73.910292,40.665264
686,13K915,K915,I.S. 915,105 TECH PLACE,-73.986105,40.695444
687,13K915,K915,I.S. 915,105 TECH PLACE,-73.986105,40.695444
688,84K927,K927,Ivy Hill Preparatory Charter School,475 EAST   57 STREET,-73.922733,40.643897
689,84K928,K928,Brooklyn Prospect Charter School 15.2,3002 FORT HAMILTON PARKWAY,-73.97872,40.647893
690,84K929,K929,East Brooklyn Ascend Charter School,396 GRANT AVENUE,-73.867071,40.681183
691,84K930,K930,LEEP Dual Language Academy,5323 5 AVENUE,-74.012089,40.642877
692,84K933,K933,Lefferts Gardens Ascend Charter School,870 ALBANY AVENUE,-73.939706,40.652671
693,84K934,K934,East Flatbush Ascend Charter School,870 ALBANY AVENUE,-73.939706,40.652671
694,84K937,K937,Brooklyn RISE Charter School,473 53 STREET,-74.01214,40.643747
695,20K971,K971,"School of Math, Science, and Healthy Living",6214 4TH AVENUE,-74.020343,40.639518
696,02M001,M001,P.S. 001 Alfred E. Smith,8 HENRY STREET,-73.997478,40.71255
697,02M002,M002,P.S. 002 Meyer London,122 HENRY STREET,-73.991523,40.712907
698,02M003,M003,P.S. 003 Charrette School,490 HUDSON STREET,-74.005949,40.732603
699,06M004,M004,P.S. 004 Duke Ellington,500 WEST 160 STREET,-73.941594,40.834877
700,06M005,M005,P.S. 005 Ellen Lurie,3703 TENTH AVENUE,-73.922277,40.857633
701,02M006,M006,P.S. 006 Lillie D. Blake,45 EAST  81 STREET,-73.960427,40.777737
702,04M007,M007,P.S. 007 Samuel Stern,160 EAST 120 STREET,-73.939374,40.800616
703,06M008,M008,P.S. 008 Luis Belliard,465 WEST 167 STREET,-73.936614,40.839235
704,03M009,M009,P.S. 009 Sarah Anderson,100 WEST  84 STREET,-73.974256,40.785234
705,05M010,M010,JHS 010 Frederick Douglas,2581 7TH AVENUE,-73.9371,40.8243
706,02M011,M011,P.S. 011 William T. Harris,320 WEST  21 STREET,-74.000743,40.744186
707,04M012,M012,Tag Young Scholars,240 EAST 109 STREET,-73.942285,40.792556
708,04M013,M013,J.H.S. 013 Jackie Robinson,1573 MADISON AVENUE,-73.948488,40.793649
709,01M015,M015,P.S. 015 Roberto Clemente,333 EAST  4 STREET,-73.978747,40.722075
710,02M017,M017,JHS 017 La Salle,328 WEST  48 STREET,-73.988,40.7614
711,06M018,M018,P.S. 018 Park Terrace,4124 9 AVENUE,-73.911732,40.871456
712,01M019,M019,P.S. 019 Asher Levy,185 1 AVENUE,-73.984496,40.730009
713,01M020,M020,P.S. 020 Anna Silver,166 ESSEX STREET,-73.986312,40.721305
714,06M028,M028,P.S. 028 Wright Brothers,475 WEST 155 STREET,-73.942023,40.83163
715,05M030,M030,P.S. 030 Hernandez/Hughes,144-176 EAST 128 STREET,-73.935461,40.805653
716,02M033,M033,P.S. 033 Chelsea Prep,281 9 AVENUE,-74.000238,40.749014
717,01M034,M034,P.S. 034 Franklin D. Roosevelt,730 EAST  12 STREET,-73.975058,40.726008
718,75M035,M035,P.S. 035,317 WEST  52ND STREET,-73.985899,40.764129
719,05M036,M036,P.S. 036 Margaret Douglas,123 MORNINGSIDE DRIVE,-73.957409,40.810705
720,04M037,M037,River East Elementary,2351 FIRST AVENUE,-73.93374,40.799265
721,04M038,M038,P.S. 38 Roberto Clemente,232 EAST 103 STREET,-73.944762,40.788668
722,02M040,M040,P.S. 040 Augustus Saint-Gaudens,320 EAST 20TH STREET,-73.981536,40.735328
723,02M040,M040,P.S. 040 Augustus Saint-Gaudens,320 EAST 20TH STREET,-73.981536,40.735328
724,02M041,M041,P.S. 041 Greenwich Village,116 WEST  11 STREET,-73.999094,40.73545
725,02M042,M042,P.S. 042 Benjamin Altman,71 HESTER STREET,-73.990826,40.716126
726,03M044,M044,J.H.S. M044 William J. O'Shea,100 WEST  77 STREET,-73.977602,40.780536
727,04M045,M045,M.S. 45/S.T.A.R.S. Prep Academy,2351 1ST AVENUE,-73.93374,40.799265
728,05M046,M046,P.S. 046 Arthur Tappan,2987 FREDERICK DOUGLASS BOULEVARD,-73.9363,40.8304
729,02M047,M047,47 The American Sign Language and English Secondar,223 EAST 23 STREET,-73.981329,40.738374
730,06M048,M048,P.S. 048 P.O. Michael J. Buczek,4360-78 BROADWAY,-73.933629,40.853193
731,04M050,M050,P.S. 050 Vito Marcantonio,433 EAST 100 STREET,-73.940919,40.785559
732,02M051,M051,P.S. 051 Elias Howe,525 WEST 44TH STREET,-73.995825,40.761487
733,06M052,M052,Harold O. Levy School,650 ACADEMY STREET,-73.925464,40.865556
734,03M054,M054,J.H.S. 054 Booker T. Washington,103 WEST 107 STREET,-73.96327,40.8007
735,01M056,M056,JHS 056 Corlears,220 HENRY STREET,-73.9863,40.7137
736,04M057,M057,James Weldon Johnson,176 EAST 115 STREET,-73.941598,40.797205
737,02M059,M059,P.S. 059 Beekman Hill International,231-249 EAST 56 STREET,-73.967204,40.759248
738,01M063,M063,The STAR Academy - P.S.63,121 EAST  3 STREET,-73.986214,40.72444
739,01M064,M064,P.S. 064 Robert Simon,600 EAST  6 STREET,-73.981597,40.72313
740,84M065,M065,Democracy Prep Endurance Charter School,250 WEST 127 STREET,-73.948902,40.810499
741,84M068,M068,KIPP Washington Heights Middle School,21 JUMEL PLACE,-73.935815,40.839139
742,04M072,M072,The Lexington Academy,131 EAST 104 STREET,-73.94745,40.791444
743,03M075,M075,P.S. 075 Emily Dickinson,735 WEST END AVENUE,-73.973996,40.795109
744,03M076,M076,P.S. 076 A. Philip Randolph,220 WEST 121 STREET,-73.951451,40.806534
745,02M077,M077,P.S. 77 Lower Lab School,1700 3 AVENUE,-73.95042,40.785018
746,75M079,M079,P.S. M079 - Horan School,55 EAST 120 STREET,-73.942009,40.802547
747,84M080,M080,Manhattan Charter School II,220 HENRY STREET,-73.986051,40.713362
748,04M083,M083,P.S. 083 Luis Munoz Rivera,219 EAST 109 STREET,-73.941955,40.793363
749,03M084,M084,P.S. 084 Lillian Weber,32 WEST  92 STREET,-73.968419,40.789479
750,84M085,M085,Global Community Charter School,2350 5TH AVENUE,-73.934951,40.81698
751,03M087,M087,P.S. 087 William Sherman,160 WEST  78 STREET,-73.97802,40.78171
752,85M088,M088,JHS 088 Wadleigh,215 WEST 114 STREET,-73.9542,40.8022
753,02M089,M089,P.S. 89,201 WARREN STREET,-74.013967,40.71701
754,06M090,M090,I S 090 Mirabel Sisters,21 JUMEL PLACE,-73.9362,40.8393
755,05M092,M092,P.S. 092 Mary McLeod Bethune,222 WEST 134 STREET,-73.945838,40.814917
756,75M094,M094,P.S. M094,55 BATTERY PLACE,-74.017456,40.706384
757,04M096,M096,P.S. 096 Joseph Lanzetta,216 EAST 120 STREET,-73.937179,40.79969
758,06M098,M098,P.S. 098 Shorac Kappock,512 WEST 212 STREET,-73.917814,40.867741
759,04M099,M099,JHS 099,410 EAST 100 STREET,-73.9425,40.7856
760,84M100,M100,Neighborhood Charter School of Harlem,691 St Nicholas Avenue,-73.945427,40.823676
761,04M101,M101,P.S. 101 Andrew Draper,141 EAST 111 STREET,-73.944546,40.796098
762,04M102,M102,P.S. 102 Jacques Cartier,315 EAST 113 STREET,-73.938418,40.795
763,06M103,M103,Dos Puentes Elementary School,185 WADSWORTH AVENUE,-73.933964,40.850561
764,02M104,M104,J.H.S. 104 Simon Baruch,330 EAST  21 STREET,-73.981034,40.735879
765,04M108,M108,P.S. 108 Assemblyman Angelo Del Toro Educational C,1615 MADISON AVENUE,-73.947855,40.795032
766,04M109,M109,PS 109 Century,410 EAST 100 STREET,-73.9425,40.7856
767,01M110,M110,P.S. 110 Florence Nightingale,285 DELANCY STREET,-73.9798,40.7162
768,02M111,M111,P.S. 111 Adolph S. Ochs,440 WEST  53 STREET,-73.989776,40.76588
769,04M112,M112,P.S. 112 Jose Celso Barbosa,535 EAST 119 STREET,-73.930528,40.796889
770,02M114,M114,East Side Middle School,331 EAST 91ST STREET,-73.947379,40.780452
771,06M115,M115,P.S. 115 Alexander Humboldt,586 WEST 177 STREET,-73.93514,40.846116
772,02M116,M116,P.S. 116 Mary Lindley Murray,210 EAST  33 STREET,-73.977906,40.744511
773,04M117,M117,Tito Puente Education Complex,240 EAST 109 STREET,-73.942285,40.792556
774,05M123,M123,P.S. 123 Mahalia Jackson,301 WEST 140 STREET,-73.944551,40.820216
775,02M124,M124,P.S. 124 Yung Wing,40 DIVISION STREET,-73.996017,40.715097
776,05M125,M125,P.S. 125 Ralph Bunche,425 WEST 123 STREET,-73.955722,40.810793
777,05M125,M125,P.S. 125 Ralph Bunche,425 WEST 123 STREET,-73.955722,40.810793
778,02M126,M126,P.S. 126 Jacob August Riis,80 CATHERINE STREET,-73.99742,40.710651
779,06M128,M128,P.S. 128 Audubon,560 WEST 169 STREET,-73.938701,40.841032
780,05M129,M129,P.S. 129 John H. Finley,425 WEST 130 STREET,-73.95202,40.814914
781,02M130,M130,P.S. 130 Hernando De Soto,143 BAXTER STREET,-73.998326,40.71866
782,02M131,M131,M.S. 131,100 HESTER STREET,-73.993607,40.716231
783,06M132,M132,P.S. 132 Juan Pablo Duarte,185 WADSWORTH AVENUE,-73.933964,40.850561
784,05M133,M133,P.S. 133 Fred R Moore,2121 5 AVENUE,-73.939178,40.809665
785,01M134,M134,P.S. 134 Henrietta Szold,293 EAST BROADWAY,-73.983854,40.714248
786,02M135,M135,The Urban Assembly School for Emergency Management,411 PEARL STREET,-74.000851,40.711441
787,01M137,M137,P.S. 137 John L. Bernstein,293 EAST BROADWAY,-73.983854,40.714248
788,75M138,M138,P.S. 138,144-176 EAST 128 STREET,-73.935461,40.805653
789,02M139,M139,Stephen T. Mather Building Arts & Craftsmanship Hi,439 WEST 49TH STREET,-73.990318,40.763655
790,01M140,M140,P.S. 140 Nathan Straus,123 RIDGE STREET,-73.983769,40.719148
791,01M142,M142,P.S. 142 Amalia Castro,100 ATTORNEY STREET,-73.984116,40.718121
792,06M143,M143,J.H.S. 143 Eleanor Roosevelt,511 WEST 182ND STREET,-73.930991,40.849311
793,03M145,M145,"P.S. 145, The Bloomingdale School",150 WEST 105 STREET,-73.965611,40.799098
794,04M146,M146,P.S. 146 Ann M. Short,421 EAST 106 STREET,-73.938727,40.789535
795,05M148,M148,Eagle Academy for Young Men of Harlem,6 EDGECOMBE AVENUE,-73.947151,40.817228
796,03M149,M149,P.S. 149 Sojourner Truth,41 WEST 117 STREET,-73.948088,40.802649
797,02M150,M150,P.S. 150,334 GREENWICH STREET,-74.01088,40.71953
798,02M151,M151,Yorkville Community School,421 EAST  88 STREET,-73.947287,40.777948
799,06M152,M152,P.S. 152 Dyckman Valley,93 NAGLE AVENUE,-73.927578,40.859804
800,06M153,M153,P.S. 153 Adam Clayton Powell,1750 AMSTERDAM AVENUE,-73.947599,40.826514
801,05M154,M154,P.S. 154 Harriet Tubman,250 WEST 127 STREET,-73.948902,40.810499
802,04M155,M155,P.S. 155 William Paca,319 EAST 117 STREET,-73.935895,40.797507
803,05M157,M157,The Urban Assembly School for Global Commerce,2005 MADISON AVENUE,-73.938714,40.807019
804,02M158,M158,P.S. 158 Bayard Taylor,1458 YORK AVENUE,-73.950745,40.770215
805,05M161,M161,P.S. 161 Pedro Albizu Campos,499 WEST 133 STREET,-73.952476,40.817719
806,75M162,M162,PS 162m,34 WEST 118 STREET,-73.9467,40.8025
807,03M163,M163,P.S. 163 Alfred E. Smith,163 WEST  97 STREET,-73.96847,40.795163
808,06M164,M164,JHS 164 Edward W Stitt,401 WEST 164 STREET,-73.9373,40.8366
809,03M165,M165,P.S. 165 Robert E. Simon,234 WEST 109 STREET,-73.965949,40.802653
810,03M166,M166,P.S. 166 The Richard Rodgers School of The Arts an,132 WEST  89 STREET,-73.972557,40.788925
811,02M167,M167,J.H.S. 167 Robert F. Wagner,220 EAST  76 STREET,-73.957827,40.771541
812,84M168,M168,East Harlem Scholars Academy Charter School II,1573 MADISON AVENUE,-73.948488,40.793649
813,75M169,M169,P.S. M169 - Robert F. Kennedy,110 EAST  88 STREET,-73.955594,40.780798
814,84M170,M170,Success Academy Hell's Kitchen (Manhattan 2),439 WEST 49TH STREET,-73.990318,40.763655
815,04M171,M171,P.S. 171 Patrick Henry,19 EAST 103 STREET,-73.951425,40.792302
816,05M172,M172,Powell M.S. for Law & Social Justice,509 WEST 129 STREET,-73.9553,40.8153
817,06M173,M173,P.S. 173,306 FORT WASHINGTON AVENUE,-73.939785,40.845459
818,84M174,M174,Success Academy Union Square (Manhattan 1),40 IRVING PLACE,-73.987064,40.735361
819,05M175,M175,P.S. 175 Henry H Garnet,175 WEST 134 STREET,-73.942706,40.814388
820,06M176,M176,PS 176,4862 BROADWAY,-73.924,40.8667
821,02M177,M177,Yorkville East Middle School,1458 YORK AVENUE,-73.950745,40.770215
822,06M178,M178,Professor Juan Bosch Public School,12-18 ELLWOOD STREET,-73.928301,40.85924
823,03M180,M180,P.S. 180 Hugo Newman,370 WEST 120TH STREET,-73.955861,40.80757
824,04M182,M182,The Bilingual Bicultural School,219 EAST 109 STREET,-73.941955,40.793363
825,02M183,M183,P.S. 183 Robert L. Stevenson,419 EAST  66 STREET,-73.957731,40.763804
826,01M184,M184,P.S. 184m Shuang Wen,327 CHERRY STREET,-73.985438,40.711125
827,03M185,M185,The Locke School of Arts and Engineering,20 WEST 112 STREET,-73.950146,40.798461
828,84M186,M186,Harlem Hebrew Language Charter School,147 SAINT NICHOLAS AVENUE,-73.952751,40.804559
829,06M187,M187,P.S./I.S. 187 Hudson Cliffs,349 CABRINI BOULEVARD,-73.93684,40.856239
830,01M188,M188,P.S. 188 The Island School,442 EAST HOUSTON STREET,-73.97738,40.719888
831,06M189,M189,P.S. 189,2580 AMSTERDAM AVENUE,-73.928048,40.853045
832,03M191,M191,The Riverside School for Makers and Artists,300 WEST 61ST STREET,-73.990902,40.7722
833,06M192,M192,P.S. 192 Jacob H. Schiff,500 WEST 138 STREET,-73.952023,40.82051
834,05M194,M194,P.S. 194 Countee Cullen,244 WEST 144 STREET,-73.941111,40.821208
835,05M195,M195,I.S. 195 Roberto Clemente,625 WEST 133 STREET,-73.956814,40.819793
836,01M196,M196,PS 196 Umbrella,442 EAST HOUSTON STREET,-73.9777,40.7195
837,05M197,M197,P.S. 197 John B. Russwurm,2230 5 AVENUE,-73.938347,40.813532
838,02M198,M198,P.S. 198 Isador E. Ida Straus,1700 3 AVENUE,-73.95042,40.785018
839,03M199,M199,P.S. 199 Jessie Isador Straus,270 WEST  70 STREET,-73.984423,40.777603
840,05M200,M200,P.S. 200- The James McCune Smith School,2589 7 AVENUE,-73.935746,40.823988
841,84M202,M202,Great Oaks Charter School,38 DELANCEY STREET,-73.991859,40.719676
842,84M203,M203,Amber Charter School II,652 WEST 187TH STREET,-73.932869,40.853517
843,84M204,M204,Capital Preparatory (CP) Harlem Charter School,1 EAST 104 STREET,-73.951367,40.793098
844,04M206,M206,P.S. 206 Jose Celso Barbosa,508 EAST 120 STREET,-73.930528,40.796889
845,03M208,M208,The Alain L. Locke Magnet School for Environmental,21 WEST 111 STREET,-73.950146,40.798461
846,06M209,M209,Hamilton Grange Middle School,500 WEST 138 STREET,-73.952023,40.82051
847,06M210,M210,P.S./I.S. 210 - Twenty-first Century Academy for C,501-503 WEST 152 STREET,-73.944666,40.830004
848,06M211,M211,Inwood Early College for Health and Information Te,650 ACADEMY STREET,-73.925464,40.865556
849,02M212,M212,P.S. 212 Midtown West,328 WEST  48 STREET,-73.988665,40.761327
850,02M217,M217,P.S./I.S. 217 Roosevelt Island,645 MAIN STREET,-73.956435,40.753598
851,06M218,M218,I.S. 218 Salome Urena,4600 BROADWAY,-73.930082,40.860951
852,06M223,M223,The Mott Hall School,71-111 CONVENT AVE,-73.951292,40.816626
853,04M224,M224,M.S. 224 Manhattan East School for Arts & Academic,410 EAST 100 STREET,-73.942154,40.785107
854,02M225,M225,Ella Baker School,317 EAST  67 STREET,-73.959777,40.765638
855,75M226,M226,P.S. M226,345 EAST  15TH STREET,-73.98259,40.732665
856,02M234,M234,P.S. 234 Independence School,292 GREENWICH STREET,-74.01088,40.71953
857,03M241,M241,STEM Institute of Manhattan,240 WEST 113 STREET,-73.955583,40.801573
858,03M242,M242,P.S. 242 - The Young Diplomats Magnet Academy,134 WEST 122 STREET,-73.948385,40.806055
859,03M243,M243,M.S. 243 Center School,100 WEST  84 STREET,-73.974256,40.785234
860,03M244,M244,MS 244m Columbus Middle School,100 WEST  77 STREET,-73.9769,40.7808
861,03M245,M245,M.S. M245 The Computer School,100 WEST  77 STREET,-73.977602,40.780536
862,03M246,M246,M.S. M246 Crossroads School,234 WEST 109 STREET,-73.965949,40.802653
863,03M247,M247,M.S. M247 Dual Language Middle School,100 WEST  77 STREET,-73.977602,40.780536
864,03M250,M250,M.S. 250 West Side Collaborative Middle School,735 WEST END AVENUE,-73.973996,40.795109
865,02M255,M255,M.S. 255 Salk School of Science,320 EAST 20TH STREET,-73.981536,40.735328
866,02M255,M255,M.S. 255 Salk School of Science,320 EAST 20TH STREET,-73.981536,40.735328
867,03M256,M256,Lafayette Academy,154 WEST  93 STREET,-73.971011,40.791395
868,03M258,M258,Community Action School - MS 258,154 WEST  93 STREET,-73.971011,40.791395
869,02M260,M260,The Clinton School,10 East 15th Street,-73.992727,40.736526
870,84M263,M263,New York City Charter School of the Arts,26 Broadway,-74.013303,40.705688
871,84M265,M265,Success Academy Charter School - Washington Height,701 FORT WASHINGTON AVENUE,-73.935231,40.85765
872,02M267,M267,"East Side Elementary School, PS 267",213 EAST 63RD STREET,-73.963861,40.763883
873,05M275,M275,I S 275,175 WEST 134 STREET,-73.9433,40.8143
874,02M276,M276,Battery Park City School,55 BATTERY PLACE,-74.017456,40.706384
875,06M278,M278,Paula Hedbavny School,421 W 219TH ST,-73.912339,40.871673
876,84M279,M279,The Opportunity Charter School,240 WEST 113 STREET,-73.955583,40.801573
877,02M280,M280,Manhattan Early College School for Advertising,411 PEARL STREET,-74.000851,40.711441
878,02M281,M281,The River School,425 EAST 35TH STREET,-73.972592,40.744288
879,02M282,M282,Urban Assembly Maker Academy,411 PEARL STREET,-74.000851,40.711441
880,03M283,M283,Manhattan Theatre Lab High School,122 AMSTERDAM AVENUE,-73.985608,40.774891
881,84M284,M284,Harlem Children's Zone Promise Academy 1 Charter S,245 West 129th Street,-73.947317,40.811882
882,05M285,M285,Harlem Renaissance High School,22 EAST 128 STREET,-73.939974,40.807692
883,05M286,M286,Urban Assembly Academy for Future Leaders,509 WEST 129 STREET,-73.95552,40.815747
884,02M288,M288,Food and Finance High School,525 WEST  50TH STREET,-73.9927,40.765474
885,02M289,M289,I.S. 289,201 WARREN STREET,-74.013967,40.71701
886,02M290,M290,P.S. 290 Manhattan New School,311 EAST  82 STREET,-73.952777,40.775181
887,03M291,M291,West End Secondary School,227-243 WEST 61ST STREET,-73.988338,40.772608
888,01M292,M292,Orchard Collegiate Academy,220 HENRY STREET,-73.986051,40.713362
889,06M293,M293,City College Academy of the Arts,4600 BROADWAY,-73.930082,40.860951
890,02M294,M294,Essex Street Academy,350 GRAND STREET,-73.989329,40.717329
891,84M295,M295,School in the Square Public Charter School,120 WADSWORTH AVENUE,-73.936073,40.848864
892,02M296,M296,High School of Hospitality Management,525 WEST  50TH STREET,-73.9927,40.765474
893,02M297,M297,M.S. 297,75 MORTON STREET,-74.007192,40.731006
894,02M298,M298,Pace High School,100 HESTER STREET,-73.993607,40.716231
895,03M299,M299,The Maxine Greene HS for Imaginative Inquiry,122 AMSTERDAM AVENUE,-73.985608,40.774891
896,02M300,M300,"Urban Assembly School of Design and Construction,",525 WEST  50TH STREET,-73.9927,40.765474
897,01M301,M301,"Technology, Arts, and Sciences Studio",185 1 AVENUE,-73.984496,40.730009
898,05M302,M302,KAPPA IV,6 EDGECOMBE AVENUE,-73.947151,40.817228
899,02M303,M303,"Facing History School, The",525 WEST  50TH STREET,-73.9927,40.765474
900,05M304,M304,Mott Hall High School,6 EDGECOMBE AVENUE,-73.947151,40.817228
901,02M305,M305,"Urban Assembly Academy of Government and Law, The",350 GRAND STREET,-73.989329,40.717329
902,03M307,M307,"Urban Assembly School for Media Studies, The",122 AMSTERDAM AVENUE,-73.985608,40.774891
903,02M308,M308,Lower Manhattan Arts Academy,350 GRAND STREET,-73.989329,40.717329
904,04M310,M310,THE JUDITH S. KAYE HIGH SCHOOL,321 EAST  96 STREET,-73.945647,40.784112
905,06M311,M311,Amistad Dual Language School,4862 BROADWAY,-73.923818,40.866381
906,02M312,M312,New York City Lab Middle School for Collaborative,333 WEST  17 STREET,-74.002222,40.742512
907,02M313,M313,"James Baldwin School, The: A School for Expedition",351 WEST  18 STREET,-74.00254,40.743407
908,06M314,M314,Muscota,4862 BROADWAY,-73.923818,40.866381
909,01M315,M315,The East Village Community School,610 EAST  12 STREET,-73.978254,40.727537
910,02M316,M316,"Urban Assembly School of Business for Young Women,",26 BROADWAY,-74.013303,40.705688
911,02M316,M316,"Urban Assembly School of Business for Young Women,",26 BROADWAY,-74.013303,40.705688
912,05M317,M317,Kappa II,144-176 EAST 128 STREET,-73.935461,40.805653
913,05M318,M318,Thurgood Marshall Academy Lower School,276 WEST 151ST STREET,-73.937833,40.825831
914,06M319,M319,M.S. 319 - Maria Teresa,21 JUMEL PLACE,-73.935815,40.839139
915,84M320,M320,Manhattan Charter School,100 ATTORNEY STREET,-73.984116,40.718121
916,06M321,M321,M.S. 321 - Minerva,21 JUMEL PLACE,-73.935815,40.839139
917,06M322,M322,Middle School 322,4600 BROADWAY,-73.930082,40.860951
918,06M324,M324,M.S. 324 - Patria Mirabal,21 JUMEL PLACE,-73.935815,40.839139
919,06M325,M325,P.S. 325,500 WEST 138 STREET,-73.952023,40.82051
920,06M326,M326,M.S. 326 - Writers Today & Leaders Tomorrow,401 WEST 164 STREET,-73.937263,40.836982
921,06M328,M328,Community Math & Science Prep,401 WEST 164 STREET,-73.937263,40.836982
922,84M329,M329,Harlem Link Charter School,21 WEST 111 STREET,-73.950146,40.798461
923,84M330,M330,Girls Preparatory Charter School of New York,442 EAST HOUSTON STREET,-73.97738,40.719888
924,01M332,M332,University Neighborhood Middle School,220 HENRY STREET,-73.986051,40.713362
925,03M333,M333,P.S. 333 Manhattan School for Children,154 WEST  93 STREET,-73.971011,40.791395
926,03M334,M334,The Anderson School,100 WEST  77 STREET,-73.977602,40.780536
927,84M335,M335,Harlem Village Academy East Charter School,2351 FIRST AVENUE,-73.93374,40.799265
928,84M336,M336,KIPP Infinity Charter School,625 WEST 133 STREET,-73.956814,40.819793
929,84M337,M337,NYC Autism Charter School East Harlem,433 EAST 100 STREET,-73.940919,40.785559
930,84M338,M338,WHIN Music Community,401 WEST 164 STREET,-73.937263,40.836982
931,02M340,M340,Sixth Avenue Elementary School,590 SIXTH AVENUE,-73.995534,40.739145
932,02M340,M340,Sixth Avenue Elementary School,590 SIXTH AVENUE,-73.995534,40.739145
933,84M341,M341,Harlem Children's Zone Promise Academy II Charter,2005 MADISON AVENUE,-73.938714,40.807019
934,02M343,M343,The Peck Slip School,1 PECK SLIP,-74.002407,40.708774
935,05M344,M344,Academy of Collaborative Education,222 WEST 134 STREET,-73.945838,40.814917
936,01M345,M345,"Collaborative Academy of Science, Technology, & La",220 HENRY STREET,-73.986051,40.713362
937,06M346,M346,Community Health Academy of the Heights,504 WEST 158TH STREET,-73.942074,40.833695
938,02M347,M347,The 47 American Sign Language & English Lower Scho,223 EAST 23 STREET,-73.981329,40.738374
939,06M348,M348,Washington Heights Expeditionary Learning School,511 WEST 182ND STREET,-73.930991,40.849311
940,06M349,M349,Harbor Heights,306 FORT WASHINGTON AVENUE,-73.939785,40.845459
941,84M350,M350,Democracy Prep Charter School,2230 5 AVENUE,-73.938347,40.813532
942,84M351,M351,Success Academy Charter School - Harlem 1,34 WEST 118 STREET,-73.948088,40.802649
943,84M353,M353,New Heights Academy Charter School,1818 AMSTERDAM AVENUE,-73.945368,40.82884
944,84M355,M355,Ross Global Academy Charter School,420 EAST 12 STREET,-73.982472,40.729152
945,84M357,M357,Success Academy Charter School - Harlem 6,461 WEST 131 STREET,-73.95357,40.816158
946,84M358,M358,Success Academy Charter School - Hudson Yards,500 West 41 Street,-73.996499,40.758759
947,01M361,M361,The Children's Workshop School,610 EAST  12 STREET,-73.978254,40.727537
948,05M362,M362,Columbia Secondary School,425 WEST 123 STREET,-73.955722,40.810793
949,05M362,M362,Columbia Secondary School,425 WEST 123 STREET,-73.955722,40.810793
950,01M363,M363,Neighborhood School,121 EAST  3 STREET,-73.986214,40.72444
951,01M364,M364,Earth School,600 EAST  6 STREET,-73.981597,40.72313
952,06M366,M366,Washington Heights Academy,202 SHERMAN AVE,-73.921631,40.865575
953,05M367,M367,Academy for Social Action,509 WEST 129 STREET,-73.95552,40.815747
954,06M368,M368,Hamilton Heights School,1750 AMSTERDAM AVENUE,-73.947599,40.826514
955,05M369,M369,Urban Assembly School for the Performing Arts,509 WEST 129 STREET,-73.95552,40.815747
956,01M370,M370,IS 370m Learning Project Ms,420 EAST  12 STREET,-73.9829,40.7297
957,04M372,M372,Esperanza Preparatory Academy,240 EAST 109 STREET,-73.942285,40.792556
958,84M373,M373,Zeta Charter Schools - New York City 1,652 WEST 187TH STREET,-73.932869,40.853517
959,02M374,M374,Gramercy Arts High School,40 IRVING PLACE,-73.987064,40.735361
960,04M375,M375,Mosaic Preparatory Academy,141 EAST 111 STREET,-73.944546,40.796098
961,02M376,M376,NYC iSchool,131 AVENUE OF THE AMERICAS,-74.005058,40.72463
962,04M377,M377,Renaissance School of the Arts,319 EAST 117 STREET,-73.935895,40.797507
963,01M378,M378,School for Global Leaders,145 STANTON STREET,-73.986038,40.72004
964,84M380,M380,Harlem Village Academy West 2 Charter School,74 WEST 124 STREET,-73.945603,40.80669
965,04M381,M381,Global Neighborhood Secondary School,216 EAST 120 STREET,-73.937179,40.79969
966,84M382,M382,DREAM Charter School,1991 SECOND AVENUE,-73.945101,40.789174
967,84M383,M383,Storefront Academy Harlem Charter School,70 EAST 129 STREET,-73.937717,40.807581
968,84M384,M384,Success Academy Charter School - Harlem 2,144-176 EAST 128 STREET,-73.935461,40.805653
969,84M385,M385,Success Academy Charter School - Harlem 3,410 EAST 100 STREET,-73.942154,40.785107
970,84M386,M386,Success Academy Charter School - Harlem 4,240 WEST 113 STREET,-73.955583,40.801573
971,84M388,M388,St. HOPE Leadership Academy Charter School,222 WEST 134 STREET,-73.945838,40.814917
972,02M392,M392,Manhattan Business Academy,351 WEST  18 STREET,-74.00254,40.743407
973,02M393,M393,Business Of Sports School,439 WEST 49TH STREET,-73.990318,40.763655
974,02M394,M394,Emma Lazarus High School,100 HESTER STREET,-73.993607,40.716231
975,02M397,M397,Spruce Street School,12 SPRUCE STREET,-74.005473,40.711321
976,02M399,M399,The High School For Language And Diplomacy,40 IRVING PLACE,-73.987064,40.735361
977,02M400,M400,High School for Environmental Studies,444 WEST 56 STREET,-73.98861,40.767848
978,02M400,M400,High School for Environmental Studies,444 WEST 56 STREET,-73.98861,40.767848
979,75M401,M401,Hospital Schools,3450 EAST TREMONT AVENUE,-73.827642,40.831829
980,03M402,M402,The Urban Assembly School for Green Careers,145 WEST  84 STREET,-73.974483,40.786134
981,03M403,M403,The Global Learning Collaborative,145 WEST  84 STREET,-73.974483,40.786134
982,03M404,M404,Innovation Diploma Plus,145 WEST  84 STREET,-73.974483,40.786134
983,04M406,M406,Global Technology Preparatory,160 EAST 120 STREET,-73.939374,40.800616
984,02M407,M407,Institute for Collaborative Education,345 EAST  15TH STREET,-73.98259,40.732665
985,02M408,M408,Professional Performing Arts High School,328 WEST  48 STREET,-73.988665,40.761327
986,04M409,M409,Coalition School for Social Change,2351 FIRST AVENUE,-73.93374,40.799265
987,05M410,M410,The Urban Assembly Institute for New Technologies,509 WEST 129 STREET,-73.95552,40.815747
988,02M411,M411,Baruch College Campus High School,55 EAST  25 STREET,-73.985723,40.741888
989,02M412,M412,N.Y.C. Lab School for Collaborative Studies,333 WEST  17 STREET,-74.002222,40.742512
990,02M413,M413,School of the Future High School,127 EAST  22 STREET,-73.985323,40.739121
991,02M414,M414,N.Y.C. Museum School,333 WEST  17 STREET,-74.002222,40.742512
992,03M415,M415,Wadleigh Secondary School for the Performing & Vis,215 WEST 114 STREET,-73.954152,40.80261
993,02M416,M416,Eleanor Roosevelt High School,411 EAST 76 STREET,-73.953276,40.770288
994,03M417,M417,Frank McCourt High School,145 WEST  84 STREET,-73.974483,40.786134
995,02M418,M418,Millennium High School,75 BROAD STREET,-74.011202,40.704697
996,02M419,M419,Landmark High School,351 WEST  18 STREET,-74.00254,40.743407
997,02M420,M420,High School for Health Professions and Human Servi,345 EAST  15TH STREET,-73.98259,40.732665
998,03M421,M421,West Prep Academy,150 WEST 105 STREET,-73.965611,40.799098
999,02M422,M422,Quest to Learn,351 WEST  18 STREET,-74.00254,40.743407
1000,06M423,M423,High School for Excellence and Innovation,650 ACADEMY STREET,-73.925464,40.865556
1001,02M425,M425,Leadership and Public Service High School,90 TRINITY PLACE,-74.012465,40.708971
1002,02M427,M427,Manhattan Academy For Arts & Language,111 EAST  33RD STREET,-73.98107,40.74651
1003,02M429,M429,Legacy School for Integrated Studies,34 WEST  14 STREET,-73.995731,40.736416
1004,84M430,M430,The Equity Project Charter School (TEP),549 AUDOBON AVENUE,-73.92606,40.856532
1005,02M432,M432,Murray Hill Academy,111 EAST  33RD STREET,-73.98107,40.74651
1006,84M433,M433,Renaissance Charter High School for Innovation,410 EAST 100 STREET,-73.942154,40.785107
1007,04M435,M435,Manhattan Center for Science and Mathematics,260 PLEASANT AVENUE,-73.932868,40.794184
1008,05M436,M436,New School HS D5,2005 MADISON AVENUE,-73.938714,40.807019
1009,02M437,M437,Hudson High School of Learning Technologies,351 WEST  18 STREET,-74.00254,40.743407
1010,02M438,M438,International High School at Union Square,40 IRVING PLACE,-73.987064,40.735361
1011,02M439,M439,Manhattan Village Academy,43 WEST  22 STREET,-73.991966,40.741963
1012,02M440,M440,Bayard Rustin Educational Complex,351 WEST  18 STREET,-74.00254,40.743407
1013,02M442,M442,"Ballet Tech, NYC Public School for Dance",890 BROADWAY,-73.989481,40.738521
1014,02M445,M445,Seward Park Hs,350 GRAND STREET,-73.9893,40.7168
1015,01M448,M448,University Neighborhood High School,200 MONROE STREET,-73.984128,40.712269
1016,02M449,M449,Vanguard High School,317 EAST  67 STREET,-73.959777,40.765638
1017,01M450,M450,East Side Community School,420 EAST 12 STREET,-73.982472,40.729152
1018,03M452,M452,P.S. 452,210 WEST  61 STREET,-73.987515,40.771603
1019,01M458,M458,Forsyth Satellite Academy,198 FORSYTH STREET,-73.990468,40.722415
1020,02M459,M459,Manhattan International High School,317 EAST  67 STREET,-73.959777,40.765638
1021,02M460,M460,Washington Irving High School,40 IRVING PLACE,-73.987064,40.735361
1022,06M462,M462,The College Academy,549 AUDUBON AVENUE,-73.92606,40.856532
1023,06M463,M463,High School for Media and Communications,549 AUDUBON AVENUE,-73.92606,40.856532
1024,06M467,M467,High School for Law and Public Service,549 AUDUBON AVENUE,-73.92606,40.856532
1025,06M468,M468,High School for Health Careers and Sciences,549 AUDUBON AVENUE,-73.92606,40.856532
1026,05M469,M469,Choir Academy of Harlem,2005 MADISON AVENUE,-73.938714,40.807019
1027,03M470,M470,Louis D. Brandeis High School,145 WEST  84 STREET,-73.974483,40.786134
1028,02M475,M475,Stuyvesant High School,345 CHAMBERS STREET,-74.013921,40.718025
1029,84M478,M478,Inwood Academy for Leadership Charter School,3896 10 Avenue,-73.918591,40.865508
1030,03M479,M479,Beacon High School,522 WEST 44TH STREET,-73.996262,40.760858
1031,03M479,M479,Beacon High School,522 WEST 44TH STREET,-73.996262,40.760858
1032,84M481,M481,Democracy Prep Harlem Charter School,207 WEST 133RD STREET,-73.945,40.814598
1033,84M482,M482,Success Academy Charter School - Harlem 5,301 WEST 140 STREET,-73.944551,40.820216
1034,84M483,M483,New York French American Charter School,311 WEST 120TH STREET,-73.954228,40.807537
1035,03M485,M485,Fiorello H. LaGuardia High School of Music & Art a,100 AMSTERDAM AVENUE,-73.985976,40.774202
1036,02M489,M489,High School of Economics and Finance,100 TRINITY PLACE,-74.012328,40.70927
1037,03M490,M490,Martin Luther King Hs,122 AMSTERDAM AVENUE,-73.9848,40.7743
1038,03M492,M492,"High School for Law, Advocacy and Community Justic",122 AMSTERDAM AVENUE,-73.985608,40.774891
1039,03M494,M494,High School of Arts and Technology,122 AMSTERDAM AVENUE,-73.985608,40.774891
1040,04M495,M495,Park East High School,230 EAST 105 STREET,-73.944092,40.790191
1041,04M497,M497,Central Park East I,1573 MADISON AVENUE,-73.948488,40.793649
1042,05M499,M499,Frederick Douglass Academy,2581 7TH AVENUE,-73.935746,40.823988
1043,02M500,M500,Unity Center for Urban Technologies,111 EAST  33RD STREET,-73.98107,40.74651
1044,75M501,M501,Home Instruction,3450 EAST TREMONT AVENUE,-73.827642,40.831829
1045,03M505,M505,Edward A. Reynolds West Side High School,140 WEST 102 STREET,-73.966779,40.797136
1046,02M507,M507,Urban Assembly Gateway School for Technology,439 WEST 49TH STREET,-73.990318,40.763655
1047,01M509,M509,Marta Valle High School,145 STANTON STREET,-73.986038,40.72004
1048,06M513,M513,Castle Bridge School,560 WEST 169 STREET,-73.938701,40.841032
1049,05M514,M514,New Design Middle School,625 WEST 133 STREET,-73.956814,40.819793
1050,01M515,M515,Lower East Side Preparatory High School,145 STANTON STREET,-73.986038,40.72004
1051,05M517,M517,Teachers College Community School,168 MORNINGSIDE AVENUE,-73.953317,40.812428
1052,84M518,M518,East Harlem Scholars Academy Charter School,2050 Second Avenue,-73.942482,40.79001
1053,02M519,M519,Talent Unlimited High School,317 EAST  67 STREET,-73.959777,40.765638
1054,02M520,M520,Murry Bergtraum High School for Business Careers,411 PEARL STREET,-74.000851,40.711441
1055,84M522,M522,Broome Street Academy Charter School,121 AVENUE OF THE AMERICAS,-74.004692,40.723911
1056,84M523,M523,Success Academy Charter School - Upper West,145 WEST  84 STREET,-73.974483,40.786134
1057,84M524,M524,Innovate Manhattan Charter School,38 DELANCEY STREET,-73.991859,40.719676
1058,02M527,M527,P.S. 527 - East Side School for Social Action,323 EAST 91 STREET,-73.947856,40.780652
1059,06M528,M528,I.S. 528 Bea Fuller Rodgers School,180 WADSWORTH AVENUE,-73.934676,40.850683
1060,02M529,M529,Jacqueline Kennedy Onassis High School,120 WEST  46 STREET,-73.98346,40.757626
1061,79M530,M530,Project Blend,142-10 LINDEN BOULEVARD,-73.8015,40.6841
1062,02M531,M531,Repertory Company High School for Theatre Arts,123 WEST  43 STREET,-73.984381,40.756089
1063,05M532,M532,People's School Of The Arts,6 EDGECOMBE AVENUE,-73.947151,40.817228
1064,02M533,M533,Union Square Academy for Health Sciences,40 IRVING PLACE,-73.987064,40.735361
1065,02M534,M534,Harvest Collegiate High School,34 WEST  14 STREET,-73.995731,40.736416
1066,02M535,M535,Park West High School,525 WEST  50TH STREET,-73.9927,40.7651
1067,02M536,M536,Creative Digital Minds High School,439 WEST 49TH STREET,-73.990318,40.763655
1068,01M539,M539,"New Explorations into Science, Technology and Math",111 COLUMBIA STREET,-73.979581,40.719416
1069,06M540,M540,A. Philip Randolph Campus High School,443 WEST 135 STREET,-73.949929,40.8185
1070,03M541,M541,Manhattan / Hunter Science High School,122 AMSTERDAM AVENUE,-73.985608,40.774891
1071,02M542,M542,Manhattan Bridges High School,525 WEST  50TH STREET,-73.9927,40.765474
1072,02M543,M543,New Design High School,350 GRAND STREET,-73.989329,40.717329
1073,02M544,M544,Independence High School,850 10TH AVENUE,-73.98861,40.767848
1074,02M544,M544,Independence High School,850 10TH AVENUE,-73.98861,40.767848
1075,02M545,M545,High School for Dual Language and Asian Studies,350 GRAND STREET,-73.989329,40.717329
1076,02M546,M546,Academy for Software Engineering,40 IRVING PLACE,-73.987064,40.735361
1077,02M550,M550,Liberty High School Academy for Newcomers,250 WEST  18 STREET,-74.000238,40.74182
1078,02M551,M551,Urban Assembly New York Harbor School,"10 SOUTH STREET, SLIP 7",-74.018941,40.689493
1079,02M551,M551,Urban Assembly New York Harbor School,"10 SOUTH STREET, SLIP 7",-74.018941,40.689493
1080,06M552,M552,Gregorio Luperon High School for Science and Mathe,501 WEST 165TH STREET,-73.9383,40.8381
1081,04M555,M555,Central Park East High School,1573 MADISON AVENUE,-73.948488,40.793649
1082,02M560,M560,High School M560 - City As School,16 CLARKSON STREET,-74.006155,40.729052
1083,02M560,M560,High School M560 - City As School,16 CLARKSON STREET,-74.006155,40.729052
1084,02M565,M565,Urban Academy Laboratory High School,317 EAST  67 STREET,-73.959777,40.765638
1085,02M570,M570,Satellite Academy High School,120 WEST  30 STREET,-73.990562,40.747425
1086,79M573,M573,Borough Academies,850 10TH AVENUE,-73.9891,40.7683
1087,02M575,M575,Manhattan Comprehensive Night and Day High School,240 2 AVENUE,-73.984333,40.732699
1088,02M580,M580,Richard R. Green High School of Teaching,7 BEAVER STREET,-74.013303,40.705688
1089,02M580,M580,Richard R. Green High School of Teaching,7 BEAVER STREET,-74.013303,40.705688
1090,02M586,M586,Harvey Milk High School,2-10 ASTOR PLACE,-73.992343,40.729661
1091,02M600,M600,The High School of Fashion Industries,225 WEST  24 STREET,-73.996354,40.745677
1092,02M605,M605,Humanities Preparatory Academy,351 WEST  18 STREET,-74.00254,40.743407
1093,04M610,M610,Young Women's Leadership School,105 EAST 106TH STREET,-73.947171,40.792932
1094,02M615,M615,Chelsea Career and Technical Education High School,131 AVENUE OF THE AMERICAS,-74.005058,40.72463
1095,02M620,M620,Norman Thomas High School,111 EAST  33RD STREET,-73.98107,40.74651
1096,02M625,M625,High School of Graphic Communication Arts,439 WEST 49TH STREET,-73.990318,40.763655
1097,02M630,M630,Art and Design High School,231-249 EAST 56 STREET,-73.967204,40.759248
1098,04M635,M635,Academy of Environmental Science Secondary High Sc,410 EAST 100 STREET,-73.942154,40.785107
1099,01M650,M650,Cascades High School,198 FORSYTH STREET,-73.990468,40.722415
1100,02M655,M655,Life Sciences Secondary School,320 EAST  96 STREET,-73.945933,40.783286
1101,05M670,M670,Thurgood Marshall Academy for Learning and Social,200-214 WEST 135TH STREET,-73.944299,40.815237
1102,04M680,M680,"Heritage School, The",1680 LEXINGTON AVENUE,-73.946879,40.791966
1103,05M685,M685,Bread & Roses Integrated Arts High School,6 EDGECOMBE AVENUE,-73.947151,40.817228
1104,02M690,M690,School for the Physical City High School,34 WEST  14 STREET,-73.995731,40.736416
1105,05M692,M692,"High School for Mathematics, Science and Engineeri",240 CONVENT AVE,-73.950354,40.820208
1106,04M695,M695,Urban Peace Academy,2351 1ST AVENUE,-73.93374,40.799265
1107,01M696,M696,Bard High School Early College,525 EAST HOUSTON STREET,-73.976093,40.718276
1108,84M701,M701,J A Reisenbach Charter School,257 WEST 117 STREET,-73.9538,40.8047
1109,84M702,M702,Sisulu-Walker Charter School of Harlem,125 WEST 115 STREET,-73.951357,40.802096
1110,84M704,M704,Harbor Science and Arts Charter School,132 EAST 111 STREET,-73.944449,40.795404
1111,84M705,M705,Amber Charter School,220 EAST 106 STREET,-73.943904,40.790932
1112,84M707,M707,John V. Lindsay Wildcat Academy Charter School,17 BATTERY PLACE,-74.015837,40.705605
1113,84M708,M708,Harlem Prep Charter School,240 EAST 123 STREET,-73.935335,40.801547
1114,84M709,M709,Harlem Village Academy West Charter School,244 WEST 144 STREET,-73.941111,40.821208
1115,75M721,M721,P.S. M721 - Manhattan Occupational Training Center,250 WEST HOUSTON STREET,-74.006155,40.729052
1116,75M721,M721,P.S. M721 - Manhattan Occupational Training Center,250 WEST HOUSTON STREET,-74.006155,40.729052
1117,75M723,M723,Manhattan Transition Center,135 CONVENT ROAD,0,0
1118,84M726,M726,KIPP STAR College Prep Charter School,433 WEST 123 STREET,-73.955722,40.810793
1119,84M726,M726,KIPP STAR College Prep Charter School,433 WEST 123 STREET,-73.955722,40.810793
1120,75M751,M751,Manhattan School for Career Development,113 EAST  4TH STREET,-73.987791,40.725892
1121,75M811,M811,P.S. M811 - Mickey Mantle School,466 WEST END AVENUE,-73.979217,40.78633
1122,04M825,M825,Isaac Newton Middle School for Math & Science,260 PLEASANT AVENUE,-73.932868,40.794184
1123,01M839,M839,Tompkins Square Middle School,600 EAST  6 STREET,-73.981597,40.72313
1124,03M859,M859,Special Music School,129 WEST  67 STREET,-73.982976,40.775256
1125,03M860,M860,Frederick Douglass Academy II Secondary School,215 WEST 114 STREET,-73.954152,40.80261
1126,84M861,M861,Future Leaders Institute Charter School,134 WEST 122 STREET,-73.948385,40.806055
1127,03M862,M862,Mott Hall II,234 WEST 109 STREET,-73.965949,40.802653
1128,02M896,M896,Lower Manhattan Community Middle School,26 BROADWAY,-74.013303,40.705688
1129,02M896,M896,Lower Manhattan Community Middle School,26 BROADWAY,-74.013303,40.705688
1130,02M933,M933,City Knoll Middle School,440 WEST  53 STREET,-73.989776,40.76588
1131,04M964,M964,Central Park East II,433 EAST 100 STREET,-73.940919,40.785559
1132,30Q002,Q002,P.S. 002 Alfred Zimberg,75-10 21 AVENUE,-73.894108,40.769798
1133,75Q004,Q004,P.S. Q004,196-25 PECK AVENUE,-73.778118,40.7417
1134,24Q005,Q005,I.S. 5 - The Walter Crowley Intermediate School,50-40 JACOBUS STREET,-73.888133,40.737405
1135,24Q007,Q007,P.S. 007 Louis F. Simeone,80-55 CORNISH AVENUE,-73.882446,40.739644
1136,28Q008,Q008,J.H.S. 008 Richard S. Grossley,108-35 167 STREET,-73.786403,40.69691
1137,75Q009,Q009,P.S. 009,58-74 57 STREET,-73.912458,40.718234
1138,30Q010,Q010,I.S. 010 Horace Greeley,45-11 31ST AVE,-73.911962,40.760122
1139,30Q011,Q011,P.S. 011 Kathryn Phelan,54-25 SKILLMAN AVENUE,-73.909032,40.746127
1140,24Q012,Q012,P.S. 012 James B. Colgate,42-00 72 STREET,-73.893466,40.742284
1141,24Q013,Q013,P.S. 013 Clement C. Moore,55-01 94 STREET,-73.867662,40.737441
1142,24Q014,Q014,P.S. 014 Fairview,107-01 OTIS AVENUE,-73.85457,40.74102
1143,29Q015,Q015,P.S. 015 Jackie Robinson,121-15 LUCAS STREET,-73.756546,40.68605
1144,24Q016,Q016,P.S. Q016 The Nancy DeBenedittis School,41-15 104 STREET,-73.860547,40.748996
1145,30Q017,Q017,P.S. 017 Henry David Thoreau,28-37 29 STREET,-73.922544,40.768034
1146,26Q018,Q018,P.S. 018 Winchester,86-35 235 COURT,-73.73229,40.731853
1147,24Q019,Q019,P.S. 019 Marino Jeantet,98-02 ROOSEVELT AVENUE,-73.866557,40.7486
1148,25Q020,Q020,P.S. 020 John Bowne,142-30 BARCLAY AVENUE,-73.824388,40.758347
1149,25Q021,Q021,P.S. 021 Edward Hart,147-36 26 AVENUE,-73.818581,40.774134
1150,25Q022,Q022,P.S. 022 Thomas Jefferson,153-33 SANFORD AVENUE,-73.811373,40.761744
1151,75Q023,Q023,P.S. Q023 @ Queens Children Center,74-03 COMMONWEALTH BOULEVARD,-73.723644,40.747914
1152,25Q024,Q024,P.S. 024 Andrew Jackson,45-57 UNION STREET,-73.8181,40.751972
1153,25Q024,Q024,P.S. 024 Andrew Jackson,45-57 UNION STREET,-73.8181,40.751972
1154,25Q025,Q025,I.S. 025 Adrien Block,34-65 192 STREET,-73.789365,40.764884
1155,26Q026,Q026,P.S. 026 Rufus King,195-02 69 AVENUE,-73.777607,40.735935
1156,24Q028,Q028,P.S. 28 - The Thomas Emanuel Early Childhood Cente,109-10 47 AVENUE,-73.854268,40.747017
1157,25Q029,Q029,P.S. 029 Queens,125-10 23 AVENUE,-73.842967,40.778029
1158,28Q030,Q030,P.S. 030 Queens,126-10 BEDELL STREET,-73.774668,40.679843
1159,26Q031,Q031,P.S. 031 Bayside,211-45 46 ROAD,-73.768994,40.757701
1160,25Q032,Q032,P.S. 032 State Street,171-11 35 AVENUE,-73.794323,40.765459
1161,29Q033,Q033,P.S. 033 Edward M. Funk,91-37 222 STREET,-73.734102,40.727172
1162,29Q034,Q034,P.S. 034 John Harvard,104-12 SPRINGFIELD BOULEVARD,-73.737702,40.710986
1163,29Q035,Q035,P.S. 035 Nathaniel Woodhull,191-02 90 AVENUE,-73.768894,40.713438
1164,29Q036,Q036,P.S. 036 Saint Albans School,187-01 FOCH BOULEVARD,-73.764081,40.691306
1165,29Q037,Q037,Cynthia Jenkins School,179-37 137 AVENUE,-73.758778,40.676201
1166,29Q038,Q038,P.S. 038 Rosedale,135-21 241 STREET,-73.733774,40.67115
1167,28Q040,Q040,P.S. 040 Samuel Huntington,109-20 UNION HALL STREET,-73.790975,40.693559
1168,26Q041,Q041,P.S. 041 Crocheron,214-43 35 AVENUE,-73.771225,40.770155
1169,27Q042,Q042,P.S./M.S 042 R. Vernam,488 BEACH  66 STREET,-73.794804,40.594358
1170,27Q043,Q043,P.S. 043,160 BEACH  29 STREET,-73.761086,40.59348
1171,27Q045,Q045,P.S. 045 Clarence Witherspoon,126-28 150 STREET,-73.788866,40.671871
1172,26Q046,Q046,P.S. 046 Alley Pond,64-45 218 STREET,-73.758042,40.745744
1173,27Q047,Q047,P.S. 047 Chris Galas,9 POWER ROAD,-73.821089,40.606476
1174,28Q048,Q048,P.S. 048 William Wordsworth,108-29 155 STREET,-73.796358,40.693736
1175,24Q049,Q049,P.S. 049 Dorothy Bonawit Kole,63-60 80th Street,-73.875493,40.719567
1176,28Q050,Q050,P.S. 050 Talfourd Lawn Elementary School,143-26 101 AVENUE,-73.806842,40.694868
1177,27Q051,Q051,P.S. 051,87-45 117 STREET,-73.831532,40.698286
1178,29Q052,Q052,P.S. 052 Queens,178-37 146 TERRACE,-73.767161,40.661427
1179,27Q053,Q053,M.S. 053 Brian Piccolo,10-45 NAMEOKE STREET,-73.749891,40.604019
1180,28Q054,Q054,P.S. 054 Hillside,86-02 127 STREET,-73.824629,40.702656
1181,28Q055,Q055,P.S. 055 Maure,131-10 97 AVENUE,-73.816156,40.69361
1182,27Q056,Q056,P.S. 056 Harry Eichler,86-10 114 STREET,-73.835735,40.698989
1183,24Q058,Q058,P.S. 58 - The School of Heroes,72-24 GRAND AVENUE,-73.890638,40.728517
1184,29Q059,Q059,I.S. 059 Springfield Gardens,132-55 RIDGEDALE STREET,-73.752772,40.681881
1185,27Q060,Q060,P.S. 060 Woodhaven,91-02 88 AVENUE,-73.852792,40.691467
1186,24Q061,Q061,I.S. 061 Leonardo Da Vinci,98-50 50 AVENUE,-73.862886,40.741898
1187,27Q062,Q062,P. S. 62 - Chester Park School,97-25 108 STREET,-73.835567,40.688359
1188,27Q063,Q063,P.S. 063 Old South,90-15 SUTTER AVENUE,-73.846796,40.676978
1189,27Q064,Q064,P.S. 064 Joseph P. Addabbo,82-01 101 AVENUE,-73.856956,40.681901
1190,27Q065,Q065,P.S. 65 - The Raymond York Elementary School,103-22 99 STREET,-73.841675,40.682293
1191,27Q066,Q066,P.S. 066 Jacqueline Kennedy Onassis,85-11 102 STREET,-73.846135,40.697941
1192,26Q067,Q067,J.H.S. 067 Louis Pasteur,51-60 MARATHON PARKWAY,-73.734832,40.762241
1193,24Q068,Q068,P.S. 068 Cambridge,59-09 SAINT FELIX AVENUE,-73.897372,40.696961
1194,30Q069,Q069,P.S. 069 Jackson Heights,77-02 37 AVENUE,-73.888457,40.748804
1195,30Q070,Q070,P.S. 070,30-45 42 STREET,-73.913964,40.761762
1196,30Q070,Q070,P.S. 070,30-45 42 STREET,-73.913964,40.761762
1197,24Q071,Q071,P.S. 071 Forest,62-85 FOREST AVENUE,-73.904798,40.711388
1198,28Q072,Q072,Catherine & Count Basie Middle School 72,133-25 GUY R BREWER BOULEVARD,-73.775643,40.675014
1199,24Q073,Q073,I.S. 73 - The Frank Sansivieri Intermediate School,70-02 54 AVENUE,-73.893318,40.728558
1200,26Q074,Q074,J.H.S. 074 Nathaniel Hawthorne,61-15 OCEANIA STREET,-73.766653,40.744743
1201,75Q075,Q075,Robert E. Peary School,16-66 HANCOCK STREET,-73.904888,40.698699
1202,30Q076,Q076,P.S. 076 William Hallet,36-36 10 STREET,-73.94163,40.760862
1203,24Q077,Q077,I.S. 077,976 SENECA AVENUE,-73.902147,40.699101
1204,30Q078,Q078,P.S./I.S. 78Q,48-09 CENTER BOULEVARD,-73.957177,40.744368
1205,25Q079,Q079,P.S. 079 Francis Lewis,147-27 15 DRIVE,-73.817338,40.786201
1206,28Q080,Q080,PS 80  The Thurgood Marshall Magnet School of Mult,171-05 137TH AVENUE,-73.769119,40.673483
1207,24Q081,Q081,P.S. 81Q Jean Paul Richter,559 CYPRESS AVENUE,-73.911885,40.703942
1208,28Q082,Q082,P.S. 082 Hammond,88-02 144 STREET,-73.8122,40.703897
1209,84Q083,Q083,Central Queens Academy Charter School,55-30 JUNCTION BOULEVARD,-73.866454,40.737321
1210,30Q084,Q084,P.S. 084 Steinway,22-45 41 STREET,-73.906117,40.771154
1211,30Q085,Q085,P.S. 085 Judge Charles Vallone,23-70 31 STREET,-73.915039,40.773126
1212,28Q086,Q086,P.S. Q086,87-41 PARSONS BOULEVARD,-73.803001,40.709461
1213,24Q087,Q087,P.S./I.S. 087 Middle Village,67-54 80 STREET,-73.871674,40.711559
1214,24Q088,Q088,P.S. 088 Seneca,60-85 CATALPA AVENUE,-73.896437,40.704105
1215,24Q089,Q089,P.S. 089 Elmhurst,85-28 BRITTON AVENUE,-73.879641,40.745963
1216,27Q090,Q090,P.S. 090 Horace Mann,86-50 109 STREET,-73.839517,40.696653
1217,24Q091,Q091,P.S. 091 Richard Arkwright,68-10 CENTRAL AVE,-73.883995,40.703503
1218,30Q092,Q092,P.S. 092 Harry T. Stewart Sr.,99-01 34 AVENUE,-73.868773,40.755983
1219,24Q093,Q093,I.S. 093 Ridgewood,66-56 FOREST AVENUE,-73.903057,40.705609
1220,26Q094,Q094,P.S. 094 David D. Porter,41-77 LITTLE NECK PARKWAY,-73.738703,40.771258
1221,29Q095,Q095,P.S. 095 Eastwood,179-01 90 AVENUE,-73.783283,40.711295
1222,27Q096,Q096,P.S. 096,130-01 ROCKAWAY BOULEVARD,-73.808128,40.675369
1223,27Q097,Q097,P.S. 097 Forest Park,85-52 85 STREET,-73.860031,40.694232
1224,26Q098,Q098,P.S. 098 The Douglaston School,40-20 235 STREET,-73.749998,40.768906
1225,28Q099,Q099,P.S. 099 Kew Gardens,82-37 KEW GARDENS ROAD,-73.827722,40.711502
1226,27Q100,Q100,P.S. 100 Glen Morris,111-11 118 STREET,-73.821545,40.679694
1227,28Q101,Q101,P.S. 101 School in the Gardens,2 RUSSELL PLACE,-73.8434,40.715543
1228,24Q102,Q102,P.S. 102 Bayview,55-24 VAN HORN STREET,-73.878243,40.733033
1229,27Q104,Q104,P.S. 104 The Bays Water,26-01 MOTT AVENUE,-73.764621,40.608002
1230,27Q105,Q105,P.S. 105 The Bay School,420 BEACH  51 STREET,-73.780961,40.595911
1231,27Q106,Q106,Lighthouse Elementary School,180 BEACH  35 STREET,-73.766846,40.594738
1232,25Q107,Q107,P.S. 107 Thomas A Dooley,167-02 45 AVENUE,-73.799476,40.755364
1233,27Q108,Q108,P.S. 108 Captain Vincent G. Fowler,108-10 109 AVENUE,-73.831025,40.679083
1234,29Q109,Q109,Jean Nuzzi Intermediate School,213-10 92 AVENUE,-73.746375,40.720074
1235,24Q110,Q110,P.S. 110,43-18 97TH PLACE,-73.866372,40.745995
1236,30Q111,Q111,P.S. 111 Jacob Blackwell,37-15 13 STREET,-73.939181,40.758342
1237,30Q112,Q112,P.S. 112 Dutch Kills,25-05 37 AVENUE,-73.933562,40.757293
1238,24Q113,Q113,P.S./I.S. 113 Anthony J. Pranzo,78-23 87TH STREET,-73.861493,40.705476
1239,27Q114,Q114,P.S./M.S. 114 Belle Harbor,134-01 CRONSTON AVENUE,-73.854364,40.577552
1240,26Q115,Q115,The James J. Ambrose School,80-51 261 STREET,-73.709404,40.744201
1241,29Q116,Q116,P.S./I.S. 116 William C. Hughley,107-25 WREN PLACE,-73.781839,40.70084
1242,28Q117,Q117,P.S. 117 J. Keld / Briarwood School,85-15 143 STREET,-73.812968,40.710428
1243,29Q118,Q118,P.S. 118 Lorraine Hansberry,190-20 109 ROAD,-73.765237,40.703182
1244,24Q119,Q119,P.S./I.S. 119 The Glendale,74-01 78 AVENUE,-73.875073,40.705187
1245,25Q120,Q120,P.S. 120 Queens,58-01 136 STREET,-73.828674,40.745215
1246,28Q121,Q121,P.S. 121 Queens,126-10 109 AVENUE,-73.81533,40.683585
1247,30Q122,Q122,P.S. 122 Mamie Fay,21-21 DITMARS BOULEVARD,-73.915785,40.780507
1248,27Q123,Q123,P.S. 123,145-01 119 AVENUE,-73.795571,40.678913
1249,27Q124,Q124,P.S. 124 Osmond A Church,129-15 150 AVENUE,-73.811266,40.665669
1250,24Q125,Q125,I.S. 125 Thom J. McCann Woodside,46-02 47 AVENUE,-73.918762,40.740452
1251,30Q126,Q126,Albert Shanker School for Visual and Performing Ar,31-51 21 STREET,-73.92999,40.766008
1252,30Q127,Q127,P.S. 127 Aerospace Science Magnet School,98-01 25 AVENUE,-73.870931,40.765507
1253,24Q128,Q128,"P.S. 128 The Lorraine Tuzzo, Juniper Valley Elemen",69-10 65th Drive,-73.885974,40.715005
1254,25Q129,Q129,P.S. 129 Patricia Larkin,128-02 7 AVENUE,-73.839505,40.789926
1255,25Q130,Q130,P.S. 130,200-01 42 AVENUE,-73.784009,40.760219
1256,29Q131,Q131,P.S. 131 Abigail Adams,170-45 84 AVENUE,-73.794061,40.71715
1257,29Q132,Q132,P.S. 132 Ralph Bunche,132-15 218 STREET,-73.7493,40.681948
1258,26Q133,Q133,P.S. 133 Queens,248-05 86 AVENUE,-73.717819,40.732458
1259,29Q134,Q134,P.S. 134 Hollis,203-02 109 AVENUE,-73.754747,40.707535
1260,29Q135,Q135,The Bellaire School,207-11 89 AVENUE,-73.757591,40.720864
1261,29Q136,Q136,P.S. 136 Roy Wilkins,201-15 115 AVENUE,-73.752694,40.69894
1262,27Q137,Q137,M.S. 137 America's School of Heroes,109-15 98 STREET,-73.839377,40.678112
1263,29Q138,Q138,P.S./M.S. 138 Sunrise,251-11 WELLER AVENUE,-73.734342,40.659876
1264,28Q139,Q139,P.S. 139 Rego Park,93-06 63 DRIVE,-73.862561,40.728012
1265,28Q140,Q140,P.S. 140 Edward K Ellington,166-01 116 AVENUE,-73.781255,40.687486
1266,30Q141,Q141,I.S. 141 The Steinway,37-11 21 AVENUE,-73.904508,40.775766
1267,24Q143,Q143,P.S. 143 Louis Armstrong,34-74 113 STREET,-73.855715,40.755393
1268,28Q144,Q144,P.S. 144 Col Jeromus Remsen,93-02 69 AVENUE,-73.852398,40.71489
1269,30Q145,Q145,I.S. 145 Joseph Pulitzer,33-34 80 STREET,-73.887523,40.754389
1270,27Q146,Q146,P.S. 146 Howard Beach,98-01 159 AVENUE,-73.834896,40.660531
1271,29Q147,Q147,P.S./M.S. 147 Ronald McNair,218-01 116 AVENUE,-73.74014,40.698028
1272,30Q148,Q148,P.S. 148 Queens,89-02 32 AVENUE,-73.878638,40.757629
1273,30Q149,Q149,P.S. 149 Christa McAuliffe,93-11 34 AVENUE,-73.874505,40.755759
1274,30Q150,Q150,P.S. 150 Queens,40-01 43 AVENUE,-73.923375,40.745887
1275,30Q151,Q151,P.S. 151 Mary D. Carter,50-05 31 AVENUE,-73.908146,40.758027
1276,30Q152,Q152,P.S. 152 Gwendoline N. Alleyne School,33-52 62 STREET,-73.900584,40.753094
1277,24Q153,Q153,P.S. 153 Maspeth Elem,60-02 60 LANE,-73.904463,40.716296
1278,25Q154,Q154,P.S. 154 Queens,75-02 162 STREET,-73.80775,40.726473
1279,27Q155,Q155,P.S. 155,130-02 115 AVENUE,-73.810067,40.679105
1280,29Q156,Q156,P.S. 156 Laurelton,229-02 137 AVENUE,-73.743327,40.672259
1281,28Q157,Q157,J.H.S. 157 Stephen A. Halsey,63-55 102ND STREET,-73.852879,40.732348
1282,26Q158,Q158,M.S. 158 Marie Curie,46-35 OCEANIA STREET,-73.771878,40.756562
1283,26Q159,Q159,P.S. 159,205-01 33 AVENUE,-73.783973,40.770108
1284,28Q160,Q160,P.S. 160 Walter Francis Bishop,109-59 INWOOD STREET,-73.799685,40.688373
1285,28Q161,Q161,P.S. 161 Arthur Ashe School,101-33 124 STREET,-73.82108,40.690439
1286,26Q162,Q162,P.S. 162 John Golden,201-02 53 AVENUE,-73.776576,40.748405
1287,25Q163,Q163,P.S. 163 Flushing Heights,159-01 59 AVENUE,-73.808765,40.741107
1288,25Q164,Q164,P.S. 164 Queens Valley,138-01 77 AVENUE,-73.823569,40.721514
1289,25Q165,Q165,P.S. 165 Edith K. Bergtraum,70-35 150 STREET,-73.816966,40.729746
1290,30Q166,Q166,P.S. 166 Henry Gradstein,33-09 35 AVENUE,-73.926249,40.757497
1291,28Q167,Q167,Metropolitan Expeditionary Learning School,91-30 METROPOLITAN AVENUE,-73.855543,40.708431
1292,25Q168,Q168,JHS 168 The Parsons,158-40 76 ROAD,-73.8102,40.7245
1293,25Q169,Q169,P.S. 169 Bay Terrace,18-25 212 STREET,-73.77843,40.782331
1294,84Q170,Q170,Peninsula Preparatory Academy Charter School,611 BEACH  19 STREET,-73.752565,40.600659
1295,30Q171,Q171,P.S. 171 Peter G. Van Alst,14-14 29 AVENUE,-73.929093,40.770926
1296,26Q172,Q172,Irwin Altman Middle School 172,81-14 257 STREET,-73.713245,40.741409
1297,26Q173,Q173,P.S. 173 Fresh Meadows,174-10 67 AVENUE,-73.795651,40.734097
1298,28Q174,Q174,P.S. 174 William Sidney Mount,65-10 DIETERLE CRESCENT,-73.861462,40.720583
1299,28Q175,Q175,P.S. 175 The Lynn Gross Discovery School,64-35 102 STREET,-73.85221,40.731016
1300,29Q176,Q176,P.S. 176 Cambria Heights,120-45 235 STREET,-73.729226,40.684987
1301,75Q177,Q177,P.S. Q177,56-37 188 STREET,-73.787419,40.7434
1302,26Q178,Q178,P.S./ IS 178 Holliswood,189-10 RADNOR ROAD,-73.777314,40.724061
1303,27Q180,Q180,MS 180 Gerald R. Dever Ms,320 BEACH 104TH STREET,-73.8257,40.5841
1304,29Q181,Q181,P.S. 181 Brookfield,148-15 230 STREET,-73.752948,40.655674
1305,28Q182,Q182,P.S. 182 Samantha Smith,153-27 88TH AVENUE,-73.803183,40.70675
1306,27Q183,Q183,P.S. 183 Dr. Richard R. Green,2-45 BEACH  79 STREET,-73.805866,40.58922
1307,25Q184,Q184,P.S. 184 Flushing Manor,163-15 21 ROAD,-73.799158,40.778334
1308,25Q185,Q185,J.H.S. 185 Edward Bleeker,147-26 25 DRIVE,-73.818607,40.774906
1309,26Q186,Q186,P.S. 186 Castlewood,252-12 72 AVENUE,-73.721594,40.749556
1310,26Q188,Q188,P.S. 188 Kingsbury,218-12 HARTLAND AVENUE,-73.753985,40.736063
1311,25Q189,Q189,J.H.S. 189 Daniel Carter Beard,144-80 BARCLAY AVENUE,-73.818399,40.759963
1312,28Q190,Q190,J.H.S. 190 Russell Sage,68-17 AUSTIN STREET,-73.8517,40.723478
1313,26Q191,Q191,P.S. 191 Mayflower,85-15 258 STREET,-73.708617,40.734266
1314,29Q192,Q192,I.S. 192 The Linden,109-89 204 STREET,-73.752885,40.705989
1315,25Q193,Q193,P.S. 193 Alfred J. Kennedy,152-20 11 AVENUE,-73.808987,40.792053
1316,25Q194,Q194,J.H.S. 194 William Carr,154-60 17 AVENUE,-73.80699,40.783231
1317,29Q195,Q195,P.S. 195 William Haberle,253-50 149 AVENUE,-73.735618,40.652641
1318,28Q196,Q196,P.S. 196 Grand Central Parkway,71-25 113 STREET,-73.837379,40.722792
1319,27Q197,Q197,P.S. 197 The Ocean School,825 HICKSVILLE ROAD,-73.744128,40.599664
1320,27Q198,Q198,JHS 198 Benjamin N Cardozo,365 BEACH  56 STREET,-73.7862,40.594
1321,24Q199,Q199,P.S. 199 Maurice A. Fitzgerald,39-20 48 AVENUE,-73.926081,40.739831
1322,25Q200,Q200,P.S./M.S. 200 - The Magnet School of Global Studie,70-10 164 STREET,-73.805759,40.73107
1323,25Q201,Q201,P.S. 201 The Discovery School for Inquiry and Rese,65-11 155 STREET,-73.813011,40.736541
1324,27Q202,Q202,J.H.S. 202 Robert H. Goddard,138-30 LAFAYETTE STREET,-73.845992,40.670905
1325,26Q203,Q203,P.S. 203 Oakland Gardens,53-11 SPRINGFIELD BOULEVARD,-73.759822,40.753606
1326,30Q204,Q204,I.S. 204 Oliver W. Holmes,36-41 28 STREET,-73.932628,40.756471
1327,26Q205,Q205,P.S. 205 Alexander Graham Bell,75-25 BELL BOULEVARD,-73.756374,40.738008
1328,28Q206,Q206,P.S. 206 The Horace Harding School,61-02 98 STREET,-73.861004,40.73404
1329,28Q206,Q206,P.S. 206 The Horace Harding School,61-02 98 STREET,-73.861004,40.73404
1330,27Q207,Q207,P.S. 207 Rockwood Park,159-15 88 STREET,-73.843881,40.657736
1331,29Q208,Q208,P.S./I.S. 208,74-30 COMMONWEALTH BLVD,-73.727632,40.744276
1332,25Q209,Q209,P.S. 209 Clearview Gardens,16-10 UTOPIA PARKWAY,-73.795845,40.783777
1333,27Q210,Q210,J.H.S. 210 Elizabeth Blackwell,93-11 101 AVENUE,-73.847633,40.68476
1334,24Q211,Q211,Elm Tree Elementary School,50-51 98TH STREET,-73.863408,40.741139
1335,30Q212,Q212,P.S. 212,34-25 82 STREET,-73.884458,40.753035
1336,26Q213,Q213,P.S. 213 The Carl Ullman School,231-02 67 AVENUE,-73.74539,40.747457
1337,25Q214,Q214,P.S. 214 Cadwallader Colden,31-15 140 STREET,-73.827606,40.770215
1338,27Q215,Q215,P.S. 215 Lucretia Mott,535 BRIAR PLACE,-73.758587,40.599467
1339,26Q216,Q216,J.H.S. 216 George J. Ryan,64-20 175 STREET,-73.794501,40.737188
1340,28Q217,Q217,J.H.S. 217 Robert A. Van Wyck,85-05 144 STREET,-73.811461,40.710384
1341,25Q219,Q219,P.S. 219 Paul Klapper,144-39 GRAVETT ROAD,-73.823841,40.737448
1342,28Q220,Q220,P.S. 220 Edward Mandel,62-10 108 STREET,-73.852621,40.736314
1343,26Q221,Q221,P.S. 221 The North Hills School,57-40 MARATHON PARKWAY,-73.731518,40.758808
1344,30Q222,Q222,P.S. Q222 - Fire Fighter Christopher A. Santora Sc,86-15 37 AVENUE,-73.879991,40.750442
1345,27Q223,Q223,P.S. 223 Lyndon B. Johnson,125-20 SUTPHIN BOULEVARD,-73.78953,40.673898
1346,75Q224,Q224,P.S. Q224,252-12 72 AVENUE,-73.721594,40.749556
1347,27Q225,Q225,P.S. 225 Seaside,190 BEACH 110 STREET,-73.83109,40.580907
1348,27Q226,Q226,J.H.S. 226 Virgil I. Grissom,121-10 ROCKAWAY BOULEVARD,-73.81673,40.675021
1349,30Q227,Q227,I.S. 227 Louis Armstrong,32-02 JUNCTION BOULEVARD,-73.874614,40.757567
1350,30Q228,Q228,The Ivan Lafayette Early Childhood School of the A,32-63 93 STREET,-73.874947,40.756931
1351,30Q228,Q228,The Ivan Lafayette Early Childhood School of the A,32-63 93 STREET,-73.874947,40.756931
1352,24Q229,Q229,P.S. 229 Emanuel Kaplan,67-25 51 ROAD,-73.897108,40.734682
1353,30Q230,Q230,I.S. 230,73-10 34 AVENUE,-73.892883,40.752618
1354,29Q231,Q231,I.S. 231 Magnetech 2000,145-00 SPRINGFIELD BOULEVARD,-73.759396,40.664809
1355,27Q232,Q232,P.S. 232 Lindenwood,153-23 83 STREET,-73.850622,40.665408
1356,75Q233,Q233,P.S. Q233,91-30 METROPOLITAN AVENUE,-73.855543,40.708431
1357,30Q234,Q234,P.S. 234,30-15 29 STREET,-73.923044,40.766898
1358,30Q234,Q234,P.S. 234,30-15 29 STREET,-73.923044,40.766898
1359,30Q235,Q235,Academy for New Americans,30-14 30 STREET,-73.923044,40.766898
1360,30Q235,Q235,Academy for New Americans,30-14 30 STREET,-73.923044,40.766898
1361,24Q236,Q236,International High School for Health Sciences,48-01 90 STREET,-73.874129,40.740824
1362,25Q237,Q237,I.S. 237,46-21 COLDEN STREET,-73.821402,40.74943
1363,29Q238,Q238,I.S. 238 - Susan B. Anthony Academy,88-15 182 STREET,-73.779653,40.712743
1364,24Q239,Q239,P.S. 239,17-15 WEIRFIELD STREET,-73.903838,40.699431
1365,25Q240,Q240,Veritas Academy,35-01 UNION STREET,-73.826811,40.764892
1366,25Q241,Q241,Queens High School for Language Studies,35-01 UNION STREET,-73.826811,40.764892
1367,25Q242,Q242,P.S. 242 Leonard P. Stavisky Early Childhood Schoo,29-66 137 STREET,-73.832005,40.769752
1368,29Q243,Q243,Institute for Health Professions at Cambria Height,207- 01 116TH  AVENUE,-73.74633,40.698786
1369,25Q244,Q244,The Active Learning Elementary School,137-20 FRANKLIN AVENUE,-73.826192,40.754483
1370,29Q248,Q248,Queens Preparatory Academy,143-10 SPRINGFIELD BOULEVARD,-73.757744,40.66903
1371,25Q250,Q250,I.S. 250 The Robert F. Kennedy Community Middle Sc,158-40 76 ROAD,-73.80938,40.724195
1372,29Q251,Q251,P.S. 251 Queens,144-51 ARTHUR STREET,-73.759396,40.664809
1373,25Q252,Q252,"Queens School of Inquiry, The",158-40 76 ROAD,-73.80938,40.724195
1374,27Q253,Q253,P.S. 253,1307 CENTRAL AVENUE,-73.748799,40.607247
1375,27Q254,Q254,P.S. 254 - The Rosa Parks School,84-40 101 STREET,-73.847886,40.6972
1376,75Q255,Q255,P.S. Q255,158-40 76 ROAD,-73.80938,40.724195
1377,75Q256,Q256,P.S. Q256,525 CONVENT ROAD,,
1378,30Q258,Q258,Energy Tech High School,36-41 28 STREET,-73.932628,40.756471
1379,29Q259,Q259,Pathways College Preparatory School: A College Boa,109-89 204 STREET,-73.752885,40.705989
1380,27Q260,Q260,Frederick Douglass Academy VI High School,8-21 BAY 25 STREET,-73.763995,40.601537
1381,27Q261,Q261,Voyages Prep - South Queens,156-10 BAISLEY BOULEVARD,-73.782684,40.673949
1382,27Q262,Q262,Channel View School for Research,100-00 BEACH CHANNEL DRIVE,-73.825317,40.586012
1383,25Q263,Q263,Flushing International High School,144-80 BARCLAY AVENUE,-73.818399,40.759963
1384,24Q264,Q264,Academy of Finance and Enterprise,30-20 THOMSON AVENUE,-73.937004,40.744175
1385,29Q265,Q265,Excelsior Preparatory High School,143-10 SPRINGFIELD BOULEVARD,-73.757744,40.66903
1386,26Q266,Q266,P.S./I.S. 266,74-10 COMMONWEALTH BOULEVARD,-73.728415,40.746128
1387,24Q267,Q267,High School of Applied Communication,30-20 THOMSON AVENUE,-73.937004,40.744175
1388,29Q268,Q268,P.S./I.S. 268,92-07 175 STREET,-73.78521,40.707648
1389,29Q270,Q270,The Gordon Parks School,233-15 MERRICK BOULEVARD,-73.736232,40.67507
1390,29Q272,Q272,George Washington Carver High School for the Scien,143-10 SPRINGFIELD BOULEVARD,-73.757744,40.66903
1391,27Q273,Q273,P.S. 273,88-07 102ND STREET,-73.844335,40.693613
1392,29Q274,Q274,Langston Hughes High School For Communication Arts,143-10 SPRINGFIELD BOULEVARD,-73.7569,40.6682
1393,75Q277,Q277,The Riverview School,50-15 44TH STREET,-73.921346,40.73668
1394,27Q279,Q279,Cypress Hills Collegiate Preparatory School,94-06 104TH STREET,0,0
1395,30Q280,Q280,P.S. 280,34-20 94TH STREET,-73.874109,40.753345
1396,25Q281,Q281,East-West School of International Studies,46-21 COLDEN STREET,-73.821402,40.74943
1397,27Q282,Q282,Knowledge and Power Preparatory Academy VI,8-21 BAY 25 STREET,-73.763995,40.601537
1398,29Q283,Q283,Preparatory Academy for Writers: A College Board S,143-10 SPRINGFIELD BOULEVARD,-73.757744,40.66903
1399,28Q284,Q284,York Early College Academy,108-35 167 STREET,-73.786403,40.69691
1400,25Q285,Q285,World Journalism Preparatory: A College Board Scho,34-65 192 STREET,-73.789365,40.764884
1401,30Q286,Q286,"Young Women's Leadership School, Astoria",23-15 NEWTOWN AVENUE,-73.92383,40.770769
1402,28Q287,Q287,The Emerson School,108-35 167 STREET,-73.786403,40.69691
1403,29Q289,Q289,Queens United Middle School,229-02 137 AVENUE,-73.743327,40.672259
1404,24Q290,Q290,A.C.E. Academy for Scholars at the Geraldine Ferra,55-20 METROPOLITAN AVENUE,-73.908307,40.71303
1405,30Q291,Q291,Hunters Point Community Middle School,1-50 51ST AVENUE,-73.959183,40.742964
1406,24Q293,Q293,Civic Leadership Academy,45-10 94TH STREET,-73.871505,40.743228
1407,25Q294,Q294,BELL Academy,18-25 212 STREET,-73.77843,40.782331
1408,29Q295,Q295,P.S./I.S. 295,222-14 JAMAICA AVENUE,-73.731398,40.720617
1409,24Q296,Q296,Pan American International High School,45-10 94TH STREET,-73.871505,40.743228
1410,27Q297,Q297,Hawtree Creek Middle School,121-10 ROCKAWAY BOULEVARD,-73.81673,40.675021
1411,84Q298,Q298,Middle Village Prep Charter School,68-02 METROPOLITAN AVENUE,-73.888325,40.710973
1412,24Q299,Q299,Bard High School Early College Queens,30-20 THOMSON AVENUE,-73.937004,40.744175
1413,30Q300,Q300,The 30th Avenue School (G&T Citywide),28-37 29 STREET,-73.922544,40.768034
1414,30Q301,Q301,Academy for Careers in Television and Film,1-50 51ST AVENUE,-73.959183,40.742964
1415,27Q302,Q302,"Queens High School for Information, Research, and",8-21 BAY 25 STREET,-73.763995,40.601537
1416,28Q303,Q303,The Academy for Excellence through the Arts,108-55 69 AVENUE,-73.844032,40.725787
1417,84Q304,Q304,VOICE Charter School of New York,36-24 12TH STREET,-73.939984,40.760376
1418,84Q304,Q304,VOICE Charter School of New York,36-24 12TH STREET,-73.939984,40.760376
1419,24Q305,Q305,Learners and Leaders,378 SENECA AVENUE,-73.91499,40.706837
1420,27Q306,Q306,New York City Academy for Discovery,95-16 89TH AVENUE,-73.848577,40.691482
1421,24Q307,Q307,Pioneer Academy,40-20 100TH STREET,-73.865787,40.749175
1422,27Q308,Q308,Robert H. Goddard High School of Communication Art,138-30 LAFAYETTE STREET,-73.845992,40.670905
1423,27Q309,Q309,Academy of Medical Technology: A College Board Sch,8-21 BAY 25 STREET,-73.763995,40.601537
1424,28Q310,Q310,Queens Collegiate: A College Board School,167-01 GOTHIC DRIVE,-73.798658,40.714551
1425,24Q311,Q311,Corona Arts & Sciences Academy,98-11 44TH AVENUE,-73.865239,40.74592
1426,24Q311,Q311,Corona Arts & Sciences Academy,98-11 44TH AVENUE,-73.865239,40.74592
1427,28Q312,Q312,Jamaica Children's School,109-20 UNION HALL STREET,-73.790975,40.693559
1428,29Q313,Q313,Benjamin Franklin High School for Finance & Inform,207- 01 116TH  AVENUE,-73.74633,40.698786
1429,27Q314,Q314,Epic High School - South,121-10 ROCKAWAY BOULEVARD,-73.81673,40.675021
1430,26Q315,Q315,Business Technology Early College High School,230-17 HILLSIDE AVENUE,-73.739726,40.733888
1431,27Q316,Q316,Queens Explorers Elementary School,90-07 101ST AVENUE,-73.850123,40.683112
1432,27Q317,Q317,Waterside Children's Studio School,190 BEACH 110 STREET,-73.83109,40.580907
1433,27Q318,Q318,Waterside School For Leadership,190 BEACH 110 STREET,-73.83109,40.580907
1434,27Q319,Q319,Village Academy,10-45 NAMEOKE STREET,-73.749891,40.604019
1435,84Q320,Q320,New Visions Charter High School for Advanced Math,156-10 BAISLEY BOULEVARD,-73.782684,40.673949
1436,84Q321,Q321,Growing Up Green Charter School,39-37 28th Street,-73.935743,40.752598
1437,27Q323,Q323,Scholars' Academy,320 BEACH 104TH STREET,-73.825162,40.584543
1438,27Q324,Q324,Rockaway Park High School for Environmental Sustai,100-00 BEACH CHANNEL DRIVE,-73.825317,40.586012
1439,28Q325,Q325,Hillside Arts & Letters Academy,167-01 GOTHIC DRIVE,-73.798658,40.714551
1440,29Q326,Q326,Cambria Heights Academy,188-04 91ST AVENUE,-73.771196,40.711857
1441,29Q327,Q327,Eagle Academy for Young Men III,171-10 LINDEN BOULEVARD,-73.778924,40.69172
1442,28Q328,Q328,High School for Community Leadership,167-01 GOTHIC DRIVE,-73.798658,40.714551
1443,30Q329,Q329,East Elmhurst Community School,26-25 97TH STREET,-73.872244,40.761573
1444,24Q330,Q330,Helen M. Marshall School,110-08 NORTHERN BOULEVARD,-73.859202,40.757888
1445,28Q332,Q332,Redwood Middle School,133-25 GUY R BREWER BOULEVARD,-73.775643,40.675014
1446,27Q333,Q333,Goldie Maple Academy,3-65 BEACH 56 STREET,-73.786649,40.594008
1447,27Q334,Q334,Epic High School - North,94-25 117TH STREET,-73.829409,40.693013
1448,84Q337,Q337,Success Academy Charter School - Rosedale - New Yo,147-65 249TH STREET,-73.738793,40.655811
1449,28Q338,Q338,Queens Satellite High School for Opportunity,162-02 HILLSIDE AVENUE,-73.799532,40.708204
1450,84Q339,Q339,Success Academy Charter School - Springfield Garde,132-55 RIDGEDALE STREET,-73.752772,40.681881
1451,84Q340,Q340,Challenge Preparatory Charter School,710 HARTMAN LANE,-73.764065,40.600137
1452,84Q341,Q341,Riverton Street Charter School,118-46 RIVERTON STREET,-73.763282,40.689012
1453,84Q342,Q342,Rochdale Early Advantage Charter School,122-05 SMITH STREET,-73.778613,40.680016
1454,24Q343,Q343,The Children's Lab School,45-45 42ND STREET,-73.922604,40.74258
1455,27Q346,Q346,New HS at Q400 (August Martin),156-10 BAISLEY BOULEVARD,-73.782684,40.673949
1456,28Q349,Q349,The Queens School for Leadership and Excellence,88-08 164TH STREET,-73.797981,40.708698
1457,28Q350,Q350,Jamaica Gateway to the Sciences,167-01 GOTHIC DRIVE,-73.798658,40.714551
1458,27Q351,Q351,Rockaway Collegiate High School,100-00 BEACH CHANNEL DRIVE,-73.825317,40.586012
1459,27Q352,Q352,District 27 MS#1,488 BEACH  66 STREET,-73.794804,40.594358
1460,28Q354,Q354,The Jermaine L. Green STEM Institute of Queens,126-10 BEDELL STREET,-73.774668,40.679843
1461,29Q355,Q355,Collaborative Arts Middle School,145-00 SPRINGFIELD BOULEVARD,-73.759396,40.664809
1462,29Q356,Q356,Community Voices Middle School,145-00 SPRINGFIELD BOULEVARD,-73.759396,40.664809
1463,28Q358,Q358,M.S. 358,88-08 164TH STREET,-73.797981,40.708698
1464,84Q359,Q359,Academy of the City Charter School,31-29 60 STREET,-73.902197,40.756181
1465,29Q360,Q360,P.S. 360,199-10 112 AVENUE,-73.756259,40.702329
1466,30Q361,Q361,The Woodside Community School,39-07 57th Street,-73.90643,40.747701
1467,27Q362,Q362,Wave Preparatory Elementary School,535 BRIAR PLACE,-73.758587,40.599467
1468,25Q363,Q363,RUPERT B. THOMAS ACADEMY AT THE FLUSHING CAMPUS,35-01 UNION STREET,-73.826811,40.764892
1469,30Q364,Q364,Academy Of Humanities And Applied Science At The W,48-10 31 AVENUE,-73.911165,40.757072
1470,30Q365,Q365,Global Scholars Academies Of Long Island City,14-30 BROADWAY,-73.933907,40.765881
1471,24Q366,Q366,College And Career Academies High School At Newtow,48-01 90 STREET,-73.874129,40.740824
1472,27Q368,Q368,School Of Opportunities At The August Martin Campu,156-10 BAISLEY BOULEVARD,-73.782684,40.673949
1473,27Q369,Q369,21ST CENTURY SCHOOL OF RICHMOND HILL,89-30 114 STREET,-73.833815,40.695171
1474,27Q370,Q370,Future Leaders High School At The John Adams Campu,101-01 ROCKAWAY BOULEVARD,-73.838616,40.680065
1475,27Q370,Q370,Future Leaders High School At The John Adams Campu,101-01 ROCKAWAY BOULEVARD,-73.838616,40.680065
1476,84Q372,Q372,Growing Up Green Charter School II,84-35 152 STREET,-73.807561,40.713084
1477,84Q373,Q373,New Visions Charter High School for the Humanities,100-00 BEACH CHANNEL DRIVE,-73.825317,40.586012
1478,84Q374,Q374,Success Academy Charter School - South Jamaica,120-27 141ST STREET,-73.799756,40.675626
1479,84Q375,Q375,Success Academy Charter School - Far Rockaway,10-45 NAMEOKE STREET,-73.749891,40.604019
1480,26Q376,Q376,P.S. 376,210-21 48 AVENUE,-73.770314,40.754954
1481,27Q377,Q377,P.S. 377,150-15 RALEIGH STREET,-73.83685,40.668083
1482,27Q377,Q377,P.S. 377,150-15 RALEIGH STREET,-73.83685,40.668083
1483,25Q379,Q379,College Point Collaborative,12406 14TH AVENUE,-73.843504,40.785129
1484,84Q380,Q380,Forte Preparatory Academy Charter School,32-20 108TH STREET,-73.861594,40.759419
1485,30Q384,Q384,P.S. 384,27-35 JACKSON AVENUE,-73.940316,40.748159
1486,84Q385,Q385,Elm Community Charter School,149-34 35 AVENUE,-73.816232,40.766487
1487,84Q386,Q386,Our World Neighborhood Charter School 2,135-25 79 Street,-73.856042,40.671281
1488,84Q387,Q387,Valence College Preparatory Charter School,75-01 31 AVENUE,-73.891847,40.759705
1489,84Q388,Q388,New Dawn Charter High School II,89 17 161 street,-73.799059,40.706041
1490,30Q398,Q398,P.S. 398,69-01 34TH AVENUE,-73.896705,40.752773
1491,27Q400,Q400,August Martin High School,156-10 BAISLEY BOULEVARD,-73.782684,40.673949
1492,27Q410,Q410,Beach Channel High School,100-00 BEACH CHANNEL DRIVE,-73.825317,40.586012
1493,26Q415,Q415,Benjamin N. Cardozo High School,57-00 223RD STREET,-73.757271,40.752343
1494,29Q420,Q420,Springfield Gardens Hs,143-10 SPRINGFIELD BOULEVARD,-73.7569,40.6682
1495,25Q425,Q425,John Bowne High School,63-25 MAIN STREET,-73.823841,40.737448
1496,26Q430,Q430,Francis Lewis High School,58-20 UTOPIA PARKWAY,-73.795049,40.740875
1497,26Q435,Q435,Martin Van Buren High School,230-17 HILLSIDE AVENUE,-73.739726,40.733888
1498,28Q440,Q440,Forest Hills High School,67-01 110 STREET,-73.843972,40.730017
1499,30Q445,Q445,William Cullen Bryant High School,48-10 31 AVENUE,-73.911165,40.757072
1500,30Q450,Q450,Long Island City High School,14-30 BROADWAY,-73.933907,40.765881
1501,24Q455,Q455,Newtown High School,48-01 90 STREET,-73.874129,40.740824
1502,25Q460,Q460,Flushing High School,35-01 UNION STREET,-73.826811,40.764892
1503,27Q465,Q465,Far Rockaway High School,8-21 BAY 25 STREET,-73.763995,40.601537
1504,28Q470,Q470,Jamaica High School,167-01 GOTHIC DRIVE,-73.798658,40.714551
1505,27Q475,Q475,Richmond Hill High School,89-30 114 STREET,-73.833815,40.695171
1506,27Q480,Q480,John Adams High School,101-01 ROCKAWAY BOULEVARD,-73.838616,40.680065
1507,27Q480,Q480,John Adams High School,101-01 ROCKAWAY BOULEVARD,-73.838616,40.680065
1508,24Q485,Q485,Grover Cleveland High School,21-27 HIMROD STREET,-73.909202,40.711881
1509,29Q492,Q492,"Mathematics, Science Research and Technology Magne",207- 01 116TH  AVENUE,-73.74633,40.698786
1510,29Q494,Q494,"Law, Government and Community Service High School",207- 01 116TH  AVENUE,-73.74633,40.698786
1511,26Q495,Q495,Bayside High School,32-24 CORPORAL KENNEDY STREET,-73.781041,40.771398
1512,29Q496,Q496,"Business, Computer Applications & Entrepreneurship",207- 01 116TH  AVENUE,-73.74633,40.698786
1513,29Q498,Q498,Humanities & Arts Magnet High School,207- 01 116TH  AVENUE,-73.74633,40.698786
1514,25Q499,Q499,"The Queens College School for Math, Science and Te",148-20 REEVES AVENUE,-73.820821,40.738599
1515,30Q501,Q501,Frank Sinatra School of the Arts High School,35-12 35TH AVENUE,-73.925182,40.756099
1516,30Q502,Q502,Information Technology High School,21-16 44TH ROAD,-73.946488,40.748502
1517,28Q505,Q505,Hillcrest High School,160-05 HIGHLAND AVENUE,-73.803001,40.709461
1518,24Q520,Q520,Middle College High School at LaGuardia Community,45-35 VAN DAM STREET,-73.933316,40.743253
1519,25Q525,Q525,Townsend Harris High School,149-11 MELBOURNE AVENUE,-73.821532,40.737038
1520,24Q530,Q530,International High School at LaGuardia Community C,45-35 VAN DAM STREET,-73.933316,40.743253
1521,25Q540,Q540,Queens Academy High School,138-11 35 AVENUE,-73.828279,40.765624
1522,24Q550,Q550,High School for Arts and Business,105-25 HORACE HARDING EXPY N,-73.853412,40.737673
1523,30Q555,Q555,Newcomers High School,28-01 41 AVENUE,-73.936592,40.751838
1524,24Q560,Q560,"Robert F. Wagner, Jr. Secondary School for Arts an",47-07 30TH PLACE,-73.936442,40.742217
1525,26Q566,Q566,"Queens High School of Teaching, Liberal Arts and t",74-20 COMMONWEALTH BLVD,-73.728834,40.744197
1526,30Q575,Q575,Academy of American Studies,28-04 41 AVENUE,-73.937564,40.751144
1527,30Q580,Q580,Baccalaureate School for Global Education,34-12 36 AVENUE,-73.926977,40.754975
1528,24Q585,Q585,Maspeth High School,54-40 74TH STREET,-73.887909,40.729104
1529,24Q600,Q600,Queens Technical High School,37-02 47 AVENUE,-73.927995,40.741658
1530,24Q610,Q610,Aviation Career & Technical Education High School,45-30 36 STREET,-73.929577,40.743309
1531,28Q620,Q620,Thomas A. Edison Career and Technical Education Hi,165-65 84 AVENUE,-73.799692,40.716071
1532,27Q650,Q650,"High School for Construction Trades, Engineering a",94-06 104TH STREET,-73.841475,40.689177
1533,25Q670,Q670,Robert F. Kennedy Community High School,75-40 PARSONS BOULEVARD,-73.811408,40.72528
1534,28Q680,Q680,Queens Gateway to Health Sciences Secondary School,160-20 GOETHALS AVENUE,-73.805923,40.718027
1535,28Q686,Q686,Queens Metropolitan High School,91-30 METROPOLITAN AVENUE,-73.855543,40.708431
1536,28Q687,Q687,Queens High School for the Sciences at York Colleg,94-50 159 STREET,-73.798364,40.700884
1537,28Q690,Q690,High School for Law Enforcement and Public Safety,116-25 GUY R BREWER BOULEVARD,-73.783438,40.685838
1538,84Q704,Q704,Merrick Academy - Queens Public Charter School,136-25 218 STREET,-73.753009,40.676318
1539,84Q705,Q705,Renaissance Charter School,35-59 81ST STREET,-73.884817,40.749934
1540,84Q706,Q706,Our World Neighborhood Charter School,36-12 35 AVENUE,-73.924175,40.755714
1541,75Q721,Q721,John F. Kennedy Jr. School,57-12 94 STREET,-73.867882,40.735613
1542,24Q744,Q744,VOYAGES Preparatory,45-10 94TH STREET,-73.871505,40.743228
1543,75Q752,Q752,Queens Transition Center,142-10 LINDEN BOULEVARD,-73.800875,40.683473
1544,25Q792,Q792,North Queens Community High School,141-25 77TH ROAD,-73.819664,40.720586
1545,75Q811,Q811,P.S. Q811,61-25 MARATHON PARKWAY,-73.728412,40.756481
1546,24Q877,Q877,The 51 Avenue Academy (The Path To Academic Excell,76-05 51 AVENUE,-73.887011,40.737222
1547,28Q896,Q896,"Young Women's Leadership School, Queens",150-91 87 ROAD,-73.804166,40.708409
1548,75Q993,Q993,P.S. Q993,85-15 258 STREET,-73.708617,40.734266
1549,31R001,R001,P.S. 001 Tottenville,58 SUMMIT STREET,-74.24395,40.508638
1550,31R002,R002,I.S. R002 George L. Egbert,333 MIDLAND AVENUE,-74.099685,40.576728
1551,31R003,R003,P.S. 003 The Margaret Gioiosa School,80 SOUTH GOFF AVENUE,-74.21185,40.520812
1552,31R004,R004,P.S. 004 Maurice Wollin,200 NEDRA LANE,-74.195281,40.552059
1553,31R005,R005,P.S. 005 Huguenot,348 DEISIUS STREET,-74.187276,40.529389
1554,31R006,R006,P.S. 6 Corporal Allan F. Kivlehan School,555 PAGE AVENUE,-74.230118,40.510207
1555,31R007,R007,I.S. 007 Elias Bernstein,1270 HUGUENOT AVENUE,-74.186096,40.522971
1556,31R008,R008,P.S. 8 Shirlee Solomon,112 LINDENWOOD ROAD,-74.152212,40.547567
1557,31R009,R009,Naples Street Elementary School,1055 TARGEE STREET,-74.090245,40.60265
1558,31R010,R010,Fort Hill Collaborative Elementary School,80 MONROE AVENUE,-74.079594,40.639638
1559,31R011,R011,P.S. 11 Thomas Dongan School,51 JEFFERSON STREET,-74.098252,40.590887
1560,84R012,R012,New Ventures Charter School,1 TELEPORT DRIVE,-74.178183,40.607104
1561,31R013,R013,P.S. 013 M. L. Lindemeyer,191 VERMONT AVENUE,-74.068963,40.613322
1562,31R014,R014,P.S. 014 Cornelius Vanderbilt,100 TOMPKINS AVENUE,-74.079228,40.622415
1563,31R016,R016,P.S. 016 John J. Driscoll,80 MONROE AVENUE,-74.079594,40.639638
1564,31R018,R018,P.S. 018 John G. Whittier,221 BROADWAY,-74.116817,40.636521
1565,31R019,R019,P.S. 019 The Curtis School,780 POST AVENUE,-74.126851,40.630563
1566,31R020,R020,P.S. 020 Port Richmond,161 PARK AVENUE,-74.132382,40.636729
1567,31R021,R021,P.S. 21 Margaret Emery-Elm Park,168 HOOKER PLACE,-74.144599,40.631165
1568,31R022,R022,P.S. 022 Graniteville,1860 FOREST AVENUE,-74.150544,40.624847
1569,31R023,R023,P.S. 023 Richmondtown,30 NATICK STREET,-74.133216,40.570765
1570,31R024,R024,I.S. 024 Myra S. Barnes,750 DURANT AVENUE,-74.145558,40.54549
1571,75R025,R025,South Richmond High School I.S./P.S. 25,6581 HYLAN BOULEVARD,-74.218688,40.512019
1572,31R026,R026,P.S. 026 The Carteret School,4108 VICTORY BOULEVARD,-74.190093,40.591546
1573,31R027,R027,I.S. 027 Anning S. Prall,11 CLOVE LAKE PLACE,-74.117818,40.628291
1574,31R028,R028,The Eagle Academy for Young Men of Staten Island,101 WARREN STREET,-74.080695,40.620443
1575,31R029,R029,P.S. 029 Bardwell,1581 VICTORY BOULEVARD,-74.116197,40.614039
1576,31R030,R030,P.S. 030 Westerleigh,200 WARDWELL AVENUE,-74.13308,40.618097
1577,31R031,R031,P.S. 031 William T. Davis,55 LAYTON AVENUE,-74.08542,40.64209
1578,31R032,R032,P.S. 032 The Gifford School,232 BARLOW AVENUE,-74.1554,40.5579
1579,31R034,R034,I.S. 034 Tottenville,528 ACADEMY AVENUE,-74.2434,40.5083
1580,31R035,R035,P.S. 35 The Clove Valley School,60 FOOTE AVENUE,-74.098994,40.613548
1581,31R036,R036,P.S. 036 J. C. Drumgoole,255 IONIA AVENUE,-74.182548,40.543433
1582,75R037,R037,The David Marquis School of the Arts,15 FAIRFIELD STREET,-74.151368,40.5641
1583,31R038,R038,P.S. 038 George Cromwell,421 LINCOLN AVENUE,-74.099409,40.574799
1584,31R039,R039,P.S. 39 Francis J. Murphy Jr.,71 SAND LANE,-74.07061,40.597824
1585,31R041,R041,The Stephanie A. Vierno School,216 CLAWSON STREET,-74.108492,40.573599
1586,31R042,R042,P.S. 042 Eltingville,380 GENESEE AVENUE,-74.169038,40.552213
1587,31R044,R044,P.S. 044 Thomas C. Brown,80 MAPLE PARKWAY,-74.157303,40.631689
1588,31R045,R045,P.S. 045 John Tyler,58 LAWRENCE AVENUE,-74.107537,40.628419
1589,31R046,R046,P.S. 046 Albert V. Maniscalco,41 REID AVENUE,-74.080829,40.594455
1590,31R047,R047,CSI High School for International Studies,100 ESSEX DRIVE,-74.159343,40.581958
1591,31R048,R048,P.S. 048 William G. Wilcox,1050 Targee Street,-74.091239,40.603492
1592,31R049,R049,I.S. 49 Berta A. Dreyfus,101 WARREN STREET,-74.080695,40.620443
1593,31R050,R050,P.S. 050 Frank Hankinson,200 ADELAIDE AVENUE,-74.124332,40.560954
1594,31R051,R051,I.S. 051 Edwin Markham,80 WILLOWBROOK ROAD,-74.145522,40.623077
1595,31R052,R052,P.S. 052 John C. Thompson,450 BUEL AVENUE,-74.089012,40.58255
1596,31R053,R053,The Barbara Esselborn School,330 DURANT AVENUE,-74.13664,40.551926
1597,31R054,R054,P.S. 054 Charles W. Leng,1060 WILLOWBROOK ROAD,-74.137259,40.602779
1598,31R055,R055,P.S. 055 Henry M. Boehm,54 OSBORNE STREET,-74.163037,40.536625
1599,31R056,R056,P.S. 56 The Louis Desario School,250 KRAMER AVENUE,-74.213943,40.541856
1600,31R057,R057,P.S. 057 Hubert H. Humphrey,140 PALMA DRIVE,-74.083799,40.611136
1601,31R058,R058,Space Shuttle Columbia School,77 MARSH AVENUE,-74.160867,40.582791
1602,31R059,R059,The Harbor View School,300 Richmond Terrace,-74.083408,40.647898
1603,31R060,R060,P.S. 060 Alice Austen,55 MERRILL AVENUE,-74.162634,40.610604
1604,31R061,R061,I.S. 061 William A Morris,445 CASTLETON AVENUE,-74.097941,40.634497
1605,31R062,R062,The Kathleen Grimm School for Leadership and Susta,644 Bloomingdale Road,-74.217934,40.541563
1606,31R063,R063,Marsh Avenue School for Expeditionary Learning,100 ESSEX DRIVE,-74.159343,40.581958
1607,31R064,R064,Gaynor McCown Expeditionary Learning School,100 ESSEX DRIVE,-74.159343,40.581958
1608,31R065,R065,P.S. 65 The Academy of Innovative Learning,98 GRANT STREET,-74.078337,40.633666
1609,84R067,R067,John W. Lavelle Preparatory Charter School,1 TELEPORT DRIVE,-74.178183,40.607104
1610,31R068,R068,Port Richmond School for Visionary Learning,1625 FOREST AVENUE,-74.142526,40.624781
1611,31R069,R069,P.S. 069 Daniel D. Tompkins,144 KEATING PLACE,-74.157327,40.59148
1612,84R070,R070,Lois and Richard Nicotra Early College Charter Sch,300 GENESEE AVENUE,-74.166566,40.552293
1613,84R071,R071,Staten Island Community Charter School,309 ST PAUL'S AVENUE,-74.081031,40.630261
1614,31R072,R072,I.S. 072 Rocco Laurie,33 FERNDALE AVENUE,-74.158618,40.592132
1615,84R073,R073,New World Preparatory Charter School,26 SHARPE AVENUE,-74.137166,40.639677
1616,31R074,R074,P.S. 74 Future Leaders Elementary School,211 DANIEL LOW TERRACE,-74.079438,40.638993
1617,31R075,R075,I.S. 075 Frank D. Paulo,455 HUGUENOT AVENUE,-74.197033,40.544535
1618,84R076,R076,Bridge Preparatory Charter School,715 OCEAN TERRACE,-74.105883,40.607637
1619,84R077,R077,Hellenic Classical Charter School - Staten Island,1641 Richmond Avenue,-74.161318,40.608079
1620,31R078,R078,P.S. 78,100 TOMPKINS AVENUE,-74.079228,40.622415
1621,31R080,R080,The Michael J. Petrides School,715 OCEAN TERRACE,-74.105883,40.607637
1622,75R373,R373,P.S. R373,91 HENDERSON AVENUE,-74.095454,40.64118
1623,31R440,R440,New Dorp High School,465 NEW DORP LANE,-74.105878,40.570909
1624,31R445,R445,Port Richmond High School,85 ST JOSEPHS AVENUE,-74.141924,40.635562
1625,31R450,R450,Curtis High School,105 HAMILTON AVENUE,-74.082149,40.645436
1626,31R455,R455,Tottenville High School,100 LUTEN AVENUE,-74.193431,40.528152
1627,31R460,R460,Susan E. Wagner High School,1200 MANOR ROAD,-74.130819,40.588985
1628,31R470,R470,Concord High School,109 RHINE AVENUE,-74.087072,40.61062
1629,31R600,R600,Ralph R. McKee Career and Technical Education High,290 ST MARKS PLACE,-74.079263,40.64282
1630,31R605,R605,Staten Island Technical High School,485 CLAWSON STREET,-74.117086,40.568299
1631,75R721,R721,The Richard H. Hungerford School,155 TOMPKINS AVENUE,-74.077054,40.620835
1632,31R861,R861,Staten Island School of Civic Leadership,280 REGIS DRIVE,-74.164427,40.62031
1633,07X001,X001,P.S. 001 Courtlandt School,335 EAST 152 STREET,-73.919634,40.819331
1634,09X002,X002,P.S. 002 Morrisania,1260 FRANKLIN AVENUE,-73.901859,40.83093
1635,10X003,X003,P.S. 3 Raul Julia Micro Society,2100 LAFONTAINE AVENUE,-73.89163,40.850131
1636,09X004,X004,P.S./M.S. 004 Crotona Park West,1701 FULTON AVENUE,-73.897943,40.841758
1637,07X005,X005,P.S. 5 Port Morris,564 JACKSON AVENUE,-73.908358,40.813896
1638,12X006,X006,P.S. 006 West Farms,1000 EAST TREMONT AVENUE,-73.882531,40.840445
1639,10X007,X007,Milton Fein School,3201 KINGSBRIDGE AVENUE,-73.905697,40.881562
1640,10X008,X008,P.S. 008 Isaac Varian,3010 BRIGGS AVENUE,-73.883339,40.872259
1641,10X009,X009,P.S. 9 Ryer Avenue Elementary School,230 EAST 183 STREET,-73.898821,40.85644
1642,75X010,X010,P.S. X010,2750 LAFAYETTE AVENUE,-73.829211,40.82708
1643,09X011,X011,P.S. 011 Highbridge,1257 OGDEN AVENUE,-73.92589,40.839693
1644,75X012,X012,P.S. X012 Lewis and Clark School,2555 TRATMAN AVENUE,-73.844685,40.840625
1645,08X014,X014,P.S. X014 Senator John Calandra,3047 BRUCKNER BOULEVARD,-73.826277,40.835318
1646,10X015,X015,P.S. X015 Institute for Environmental Learning,2195 ANDREWS AVENUE,-73.909763,40.859243
1647,11X016,X016,P.S. 016 Wakefield,4550 CARPENTER AVENUE,-73.854231,40.902311
1648,75X017,X017,P.S. X017,778 FOREST AVENUE,-73.905389,40.818703
1649,07X018,X018,P.S. 018 John Peter Zenger,502 MORRIS AVENUE,-73.922697,40.816369
1650,11X019,X019,P.S. 019 Judith K. Weiss,4318 KATONAH AVENUE,-73.866949,40.899351
1651,10X020,X020,"PS/MS 20 P.O.George J. Werdann, III",3050 WEBSTER AVENUE,-73.878731,40.869482
1652,11X021,X021,P.S. 021 Philip H. Sheridan,715 EAST 225 STREET,-73.85942,40.887888
1653,09X022,X022,J.H.S. 022 Jordan L. Mott,270 EAST 167 STREET,-73.91435,40.832022
1654,10X023,X023,P.S. 023 The New Children's School,2151 WASHINGTON AVENUE,-73.894951,40.853294
1655,10X024,X024,P.S. 024 Spuyten Duyvil,660 WEST 236 STREET,-73.915114,40.886922
1656,07X025,X025,P.S. 025 Bilingual School,811 EAST 149 STREET,-73.905751,40.812895
1657,09X028,X028,P.S. 028 Mount Hope,1861 ANTHONY AVENUE,-73.903821,40.848344
1658,07X029,X029,P.S./M.S. 029 Melrose School,758 COURTLANDT AVENUE,-73.916419,40.821544
1659,07X030,X030,P.S. 030 Wilton,510 EAST 141 STREET,-73.917417,40.809023
1660,07X031,X031,P.S./M.S. 031 The William Lloyd Garrison,250 EAST 156 STREET,-73.92114,40.822574
1661,10X032,X032,P.S. 032 Belmont,690 EAST 183 STREET,-73.88622,40.851724
1662,10X033,X033,P.S. 033 Timothy Dwight,2424 JEROME AVENUE,-73.901268,40.861698
1663,09X035,X035,P.S. 035 Franz Siegel,261 EAST 163 STREET,-73.917705,40.828009
1664,08X036,X036,P.S. 036 Unionport,1070 CASTLE HILL AVENUE,-73.849791,40.82948
1665,10X037,X037,P.S. X037 - Multiple Intelligence School,360 WEST 230 STREET,-73.913694,40.877935
1666,08X039,X039,PS 39,965 LONGWOOD AVENUE,-73.8982,40.8175
1667,11X041,X041,P.S. 041 Gun Hill Road,3352 OLINVILLE AVENUE,-73.867834,40.874754
1668,09X042,X042,P.S. 042 Claremont,1537 WASHINGTON AVENUE,-73.903243,40.838636
1669,07X043,X043,P.S. 043 Jonas Bronck,165 BROWN PLACE,-73.921593,40.806452
1670,12X044,X044,P.S. 044 David C. Farragut,1825 PROSPECT AVENUE,-73.891086,40.842564
1671,10X045,X045,Thomas C. Giordano Middle School 45,2502 LORILLARD PLACE,-73.887026,40.858389
1672,10X046,X046,P.S. 046 Edgar Allan Poe,279 EAST 196 STREET,-73.890402,40.867169
1673,12X047,X047,P.S. 047 John Randolph,1794 EAST 172 STREET,-73.866974,40.832529
1674,08X048,X048,P.S. 048 Joseph R. Drake,1290 SPOFFORD AVENUE,-73.886834,40.814034
1675,07X049,X049,P.S. 049 Willis Avenue,383 EAST 139 STREET,-73.92273,40.810413
1676,12X050,X050,P.S. 050 Clara Barton,1550 VYSE AVENUE,-73.886995,40.834188
1677,10X051,X051,The Bronx STEM and Arts Academy,695 EAST 182ND STREET,-73.886997,40.850674
1678,09X053,X053,P.S. 053 Basheer Quisim,360 EAST 168 STREET,-73.911906,40.832648
1679,10X054,X054,P.S./I.S. 54,2703 WEBSTER AVENUE,-73.88794,40.864872
1680,09X055,X055,P.S. 055 Benjamin Franklin,450 SAINT PAUL'S PLACE,-73.90497,40.835934
1681,10X056,X056,P.S. 056 Norwood Heights,341 EAST 207 STREET,-73.874912,40.875481
1682,12X057,X057,P.S. 057 Crescent,2111 CROTONA AVENUE,-73.888987,40.848748
1683,09X058,X058,P.S. 058,459 EAST 176 STREET,-73.898826,40.846383
1684,10X059,X059,P.S. 059 The Community School of Technology,2185 BATHGATE AVENUE,-73.893639,40.853141
1685,08X060,X060,PS 060 George L Gallego,888 REV J A POLITE AVE,0,0
1686,12X061,X061,P.S. 061 Francisco Oller,1550 CROTONA PARK EAST,-73.892784,40.836156
1687,08X062,X062,P.S. 062 Inocensio Casanova,660 FOX STREET,-73.900161,40.813736
1688,09X063,X063,P.S. 063 Author's Academy,1260 FRANKLIN AVENUE,-73.901859,40.83093
1689,09X064,X064,P.S. 064 Pura Belpre,1425 WALTON AVENUE,-73.915879,40.8404
1690,07X065,X065,P.S. 065 Mother Hale Academy,677 EAST 141 STREET,-73.912557,40.807916
1691,12X066,X066,P.S. 066 School of Higher Expectations,1001 JENNINGS STREET,-73.88654,40.831493
1692,12X067,X067,P.S. 067 Mohegan School,2024 MOHEGAN AVENUE,-73.884192,40.843781
1693,11X068,X068,P.S. 068 Bronx,4011 MONTICELLO AVENUE,-73.83888,40.891603
1694,08X069,X069,P.S. 069 Journey Prep School,560 THIERIOT AVENUE,-73.86046,40.8167
1695,09X070,X070,P.S. 070 Max Schoenfeld,1691 WEEKS AVENUE,-73.90807,40.844236
1696,08X071,X071,P.S. 071 Rose E. Scala,3040 ROBERTS AVENUE,-73.829562,40.845379
1697,08X072,X072,P.S. 072 Dr. William Dorney,2951 DEWEY AVENUE,-73.818172,40.823237
1698,09X073,X073,P.S. 073 Bronx,1020 ANDERSON AVENUE,-73.926415,40.832609
1699,08X075,X075,P.S. 75 School of Research and Discovery,984 FAILE STREET,-73.888948,40.822314
1700,11X076,X076,P.S. 076 The Bennington School,900 ADEE AVENUE,-73.860928,40.869059
1701,10X077,X077,Bedford Park Elementary School,3177 WEBSTER AVENUE,-73.875375,40.872559
1702,11X078,X078,P.S. 078 Anne Hutchinson,1400 NEEDHAM AVENUE,-73.850563,40.878474
1703,10X079,X079,P.S. 079 Creston,125 EAST 181 STREET,-73.903139,40.855337
1704,10X080,X080,J.H.S. 080 The Mosholu Parkway,149 EAST MOSHOLU PKWY N,-73.881245,40.876819
1705,10X080,X080,J.H.S. 080 The Mosholu Parkway,149 EAST MOSHOLU PKWY N,-73.881245,40.876819
1706,10X081,X081,P.S. 081 Robert J. Christen,5550 RIVERDALE AVENUE,-73.904657,40.903275
1707,11X083,X083,P.S. 083 Donald Hertz,950 RHINELANDER AVENUE,-73.858769,40.849176
1708,10X085,X085,P.S. 085 Great Expectations,2400 MARION AVENUE,-73.894682,40.858689
1709,10X086,X086,P.S. 086 Kingsbridge Heights,2756 RESERVOIR AVENUE,-73.897066,40.869061
1710,11X087,X087,P.S. 087 Bronx,1935 BUSSING AVENUE,-73.846198,40.895741
1711,09X088,X088,P.S. X088 - S. Silverstein Little Sparrow School,1340 SHERIDAN AVENUE,-73.913523,40.837019
1712,11X089,X089,P.S. 089 Bronx,980 MACE AVENUE,-73.859254,40.862481
1713,09X090,X090,P.S. 090 George Meany,1116 SHERIDAN AVENUE,-73.917526,40.831873
1714,10X091,X091,P.S. 091 Bronx,2200 AQUEDUCT AVENUE,-73.907494,40.858286
1715,10X091,X091,P.S. 091 Bronx,2200 AQUEDUCT AVENUE,-73.907494,40.858286
1716,12X092,X092,P.S. 092 Bronx,700 EAST 179 STREET,-73.889602,40.846205
1717,08X093,X093,P.S. 093 Albert G. Oliver,1535 STORY AVENUE,-73.877274,40.822522
1718,10X094,X094,P.S. 094 Kings College School,3530 KINGS COLLEGE PLACE,-73.875268,40.880661
1719,10X095,X095,P.S. 095 Sheila Mencher,3961 HILLMAN AVENUE,-73.891664,40.883049
1720,11X096,X096,P.S. 096 Richard Rodgers,2385 OLINVILLE AVENUE,-73.868986,40.86073
1721,11X096,X096,P.S. 096 Richard Rodgers,2385 OLINVILLE AVENUE,-73.868986,40.86073
1722,11X097,X097,P.S. 097 Bronx,1375 MACE AVENUE,-73.846768,40.863524
1723,12X098,X098,J.H.S. 098 Herman Ridder,1619 BOSTON ROAD,-73.890591,40.836245
1724,08X100,X100,P.S. 100 Isaac Clason,800 TAYLOR AVENUE,-73.86276,40.822552
1725,08X101,X101,M.S. X101 Edward R. Byrne,2750 LAFAYETTE AVENUE,-73.829211,40.82708
1726,12X102,X102,P.S. 102 Joseph O. Loretan,1827 ARCHER STREET,-73.866038,40.838151
1727,11X103,X103,P.S. 103 Hector Fontanez,4125 CARPENTER AVENUE,-73.86194,40.892198
1728,11X105,X105,P.S. 105 Sen Abraham Bernstein,725 BRADY AVENUE,-73.866264,40.853075
1729,11X106,X106,P.S. 106 Parkchester,1514 OLMSTEAD AVENUE,-73.854823,40.836974
1730,08X107,X107,P.S. 107,1695 SEWARD AVENUE,-73.868735,40.819221
1731,11X108,X108,P.S. 108 Philip J. Abinanti,1166 NEILL AVENUE,-73.8532,40.8547
1732,09X109,X109,P.S. 109 Sedgwick,1771 POPHAM AVENUE,-73.918991,40.851661
1733,09X110,X110,P.S. 110 Theodore Schoenfeld,580 CROTONA PARK SOUTH,-73.900654,40.83447
1734,11X111,X111,P.S. 111 Seton Falls,3740 BAYCHESTER AVENUE,-73.839288,40.884371
1735,11X112,X112,P.S. 112 Bronxwood,1925 SCHIEFFELIN AVENUE,-73.843977,40.88494
1736,11X113,X113,JHS 113 Richard R. Green,3710 BARNES AVENUE,-73.8609,40.8809
1737,09X114,X114,P.S. X114 - Luis Llorens Torres Schools,1155 CROMWELL AVENUE,-73.923297,40.834979
1738,09X117,X117,I.S. 117 Joseph H. Wade,1865 MORRIS AVENUE,-73.909022,40.848552
1739,10X118,X118,J.H.S. 118 William W. Niles,577 EAST 179 STREET,-73.892482,40.848702
1740,08X119,X119,The Dr. Emmett W. Bassett School,1075 PUGSLEY AVENUE,-73.857392,40.828474
1741,11X121,X121,P.S. 121 Throop,2750 THROOP AVENUE,-73.85051,40.866474
1742,11X121,X121,P.S. 121 Throop,2750 THROOP AVENUE,-73.85051,40.866474
1743,08X123,X123,J.H.S. 123 James M. Kieran,1025 MORRISON AVENUE,-73.874162,40.824989
1744,84X124,X124,Children's Aid College Prep Charter School,1919 PROSPECT AVENUE,-73.890145,40.843705
1745,08X125,X125,J.H.S. 125 Henry Hudson,1111 PUGSLEY AVENUE,-73.857882,40.829153
1746,09X126,X126,P.S. 126 Dr Marjorie H Dunbar,175 WEST 166 STREET,-73.9282,40.835866
1747,11X127,X127,J.H.S. 127 The Castle Hill,1560 PURDY STREET,-73.853203,40.838759
1748,09X128,X128,Mott Hall III,580 CROTONA PARK SOUTH,-73.900654,40.83447
1749,12X129,X129,M.S. 129 Academy for Independent Learning and Lead,2055 MAPES AVENUE,-73.886721,40.846128
1750,08X130,X130,P.S. 130 Abram Stevens Hewitt,750 PROSPECT AVENUE,-73.901709,40.817742
1751,08X131,X131,J.H.S. 131 Albert Einstein,885 BOLTON AVENUE,-73.859998,40.822925
1752,09X132,X132,P.S. 132 Garret A. Morgan,1245 WASHINGTON AVENUE,-73.907133,40.832175
1753,84X133,X133,Icahn Charter School 6,1701 FULTON AVENUE,-73.897943,40.841758
1754,12X134,X134,P.S. 134 George F. Bristow,1330 BRISTOW STREET,-73.894241,40.831613
1755,11X135,X135,J.H.S. 135 Frank D. Whalen,2441 WALLACE AVENUE,-73.8646,40.8621
1756,08X138,X138,P.S. 138 Samuel Randall,2060 LAFAYETTE AVENUE,-73.853157,40.822288
1757,08X140,X140,P.S. X140 The Eagle School,916 EAGLE AVENUE,-73.907489,40.823318
1758,10X141,X141,Riverdale / Kingsbridge Academy (Middle School / H,660 WEST 237 STREET,-73.914141,40.887407
1759,11X142,X142,MS 142 John Philip Sousa,3750 BAYCHESTER AVENUE,-73.839682,40.886002
1760,10X143,X143,JHS 143 John Peter Tetard,120 WEST 231 STREET,-73.9011,40.8759
1761,11X144,X144,J.H.S. 144 Michelangelo,2545 GUNTHER AVENUE,-73.836525,40.863842
1762,09X145,X145,J.H.S. 145 Arturo Toscanini,1000 TELLER AVENUE,-73.914067,40.827438
1763,08X146,X146,P.S. 146 Edward Collins,968 CAULDWELL AVENUE,-73.905734,40.824717
1764,07X149,X149,JHS 149 Elijah Clark,360 EAST 145 STREET,-73.9208,40.814
1765,12X150,X150,P.S. 150 Charles James Fox,920 EAST 167 STREET,-73.894349,40.82471
1766,07X151,X151,J.H.S. 151 Lou Gehrig,250 EAST 156 STREET,-73.92114,40.822574
1767,08X152,X152,P.S. 152 Evergreen,1007 EVERGREEN AVENUE,-73.880479,40.823941
1768,11X153,X153,P.S. 153 Helen Keller,650 BAYCHESTER AVENUE,-73.831669,40.874035
1769,07X154,X154,P.S. 154 Jonathan D. Hyatt,333 EAST 135 STREET,-73.925459,40.808194
1770,07X156,X156,P.S. 156 Benjamin Banneker,750 CONCOURSE VILLAGE W,-73.9204,40.8222
1771,07X157,X157,P.S. 157 Grove Hill,757 CAULDWELL AVENUE,-73.908965,40.819419
1772,12X158,X158,I S 158 Theodore Gathings,800 HOME STREET,-73.9001,40.8277
1773,10X159,X159,P.S. 159 Luis Munoz Marin Biling,2315 WASHINGTON AVENUE,-73.893136,40.85568
1774,11X160,X160,P.S. 160 Walt Disney,4140 HUTCHINSON RIVER PKWAY EA,-73.823816,40.864073
1775,07X161,X161,P.S. 161 Juan Ponce De Leon School,628 TINTON AVENUE,-73.905233,40.814168
1776,07X162,X162,J.H.S. 162 Lola Rodriguez De Tio,600 SAINT ANN'S AVENUE,-73.912038,40.814857
1777,09X163,X163,P.S. 163 Arthur A. Schomburg,2075 WEBSTER AVENUE,-73.899005,40.8517
1778,84X165,X165,Grand Concourse Charter School,625 BOLTON AVENUE,-73.858773,40.818442
1779,09X166,X166,J.H.S. 166 Roberto Clemente,250 EAST 164 STREET,-73.917705,40.828009
1780,75X168,X168,P.S. 168,3050 WEBSTER AVENUE,-73.878731,40.869482
1781,11X169,X169,Baychester Academy,3500 EDSON AVENUE,-73.839386,40.881344
1782,09X170,X170,P.S. 170,1598 TOWNSEND AVENUE,-73.913253,40.844367
1783,08X174,X174,I.S. 174 Eugene T. Maleska,456 WHITE PLAINS ROAD,-73.8566,40.8147
1784,11X175,X175,P.S. 175 City Island,200 CITY ISLAND AVENUE,-73.78354,40.844353
1785,75X176,X176,P.S. X176,750 BAYCHESTER AVENUE,-73.831669,40.874035
1786,84X177,X177,Mott Hall Charter School,1260 FRANKLIN AVENUE,-73.901859,40.83093
1787,11X178,X178,P.S. 178 - Dr. Selman Waksman,850 BAYCHESTER AVENUE,-73.831669,40.874035
1788,07X179,X179,P.S. 179,468 EAST 140 STREET,-73.919773,40.80908
1789,11X180,X180,M.S. 180 Dr. Daniel Hale Williams,700 BAYCHESTER AVENUE,-73.831669,40.874035
1790,11X181,X181,I.S. 181 Pablo Casals,800 BAYCHESTER AVENUE,-73.831669,40.874035
1791,08X182,X182,P.S. 182,601 STICKBALL BOULEVARD,-73.856976,40.818925
1792,08X182,X182,P.S. 182,601 STICKBALL BOULEVARD,-73.856976,40.818925
1793,07X184,X184,I S 184 Rafael C Y Molina,778 FOREST AVENUE,-73.9059,40.8189
1794,84X185,X185,Bronx Lighthouse Charter School,1001 INTERVALE AVENUE,-73.897394,40.823228
1795,75X186,X186,P186X Walter J. Damrosch School,750 JENNINGS STREET,-73.897797,40.831388
1796,75X188,X188,P.S. X188,770 GROTE STREET,-73.883877,40.850168
1797,75X188,X188,P.S. X188,770 GROTE STREET,-73.883877,40.850168
1798,11X189,X189,Cornerstone Academy for Social Action,3441 STEENWICK AVENUE,-73.830616,40.882778
1799,12X190,X190,E.S.M.T- I.S. 190,1550 CROTONA PARK EAST,-73.892784,40.836156
1800,12X191,X191,IS 191,2055 MAPES AVENUE,-73.8862,40.8458
1801,08X192,X192,I.S. 192 Piagentini-Jones,650 HOLLYWOOD AVENUE,-73.8184,40.8265
1802,11X194,X194,P.S./M.S. 194,2365 WATERBURY AVENUE,-73.846594,40.83541
1803,12X195,X195,P.S. 195,1250 WARD AVENUE,-73.877305,40.830811
1804,12X196,X196,P.S. 196,1250 WARD AVENUE,-73.877305,40.830811
1805,12X197,X197,P.S. 197,1250 WARD AVENUE,-73.877305,40.830811
1806,12X198,X198,P.S. 198,1180 TINTON AVENUE,-73.900121,40.828406
1807,09X199,X199,P.S. 199X - The Shakespeare School,1449 SHAKESPEARE AVENUE,-73.920826,40.843453
1808,84X200,X200,New Visions A.I.M. Charter High School II,1010 REV. J. A. POLITE AVENUE,-73.898265,40.823124
1809,08X201,X201,M.S. X201,730 BRYANT AVENUE,-73.8858,40.8155
1810,84X202,X202,New Visions Charter High School for Advanced Math,900 TINTON AVENUE,-73.902892,40.821723
1811,07X203,X203,M.S. 203,339 MORRIS AVENUE,-73.925995,40.813681
1812,09X204,X204,P.S. 204 Morris Heights,1780 DR. MARTIN LUTHER KING JR. BLVD,-73.915217,40.849416
1813,10X205,X205,P.S. 205 Fiorello LaGuardia,2475 SOUTHERN BOULEVARD,-73.881753,40.855759
1814,10X206,X206,I.S. 206 Ann Mersereau,2280 AQUEDUCT AVENUE,-73.906285,40.859534
1815,10X207,X207,P.S. 207,3030 GODWIN TERRACE,-73.906197,40.878327
1816,84X208,X208,New Visions Charter High School for the Humanities,455 SOUTHERN BLVD,-73.907528,40.810671
1817,10X209,X209,P.S. 209,313 EAST 183RD STREET,-73.897635,40.856834
1818,12X211,X211,P.S. 211,1919 PROSPECT AVENUE,-73.890145,40.843705
1819,12X212,X212,P.S. 212,1180 TINTON AVENUE,-73.900121,40.828406
1820,10X213,X213,Bronx Engineering and Technology Academy,99 TERRACE VIEW AVENUE,-73.912686,40.877379
1821,12X214,X214,P.S. 214,1970 WEST FARMS ROAD,-73.879931,40.839297
1822,09X215,X215,Kappa,3630 THIRD AVENUE,-73.903951,40.833493
1823,12X216,X216,Business School for Entrepreneurial Studies,977 FOX STREET,-73.894368,40.822056
1824,12X217,X217,School of Performing Arts,977 FOX STREET,-73.894368,40.822056
1825,09X218,X218,P.S./I.S. 218 Rafael Hernandez Dual Language Magne,1220 GERARD AVENUE,-73.919571,40.835681
1826,09X219,X219,I.S. 219 New Venture School,3630 THIRD AVENUE,-73.903951,40.833493
1827,07X220,X220,P.S. 220 Mott Haven Village School,468 EAST 140 STREET,-73.9199,40.8095
1828,07X221,X221,South Bronx Preparatory: A College Board School,360 EAST 145 STREET,-73.920851,40.813612
1829,07X222,X222,IS 222,345 BROOK AVENUE,-73.9178,40.81
1830,07X223,X223,The Laboratory School of Finance and Technology: X,360 EAST 145 STREET,-73.920851,40.813612
1831,07X224,X224,P.S./I.S. 224,345 BROOK AVENUE,-73.918774,40.810314
1832,10X225,X225,Theatre Arts Production Company School,2225 WEBSTER AVENUE,-73.897404,40.854257
1833,10X226,X226,P.S. 226,1950 SEDGWICK AVENUE,-73.916076,40.855822
1834,09X227,X227,Bronx Collegiate Academy,240 EAST 172 STREET,-73.911366,40.839307
1835,10X228,X228,Jonas Bronck Academy,400 EAST FORDHAM ROAD,-73.891562,40.860987
1836,09X229,X229,I.S. 229 Roland Patterson,275 HARLEM RIVER PARK BRIDGE,-73.9216,40.8524
1837,09X230,X230,P.S. 230 Dr Roland N. Patterson,275 HARLEM RIVER PARK BRIDGE,-73.9216,40.8524
1838,09X231,X231,Eagle Academy for Young Men,4143 THIRD AVENUE,-73.897479,40.845366
1839,09X232,X232,I.S. 232,1700 MACOMBS ROAD,-73.915217,40.849416
1840,84X233,X233,Family Life Academy Charter School II,296 EAST 140 STREET,-73.925416,40.811562
1841,12X234,X234,PS 234 Twin Parks,2050 PROSPECT AVENUE,-73.8874,40.8462
1842,09X236,X236,P.S. 236 Langston Hughes,1871 WALTON AVENUE,-73.909936,40.848907
1843,10X237,X237,"The Marie Curie School for Medicine, Nursing, and",120 WEST 231 STREET,-73.901565,40.875636
1844,09X239,X239,Urban Assembly Academy for History and Citizenship,240 EAST 172 STREET,-73.911366,40.839307
1845,09X241,X241,Urban Assembly School for Applied Math and Science,1595 BATHGATE AVENUE,-73.901774,40.839508
1846,12X242,X242,Mott Hall V,1551 EAST 172ND STREET,-73.878191,40.832508
1847,10X243,X243,West Bronx Academy for the Future,500 EAST FORDHAM ROAD,-73.888625,40.859466
1848,10X244,X244,The New School for Leadership and Journalism,120 WEST 231 STREET,-73.901565,40.875636
1849,12X245,X245,New Day Academy,800 HOME STREET,-73.900593,40.826933
1850,10X246,X246,P.S. 246 Poe Center,2641 GRAND CONCOURSE,-73.8953,40.865972
1851,12X248,X248,"Metropolitan High School, The",1180 REV. J.A. POLITE AVE.,-73.896925,40.827539
1852,11X249,X249,Bronx Health Sciences High School,750 BAYCHESTER AVENUE,-73.831669,40.874035
1853,09X250,X250,Eximius College Preparatory Academy: A College Boa,1363 FULTON AVENUE,-73.902794,40.833884
1854,09X250,X250,Eximius College Preparatory Academy: A College Boa,1363 FULTON AVENUE,-73.902794,40.833884
1855,12X251,X251,Explorations Academy H.S.,1619 BOSTON ROAD,-73.890591,40.836245
1856,09X252,X252,Mott Hall Bronx High School,1595 BATHGATE AVENUE,-73.901774,40.839508
1857,11X253,X253,Bronx High School for Writing and Communication Ar,800 EAST GUN HILL ROAD,-73.861649,40.875172
1858,10X254,X254,I.S. 254,2452 WASHINGTON AVENUE,-73.889878,40.858721
1859,84X255,X255,Bronx Charter School for Excellence,1960 BENEDICT AVENUE,-73.858533,40.834025
1860,84X256,X256,Heketi Community Charter School,403 Concord Avenue,-73.909595,40.8091
1861,10X257,X257,PS 257 Children's School,560 EAST 179 STREET,-73.8937,40.8486
1862,84X258,X258,Tech International Charter School,3120 Corlear Avenue,-73.907295,40.880738
1863,07X259,X259,"H.E.R.O. High (Health, Education, and Research Occ",455 SOUTHERN BLVD,-73.907528,40.810671
1864,09X260,X260,Bronx Center for Science and Mathematics,1363 FULTON AVENUE,-73.902794,40.833884
1865,09X260,X260,Bronx Center for Science and Mathematics,1363 FULTON AVENUE,-73.902794,40.833884
1866,12X262,X262,Performance Conservatory High School,1619 BOSTON ROAD,-73.890591,40.836245
1867,09X263,X263,Validus Preparatory Academy,1595 BATHGATE AVENUE,-73.901774,40.839508
1868,10X264,X264,Bronx Academy for Software Engineering (BASE),2474 CROTONA AVENUE,-73.882487,40.855392
1869,11X265,X265,Bronx Lab School,800 EAST GUN HILL ROAD,-73.861649,40.875172
1870,12X267,X267,Bronx Latin,800 HOME STREET,-73.900593,40.826933
1871,10X268,X268,Kingsbridge International High School,2780 RESERVOIR AVENUE,-73.897066,40.869061
1872,08X269,X269,Bronx Studio School for Writers and Artists,928 SIMPSON STREET,-73.892961,40.820388
1873,11X270,X270,Academy for Scholarship and Entrepreneurship: A Co,921 EAST 228TH STREET,-73.852714,40.888242
1874,12X271,X271,East Bronx Academy for the Future,1716 SOUTHERN BOULEVARD,-73.887688,40.836821
1875,11X272,X272,Globe School for Environmental Research,3710 BARNES AVENUE,-73.860126,40.880649
1876,12X273,X273,Frederick Douglass Academy V. Middle School,2111 CROTONA AVENUE,-73.888987,40.848748
1877,09X274,X274,The New American Academy at Roberto Clemente State,275 HARLEM RIVER PARK BRIDGE,-73.9216,40.8524
1878,11X275,X275,High School of Computers and Technology,800 EAST GUN HILL ROAD,-73.861649,40.875172
1879,09X276,X276,Leadership Institute,1701 FULTON AVENUE,-73.897943,40.841758
1880,07X277,X277,P.S. 277,519 ST ANNS AVENUE,-73.913872,40.813385
1881,12X278,X278,Peace and Diversity Academy,1180 REV. J.A. POLITE AVE.,-73.896925,40.827539
1882,10X279,X279,"P.S. 279 Captain Manuel Rivera, Jr.",2100 WALTON AVENUE,-73.904958,40.854666
1883,10X280,X280,P.S./M.S. 280 Mosholu Parkway,3202 STEUBEN AVENUE,-73.881245,40.876819
1884,10X280,X280,P.S./M.S. 280 Mosholu Parkway,3202 STEUBEN AVENUE,-73.881245,40.876819
1885,08X282,X282,Women's Academy of Excellence,456 WHITE PLAINS ROAD,-73.85607,40.815043
1886,10X284,X284,Bronx School of Law and Finance,99 TERRACE VIEW AVENUE,-73.912686,40.877379
1887,12X286,X286,Fannie Lou Hamer Middle School,1001 JENNINGS STREET,-73.88654,40.831493
1888,11X287,X287,North Bronx School of Empowerment,3710 BARNES AVENUE,-73.860126,40.880649
1889,11X288,X288,Collegiate Institute for Math and Science,925 ASTOR AVENUE,-73.860729,40.860443
1890,11X289,X289,The Young Scholars Academy of The Bronx,3710 BARNES AVENUE,-73.860126,40.880649
1891,11X290,X290,Bronx Academy of Health Careers,800 EAST GUN HILL ROAD,-73.861649,40.875172
1892,10X291,X291,P.S. 291,2195 ANDREWS AVENUE,-73.909763,40.859243
1893,08X293,X293,Renaissance High School for Musical Theater and th,3000 EAST TREMONT AVENUE,-73.839583,40.839775
1894,09X294,X294,The Walton Avenue School,1425 WALTON AVENUE,-73.915879,40.8404
1895,08X295,X295,Gateway School for Environmental Research and Tech,1980 LAFAYETTE AVENUE,-73.85593,40.821218
1896,07X296,X296,South Bronx Academy for Applied Media,778 FOREST AVENUE,-73.905389,40.818703
1897,09X297,X297,Morris Academy for Collaborative Studies,1110 BOSTON ROAD,-73.90392,40.827455
1898,07X298,X298,Academy of Public Relations,778 FOREST AVENUE,-73.905389,40.818703
1899,11X299,X299,Astor Collegiate Academy,925 ASTOR AVENUE,-73.860729,40.860443
1900,12X300,X300,The School of Science and Applied Learning,2050 PROSPECT AVENUE,-73.886721,40.846128
1901,08X301,X301,M.S. 301 Paul L. Dunbar,890 CAULDWELL AVENUE,-73.906739,40.822291
1902,08X302,X302,M.S. 302 Luisa Dessus Cruz,681 KELLY STREET,-73.901599,40.816078
1903,09X303,X303,I.S. X303 Leadership & Community Service,1700 MACOMBS ROAD,-73.915217,40.849416
1904,08X304,X304,P.S. 304 Early Childhood School,2750 LAFAYETTE AVENUE,-73.829211,40.82708
1905,08X305,X305,Pablo Neruda Academy,1980 LAFAYETTE AVENUE,-73.85593,40.821218
1906,10X306,X306,P.S. 306,40 WEST TREMONT AVENUE,-73.910827,40.850722
1907,10X307,X307,Luisa Pineiro Fuentes School of Science and Discov,124 EAMES PLACE,-73.901821,40.869142
1908,10X308,X308,Bronx Dance Academy School,3617 BAINBRIDGE AVENUE,-73.878051,40.885428
1909,84X309,X309,South Bronx Charter School for International Cultu,164 bruckner boulevard,-73.918037,40.803052
1910,10X310,X310,P.S. 310 Marble Hill,260 W KINGSBRIDGE RD,-73.905547,40.872477
1911,09X311,X311,Lucero Elementary School,1425 WALTON AVENUE,-73.915879,40.8404
1912,08X312,X312,Millennium Art Academy,1980 LAFAYETTE AVENUE,-73.85593,40.821218
1913,09X313,X313,I.S. 313 School of Leadership Development,1600 WEBSTER AVENUE,-73.904353,40.840536
1914,12X314,X314,Fairmont Neighborhood School,1550 VYSE AVENUE,-73.886995,40.834188
1915,10X315,X315,P.S. 315 Lab School,2865 CLAFLIN AVENUE,-73.900068,40.873659
1916,12X316,X316,Kappa III,2055 MAPES AVENUE,-73.886721,40.846128
1917,12X318,X318,"I.S. X318 Math, Science & Technology Through Arts",1919 PROSPECT AVENUE,-73.890145,40.843705
1918,10X319,X319,Providing Urban Learners Success In Education High,560 EAST 179 STREET,-73.893744,40.848385
1919,08X320,X320,Pelham Lab High School,3000 EAST TREMONT AVENUE,-73.839583,40.839775
1920,12X321,X321,Crotona Academy High School,1211 SOUTHERN BOULEVARD,-73.892243,40.829306
1921,11X322,X322,Aspire Preparatory Middle School,2441 WALLACE AVENUE,-73.865028,40.862098
1922,09X323,X323,Bronx Writing Academy,270 EAST 167 STREET,-73.91435,40.832022
1923,09X324,X324,Bronx Early College Academy for Teaching & Learnin,250 EAST 164 STREET,-73.917705,40.828009
1924,09X325,X325,Urban Science Academy,1000 TELLER AVENUE,-73.914067,40.827438
1925,11X326,X326,Bronx Green Middle School,2441 WALLACE AVENUE,-73.865028,40.862098
1926,09X327,X327,Comprehensive Model School Project M.S. 327,1501 JEROME AVENUE,-73.916084,40.842503
1927,09X328,X328,New Millennium Bronx Academy of the Arts,1000 TELLER AVENUE,-73.914067,40.827438
1928,09X329,X329,DreamYard Preparatory School,240 EAST 172 STREET,-73.911366,40.839307
1929,10X331,X331,The Bronx School of Young Leaders,40 WEST TREMONT AVENUE,-73.910827,40.850722
1930,08X332,X332,Holcombe L. Rucker School of Community Research,965 LONGWOOD AVENUE,-73.897876,40.817741
1931,08X333,X333,The Longwood Academy of Discovery,888 REV J A POLITE AVE,-73.898399,40.820108
1932,07X334,X334,International Community High School,345 BROOK AVENUE,-73.918774,40.810314
1933,08X335,X335,The Academy of the Arts,888 REV J A POLITE AVE,-73.898399,40.820108
1934,07X336,X336,Urban Assembly School for the Performing Arts,339 MORRIS AVENUE,-73.9254,40.8135
1935,08X337,X337,The School for Inquiry and Social Justice,1025 MORRISON AVENUE,-73.874162,40.824989
1936,09X339,X339,I.S. 339,1600 WEBSTER AVENUE,-73.904353,40.840536
1937,10X340,X340,P.S. 340,25 WEST 195 STREET,-73.897171,40.869407
1938,12X341,X341,Accion Academy,977 FOX STREET,-73.894368,40.822056
1939,10X342,X342,International School for Liberal Arts,2780 RESERVOIR AVENUE,-73.897066,40.869061
1940,07X343,X343,Academy of Applied Mathematics and Technology,345 BROOK AVENUE,-73.918774,40.810314
1941,10X344,X344,Ampark Neighborhood,3961 HILLMAN AVENUE,-73.891664,40.883049
1942,84X345,X345,Hyde Leadership Charter School,730 BRYANT AVENUE,-73.885284,40.815827
1943,84X346,X346,South Bronx Classical Charter School,977 FOX STREET,-73.894368,40.822056
1944,84X347,X347,International Leadership Charter High School,3030 Riverdale Avenue,-73.909955,40.880853
1945,08X348,X348,Schuylerville Preparatory High School,3000 EAST TREMONT AVENUE,-73.839583,40.839775
1946,08X349,X349,Bronx River High School,3000 EAST TREMONT AVENUE,-73.839583,40.839775
1947,09X350,X350,New Directions Secondary School,240 EAST 172 STREET,-73.911366,40.839307
1948,10X351,X351,Bronx Collaborative High School,100 WEST MOSHOLU PARKWAY SOUTH,-73.889011,40.879958
1949,75X352,X352,The Vida Bogart School for All Children,1000 EAST TREMONT AVENUE,-73.882531,40.840445
1950,10X353,X353,World View High School,100 WEST MOSHOLU PARKWAY SOUTH,-73.889011,40.879958
1951,11X355,X355,Bronx Alliance Middle School,3750 BAYCHESTER AVENUE,-73.839682,40.886002
1952,11X357,X357,Young Voices Academy of the Bronx,800 LYDIG AVENUE,-73.863733,40.854423
1953,07X359,X359,Concourse Village Elementary School,750 CONCOURSE VILLAGE WEST,-73.922527,40.823014
1954,10X360,X360,P.S. 360,2880 KINGSBRIDGE TERRACE,-73.902214,40.874717
1955,09X361,X361,The Highbridge Green School,200 West 167th Street,-73.927892,40.838232
1956,84X362,X362,Icahn Charter School 7,1535 STORY AVENUE,-73.877274,40.822522
1957,10X363,X363,Academy For Personal Leadership And Excellence,120 EAST 184 STREET,-73.90049,40.859496
1958,84X364,X364,South Bronx Classical Charter School II,333 EAST 135 STREET,-73.925459,40.808194
1959,09X365,X365,Academy for Language and Technology,1700 MACOMBS ROAD,-73.915217,40.849416
1960,08X366,X366,Urban Assembly Academy of Civic Engagement,650 HOLLYWOOD AVENUE,-73.818083,40.826794
1961,08X367,X367,"Archimedes Academy for Math, Science and Technolog",456 WHITE PLAINS ROAD,-73.85607,40.815043
1962,10X368,X368,In-Tech Academy (M.S. / High School 368),2975 TIBBETT AVENUE,-73.913694,40.877935
1963,07X369,X369,Young Leaders Elementary School,468 EAST 140 STREET,-73.919773,40.80908
1964,11X370,X370,Leaders of Tomorrow,3710 BARNES AVENUE,-73.860126,40.880649
1965,08X371,X371,Urban Institute of Mathematics,650 HOLLYWOOD AVENUE,-73.818083,40.826794
1966,12X372,X372,Urban Assembly School for Wildlife Conservation,2024 MOHEGAN AVENUE,-73.884192,40.843781
1967,10X374,X374,Knowledge and Power Preparatory Academy Internatio,500 EAST FORDHAM ROAD,-73.888625,40.859466
1968,08X375,X375,The Bronx Mathematics Preparatory School,456 WHITE PLAINS ROAD,-73.85607,40.815043
1969,08X376,X376,Antonia Pantoja Preparatory Academy: A College Boa,1980 LAFAYETTE AVENUE,-73.85593,40.821218
1970,08X377,X377,Bronx Community High School,1980 LAFAYETTE AVENUE,-73.85593,40.821218
1971,84X378,X378,Icahn Charter School 2,1640 BRONXDALE AVE,-73.857989,40.845023
1972,07X379,X379,Jill Chaifetz Transfer High School,778 FOREST AVENUE,-73.905389,40.818703
1973,84X380,X380,Success Academy Charter School - Bronx 3,1000 TELLER AVENUE,-73.914067,40.827438
1974,07X381,X381,Bronx Haven High School,333 EAST 151 STREET,-73.919949,40.818645
1975,10X382,X382,"Elementary School for Math, Science, and Technolog",125 EAST 181 STREET,-73.903139,40.855337
1976,12X383,X383,Emolior Academy,1970 WEST FARMS ROAD,-73.879931,40.839297
1977,12X384,X384,Entrada Academy,977 FOX STREET,-73.894368,40.822056
1978,07X385,X385,Performance School,750 CONCOURSE VILLAGE WEST,-73.922527,40.823014
1979,10X386,X386,School for Environmental Citizenship,125 EAST 181 STREET,-73.903139,40.855337
1980,84X387,X387,Brilla College Prep Charter School,413 EAST 144 STREET,-73.919316,40.812804
1981,12X388,X388,Pan American International High School at Monroe,1300 BOYNTON AVENUE,-73.878191,40.832508
1982,84X389,X389,Bronx Global Learning Institute for Girls Charter,750 CONCOURSE VILLAGE WEST,-73.922527,40.823014
1983,10X390,X390,M.S. 390,1930 ANDREWS AVENUE,-73.913016,40.854335
1984,10X391,X391,The Angelo Patri Middle School,2225 WEBSTER AVENUE,-73.897404,40.854257
1985,08X392,X392,Bronx Delta School,650 HOLLYWOOD AVENUE,-73.818083,40.826794
1986,84X393,X393,University Prep Charter High School,600 SAINT ANN'S AVENUE,-73.912038,40.814857
1987,84X394,X394,Mott Haven Academy Charter School,170 BROWN PLACE,-73.92115,40.806389
1988,84X395,X395,"NYC Charter High School for Architecture, Engineer",838 BROOK AVENUE,-73.910421,40.821682
1989,10X396,X396,P.S. 396,1930 ANDREWS AVENUE,-73.913016,40.854335
1990,10X397,X397,English Language Learners and International Suppor,99 TERRACE VIEW AVENUE,-73.912686,40.877379
1991,84X398,X398,Bronx Community Charter School,3170 WEBSTER AVENUE,-73.875451,40.872455
1992,10X399,X399,M.S. 399,120 EAST 184 STREET,-73.90049,40.859496
1993,12X400,X400,Morris Hs,1110 BOSTON ROAD,-73.9046,40.8275
1994,09X403,X403,Bronx International High School,1110 BOSTON ROAD,-73.90392,40.827455
1995,09X404,X404,School for Excellence,1110 BOSTON ROAD,-73.90392,40.827455
1996,08X405,X405,Herbert H. Lehman High School,3000 EAST TREMONT AVENUE,-73.839583,40.839775
1997,84X407,X407,Bronx Charter School for Children,388 WILLIS AVENUE,-73.919913,40.81264
1998,10X410,X410,William Howard Taft Hs,240 EAST 172 STREET,-73.9109,40.8404
1999,09X412,X412,Bronx High School of Business,240 EAST 172 STREET,-73.911366,40.839307
2000,09X413,X413,Bronx High School for Medical Science,240 EAST 172 STREET,-73.911366,40.839307
2001,09X414,X414,Jonathan Levin High School for Media and Communica,240 EAST 172 STREET,-73.911366,40.839307
2002,11X415,X415,Christopher Columbus High School,925 ASTOR AVENUE,-73.860729,40.860443
2003,11X418,X418,Bronx High School for the Visual Arts,2040 ANTIN PL,-73.864438,40.851577
2004,11X418,X418,Bronx High School for the Visual Arts,2040 ANTIN PL,-73.864438,40.851577
2005,84X419,X419,Bronx Academy of Promise Charter School,1349 INWOOD AVENUE,-73.919597,40.839503
2006,84X422,X422,Icahn Charter School 3,1500 PELHAM PARKWAY SOUTH,-73.843013,40.856531
2007,08X424,X424,The Hunts Point School,730 BRYANT AVENUE,-73.885284,40.815827
2008,11X425,X425,Evander Childs High School,800 EAST GUN HILL ROAD,-73.8619,40.8759
2009,07X427,X427,Community School for Social Justice,350 GERARD AVENUE,-73.92996,40.815712
2010,84X429,X429,Charter High School for Law and Social Justice,1960 UNIVERSITY AVENUE,-73.911708,40.853728
2011,10X430,X430,Walton High School,2780 RESERVOIR AVENUE,-73.8983,40.8703
2012,08X432,X432,Bronx Bridges High School,1980 LAFAYETTE AVENUE,-73.85593,40.821218
2013,10X433,X433,High School for Teaching and the Professions,2780 RESERVOIR AVENUE,-73.897066,40.869061
2014,10X434,X434,Belmont Preparatory High School,500 EAST FORDHAM ROAD,-73.888625,40.859466
2015,10X435,X435,Theodore Roosevelt Hs,500 EAST FORDHAM ROAD,-73.8881,40.86
2016,10X437,X437,Fordham High School for the Arts,500 EAST FORDHAM ROAD,-73.888625,40.859466
2017,10X438,X438,Fordham Leadership Academy,500 EAST FORDHAM ROAD,-73.888625,40.859466
2018,10X439,X439,Bronx High School for Law and Community Service,500 EAST FORDHAM ROAD,-73.888625,40.859466
2019,10X440,X440,DeWitt Clinton High School,100 WEST MOSHOLU PARKWAY SOUTH,-73.889011,40.879958
2020,10X442,X442,"Celia Cruz Bronx High School of Music, The",2780 RESERVOIR AVENUE,-73.897066,40.869061
2021,09X443,X443,The Family School,1116 SHERIDAN AVENUE,-73.917526,40.831873
2022,10X445,X445,The Bronx High School of Science,75 WEST 205 STREET,-73.889011,40.879958
2023,12X446,X446,Arturo A. Schomburg Satellite Academy Bronx,1010 REV. J. A. POLITE AVENUE,-73.898265,40.823124
2024,10X447,X447,Creston Academy,125 EAST 181 STREET,-73.903139,40.855337
2025,08X448,X448,Soundview Academy for Culture and Scholarship,885 BOLTON AVENUE,-73.859998,40.822925
2026,09X449,X449,Grant Avenue Elementary School,250 EAST 164 STREET,-73.917705,40.828009
2027,08X450,X450,Adlai E. Stevenson High School,1980 LAFAYETTE AVENUE,-73.8562,40.8223
2028,08X452,X452,Gotham Collaborative High School,1980 LAFAYETTE AVENUE,-73.85593,40.821218
2029,09X454,X454,Science and Technology Academy: A Mott Hall School,250 EAST 164 STREET,-73.917705,40.828009
2030,11X455,X455,Harry S Truman High School,750 BAYCHESTER AVENUE,-73.831669,40.874035
2031,09X457,X457,Sheridan Academy for Young Leaders,1116 SHERIDAN AVENUE,-73.917526,40.831873
2032,12X458,X458,Samara Community School,1550 VYSE AVENUE,-73.886995,40.834188
2033,10X459,X459,East Fordham Academy for the Arts,120 EAST 184 STREET,-73.90049,40.859496
2034,84X460,X460,Atmosphere Charter School,22 MARBLE HILL AVENUE,-73.910426,40.875161
2035,84X461,X461,Metropolitan Lighthouse Charter School,180 West 165th street,-73.929797,40.834599
2036,11X462,X462,Cornerstone Academy for Social Action Middle Schoo,3441 STEENWICK AVENUE,-73.830616,40.882778
2037,12X463,X463,Urban Scholars Community School,1180 TINTON AVENUE,-73.900121,40.828406
2038,84X464,X464,Success Academy Charter School - Bronx 4 - New Yor,885 BOLTON AVENUE,-73.859998,40.822925
2039,84X465,X465,Boys Preparatory Charter School of New York,192 EAST 151ST STREET,-73.927397,40.820298
2040,08X467,X467,Mott Hall Community School,650 HOLLYWOOD AVENUE,-73.818083,40.826794
2041,11X468,X468,Pelham Academy of Academics and Community Engageme,2441 WALLACE AVENUE,-73.865028,40.862098
2042,75X469,X469,P469X - The Bronx School for Continuous Learners,3177 WEBSTER AVENUE,-73.875375,40.872559
2043,72X470,X470,South Bronx Hs,701 ST ANN'S AVENUE,-73.911,40.8184
2044,84X471,X471,American Dream Charter School,510 EAST 141 STREET,-73.917417,40.809023
2045,84X472,X472,Family Life Academy Charter School III,370 Gerard Avenue,-73.929949,40.816245
2046,07X473,X473,Mott Haven Village Preparatory High School,701 ST. ANNS AVENUE,-73.911633,40.818041
2047,10X475,X475,John F. Kennedy High School,99 TERRACE VIEW AVENUE,-73.912686,40.877379
2048,10X477,X477,Marble Hill High School for International Studies,99 TERRACE VIEW AVENUE,-73.912686,40.877379
2049,12X478,X478,The Cinema School,1551 EAST 172ND STREET,-73.878191,40.832508
2050,12X479,X479,Bronx Career and College Preparatory High School,800 HOME STREET,-73.900593,40.826933
2051,12X480,X480,Bronx Regional High School,1010 REV. J. A. POLITE AVENUE,-73.898265,40.823124
2052,11X481,X481,The STEAM Bridge School,1684 WHITE PLAINS ROAD,-73.865498,40.843531
2053,84X482,X482,Dr. Richard Izquierdo Health and Science Charter S,800 HOME STREET,-73.900593,40.826933
2054,11X483,X483,The Matilda Avenue School,4520 MATILDA AVENUE,-73.854402,40.901436
2055,84X484,X484,Bronx Charter School for Better Learning II,2545 GUNTHER AVENUE,-73.836525,40.863842
2056,84X486,X486,Rosalyn Yalow Charter School,116-118 EAST 169 STREET,-73.91735,40.836679
2057,84X487,X487,Girls Preparatory Charter School of the Bronx,681 KELLY STREET,-73.901599,40.816078
2058,84X488,X488,The Equality Charter School,4140 HUTCHINSON RIVER PKWAY EA,-73.823816,40.864073
2059,84X489,X489,South Bronx Classical Charter School III,3458 Third Avenue,-73.906403,40.829793
2060,84X491,X491,Academic Leadership Charter School,677 EAST 141 STREET,-73.912557,40.807916
2061,84X492,X492,South Bronx Early College Academy Charter School,766 WESTCHESTER AVENUE,-73.904223,40.818069
2062,84X493,X493,Success Academy Charter School - Bronx 1,339 MORRIS AVENUE,-73.925995,40.813681
2063,84X494,X494,Success Academy Charter School - Bronx 2,450 SAINT PAUL'S PLACE,-73.90497,40.835934
2064,07X495,X495,University Heights Secondary School,701 ST. ANNS AVENUE,-73.911633,40.818041
2065,84X496,X496,Icahn Charter School 4,1500 PELHAM PARKWAY SOUTH,-73.843013,40.856531
2066,84X497,X497,Storefront Academy Charter School,609 JACKSON AVENUE,-73.908773,40.814952
2067,11X498,X498,P.S./M.S. 11X498 - Van Nest Academy,1640 BRONXDALE AVE,-73.857989,40.845023
2068,84X499,X499,Kingsbridge Innovative Design Charter School (KIDC,295 WEST  231 STREET,0,0
2069,07X500,X500,Hostos-Lincoln Academy of Science,600 SAINT ANN'S AVENUE,-73.912038,40.814857
2070,09X501,X501,District 9 HS#1,240 EAST 172 STREET,-73.911366,40.839307
2071,09X505,X505,"Bronx School for Law, Government and Justice",244 EAST 163 STREET,-73.919024,40.827461
2072,11X508,X508,Bronxdale High School,925 ASTOR AVENUE,-73.860729,40.860443
2073,11X509,X509,High School of Language and Innovation,925 ASTOR AVENUE,-73.860729,40.860443
2074,12X511,X511,Bronx Envision Academy,1619 BOSTON ROAD,-73.890591,40.836245
2075,11X513,X513,New World High School,921 EAST 228TH STREET,-73.852714,40.888242
2076,11X514,X514,The Bronxwood Preparatory Academy,921 EAST 228TH STREET,-73.852714,40.888242
2077,09X517,X517,Frederick Douglass Academy III Secondary School,3630 THIRD AVENUE,-73.903951,40.833493
2078,08X519,X519,Felisa Rincon de Gautier Institute for Law and Pub,1440 STORY AVENUE,-73.881187,40.820486
2079,07X520,X520,Foreign Language Academy of Global Studies,470 JACKSON AVENUE,-73.909363,40.811051
2080,12X521,X521,The Metropolitan Soundview High School,1300 BOYNTON AVENUE,-73.878191,40.832508
2081,07X522,X522,Bronx Design and Construction Academy,333 EAST 151 STREET,-73.919949,40.818645
2082,10X524,X524,Crotona International High School,2474 CROTONA AVENUE,-73.882487,40.855392
2083,09X525,X525,Bronx Leadership Academy High School,1710 WEBSTER AVENUE,-73.902969,40.84325
2084,07X527,X527,Bronx Leadership Academy II High School,730 CONCOURSE VILLAGE WEST,-73.922366,40.821828
2085,11X529,X529,One World Middle School at Edenwald,3750 BAYCHESTER AVENUE,-73.839682,40.886002
2086,08X530,X530,Longwood Preparatory Academy,965 LONGWOOD AVENUE,-73.897876,40.817741
2087,12X531,X531,Archer Elementary School,1827 ARCHER STREET,-73.866038,40.838151
2088,11X532,X532,Baychester Middle School,3750 BAYCHESTER AVENUE,-73.839682,40.886002
2089,12X536,X536,P.S. 536,1827 ARCHER STREET,-73.866038,40.838151
2090,08X537,X537,Bronx Arena High School,1440 STORY AVENUE,-73.881187,40.820486
2091,84X538,X538,Icahn Charter School 5,1500 PELHAM PARKWAY SOUTH,-73.843013,40.856531
2092,84X539,X539,New Visions Charter High School for Advanced Math,99 TERRACE VIEW AVENUE,-73.912686,40.877379
2093,08X540,X540,School for Community Research and Learning,1980 LAFAYETTE AVENUE,-73.85593,40.821218
2094,11X541,X541,Global Enterprise High School,925 ASTOR AVENUE,-73.860729,40.860443
2095,11X542,X542,Pelham Preparatory Academy,925 ASTOR AVENUE,-73.860729,40.860443
2096,09X543,X543,High School for Violin and Dance,1110 BOSTON ROAD,-73.90392,40.827455
2097,11X544,X544,High School for Contemporary Arts,800 EAST GUN HILL ROAD,-73.861649,40.875172
2098,11X545,X545,Bronx Aerospace High School,800 EAST GUN HILL ROAD,-73.861649,40.875172
2099,10X546,X546,Bronx Theatre High School,99 TERRACE VIEW AVENUE,-73.912686,40.877379
2100,07X547,X547,New Explorers High School,730 CONCOURSE VILLAGE WEST,-73.922366,40.821828
2101,07X548,X548,Careers in Sports High School,730 CONCOURSE VILLAGE WEST,-73.922366,40.821828
2102,10X549,X549,Discovery High School,2780 RESERVOIR AVENUE,-73.897066,40.869061
2103,12X550,X550,High School of World Cultures,1300 BOYNTON AVENUE,-73.878191,40.832508
2104,07X551,X551,The Urban Assembly Bronx Academy of Letters,339 MORRIS AVENUE,-73.925995,40.813681
2105,84X553,X553,New Visions Charter High School for the Humanities,99 TERRACE VIEW AVENUE,-73.912686,40.877379
2106,84X554,X554,New York City Montessori Charter School,423 East 138th Street,-73.921888,40.808703
2107,09X555,X555,Mount Eden Children's Academy,1501 JEROME AVENUE,-73.916084,40.842503
2108,11X556,X556,Bronx Park Middle School,2441 WALLACE AVENUE,-73.865028,40.862098
2109,07X557,X557,Mott Haven Community High School,455 SOUTHERN BLVD,-73.907528,40.810671
2110,08X558,X558,Westchester Square Academy,3000 EAST TREMONT AVENUE,-73.839583,40.839775
2111,08X559,X559,School for Tourism and Hospitality,900 TINTON AVENUE,-73.902892,40.821723
2112,08X560,X560,Bronx Academy High School,1440 STORY AVENUE,-73.881187,40.820486
2113,08X561,X561,Bronx Compass High School,1980 LAFAYETTE AVENUE,-73.85593,40.821218
2114,08X562,X562,Blueprint Middle School,1111 PUGSLEY AVENUE,-73.857882,40.829153
2115,08X563,X563,Collegiate Preparatory Academy At Longwood,965 LONGWOOD AVENUE,-73.897876,40.817741
2116,09X564,X564,Claremont International HS,240 EAST 172 STREET,-73.911366,40.839307
2117,10X565,X565,High School for Energy and Technology,2474 CROTONA AVENUE,-73.882487,40.855392
2118,11X566,X566,Pelham Gardens Middle School,2545 GUNTHER AVENUE,-73.836525,40.863842
2119,11X567,X567,Linden Tree Elementary School,1560 PURDY STREET,-73.853203,40.838759
2120,09X568,X568,Young Women's Leadership School of the Bronx,1865 MORRIS AVENUE,-73.909022,40.848552
2121,08X569,X569,Throggs Neck High School,3000 EAST TREMONT AVENUE,-73.839583,40.839775
2122,09X570,X570,Bronx Middle School Of Academic And Career Technol,1600 WEBSTER AVENUE,-73.904353,40.840536
2123,09X571,X571,The College Avenue Academy,270 EAST 167 STREET,-73.91435,40.832022
2124,10X572,X572,Innovative School Of Excellence At The Angelo Patr,2225 WEBSTER AVENUE,-73.897404,40.854257
2125,09X574,X574,Business Enterprise High School,240 EAST 172 STREET,-73.911366,40.839307
2126,10X575,X575,Norwood Academy Of Communal Excellence At The Isob,149 EAST MOSHOLU PKWY N,-73.881245,40.876819
2127,10X575,X575,Norwood Academy Of Communal Excellence At The Isob,149 EAST MOSHOLU PKWY N,-73.881245,40.876819
2128,07X576,X576,Bronx Institute For Automotive Technology,333 EAST 151 STREET,-73.919949,40.818645
2129,10X577,X577,East Fordham College & Career Preparatory High Sch,500 EAST FORDHAM ROAD,-73.888625,40.859466
2130,11X578,X578,NORTH BRONX ACADEMY,3750 BAYCHESTER AVENUE,-73.839682,40.886002
2131,84X579,X579,Bronx Charter School for Excellence II,1804 HOLLAND AVENUE,-73.864154,40.845897
2132,79X580,X580,Literacy Center - Bronx,1010 REV POLITE AVENUE,0,0
2133,84X581,X581,South Bronx Community Charter School,730 CONCOURSE VILLAGE WEST,-73.922366,40.821828
2134,08X583,X583,P.S. 583,1028 WHITE PLAINS ROAD,-73.859622,40.826949
2135,07X584,X584,I.S. 584,600 SAINT ANN'S AVENUE,-73.912038,40.814857
2136,84X585,X585,Legacy College Preparatory,416 WILLIS AVENUE,-73.919979,40.813077
2137,84X586,X586,Brilla Veritas Charter School,452 COLLEGE AVENUE,-73.921481,40.815311
2138,84X587,X587,NYC Autism Charter School Bronx,1180 TINTON AVENUE,-73.900121,40.828406
2139,84X588,X588,South Bronx Classical Charter School IV,3458 Third Avenue,-73.906403,40.829793
2140,84X589,X589,Bronx Charter School for Excellence 3,3956 CARPENTER AVENUE,-73.862924,40.888351
2141,84X592,X592,Amber Charter School II,3120 Corlear Avenue,-73.907295,40.880738
2142,09X593,X593,South Bronx International Middle School,1000 TELLER AVENUE,-73.914067,40.827438
2143,09X594,X594,M.S. 594,1000 TELLER AVENUE,-73.914067,40.827438
2144,12X595,X595,P.S. 595,700 EAST 179 STREET,-73.889602,40.846205
2145,75X596,X596,P.S. X596,850 BAYCHESTER AVENUE,-73.831669,40.874035
2146,84X597,X597,The Urban Assembly Charter School for Computer Sci,1300 BOYNTON AVENUE,-73.878191,40.832508
2147,84X598,X598,KIPP Freedom Charter School,2246 JEROME AVENUE,-73.903764,40.857932
2148,84X599,X599,Cardinal McCloskey Community Charter School,685 EAST 182 STREET,-73.887345,40.851395
2149,07X600,X600,Alfred E. Smith Career and Technical Education Hig,333 EAST 151 STREET,-73.919949,40.818645
2150,84X606,X606,Emblaze Academy Charter School,1164 Garrison Avenue,-73.88819,40.820102
2151,84X608,X608,Bronx Charter School for Excellence 4,3956 CARPENTER AVENUE,-73.862924,40.888351
2152,84X609,X609,Zeta Charter Schools - New York City 2,222 ALEXANDER AVENUE,-73.924847,40.809462
2153,84X610,X610,Urban Dove Team Charter School II,860 Forest Avenue,-73.905097,40.820858
2154,84X611,X611,AECI II: NYC Charter High School for Computer Engi,423 East 138th Street,-73.921888,40.808703
2155,84X612,X612,Creo College Preparatory Charter School,650 GRAND CONCOURSE,-73.925045,40.820059
2156,84X613,X613,Bold Charter School,1090 Close Avenue,-73.881894,40.825121
2157,84X614,X614,DREAM Mott Haven Charter School,250 EAST 156 STREET,-73.92114,40.822574
2158,84X615,X615,University Prep Charter Middle School,470 JACKSON AVENUE,-73.909363,40.811051
2159,84X616,X616,KIPP Elements Primary Charter School,2246 JEROME AVENUE,-73.903764,40.857932
2160,84X617,X617,KIPP All Charter School,2246 JEROME AVENUE,-73.903764,40.857932
2161,84X619,X619,Bronx Arts and Science Charter School,925 HUTCHINSON RIVER PARKWAY,-73.838299,40.825715
2162,84X620,X620,Bronx Charter School for Excellence 5,1946 BATHGATE AVENUE,-73.89654,40.847487
2163,84X623,X623,Neighborhood Charter School: Bronx,411 WALES AVENUE,-73.909019,40.808963
2164,08X650,X650,Jane Addams High School for Academic Careers,900 TINTON AVENUE,-73.902892,40.821723
2165,07X655,X655,Samuel Gompers Career and Technical Education High,455 SOUTHERN BLVD,-73.907528,40.810671
2166,10X660,X660,Grace Dodge Career and Technical Education High Sc,2474 CROTONA AVENUE,-73.882487,40.855392
2167,07X670,X670,Health Opportunities High School,350 GERARD AVENUE,-73.92996,40.815712
2168,12X680,X680,Bronx Coalition Community High School,1300 BOYNTON AVENUE,-73.878191,40.832508
2169,12X682,X682,Fannie Lou Hamer Freedom High School,1021 JENNINGS STREET,-73.885804,40.831212
2170,12X684,X684,Wings Academy,1122 EAST 180 STREET,-73.875262,40.841376
2171,08X686,X686,New School for Arts and Science,965 LONGWOOD AVENUE,-73.8982,40.8175
2172,12X690,X690,Monroe Academy for Business/Law,1300 BOYNTON AVENUE,-73.878191,40.832508
2173,12X691,X691,Bronx Little School,1827 ARCHER STREET,-73.866038,40.838151
2174,12X692,X692,Monroe Academy for Visual Arts & Design,1300 BOYNTON AVENUE,-73.878191,40.832508
2175,10X696,X696,High School of American Studies at Lehman College,2925 GOULDEN AVENUE,-73.895543,40.874725
2176,10X696,X696,High School of American Studies at Lehman College,2925 GOULDEN AVENUE,-73.895543,40.874725
2177,84X703,X703,Bronx Preparatory Charter School,3872 THIRD AVENUE,-73.900123,40.839072
2178,84X704,X704,KIPP Academy Charter School,250 EAST 156 STREET,-73.92114,40.822574
2179,84X705,X705,Family Life Academy Charter School,14 WEST 170 STREET,-73.918665,40.840262
2180,84X706,X706,Harriet Tubman Charter School,3565 THIRD AVENUE,-73.905771,40.832328
2181,84X717,X717,Icahn Charter School,1506-30 BROOK AVENUE,-73.904703,40.838654
2182,84X718,X718,Bronx Charter School for Better Learning,3740 BAYCHESTER AVENUE,-73.839288,40.884371
2183,75X721,X721,P.S. X721 - Stephen McSweeney School,2697 WESTCHESTER AVENUE,-73.839114,40.842725
2184,75X723,X723,P.S. 723,3540 BIVONA STREET,-73.831856,40.88298
2185,84X729,X729,Readnet Bronx Charter School,429-437 EAST 148TH STREET,-73.917,40.8149
2186,84X730,X730,Bronx Charter School for the Arts,950 LONGFELLOW AVENUE,-73.886477,40.821815
2187,75X754,X754,J. M. Rapport School Career Development,470 JACKSON AVENUE,-73.909363,40.811051
2188,75X811,X811,P.S. X811,1434 LONGFELLOW AVENUE,-73.886798,40.830552
2189,75X811,X811,P.S. X811,1434 LONGFELLOW AVENUE,-73.886798,40.830552